key_with_zip,key_no_zip,address,city,zip,licensee,lat,lng
"1009 E 10th St, Alamogordo 88310.0","1009 E 10th St, Alamogordo",1009 E 10th St,Alamogordo,88310.0,1912 CANNABIS COMPANY LLC - 10TH ST RETAIL,,
"101 N White Sands Blvd, Alamogordo 88310.0","101 N White Sands Blvd, Alamogordo",101 N White Sands Blvd,Alamogordo,88310.0,R. GREENLEAF ORGANICS INC - WHITE SANDS BLVD RETAIL,,
"1022 N White Sands Blvd, Alamogordo 88310.0","1022 N White Sands Blvd, Alamogordo",1022 N White Sands Blvd,Alamogordo,88310.0,MUNCHIEZ CANNABIS LLC - WHITE SANDS BLVD RETAIL,,
"123 N. White Sands Blvd, Alamogordo 88310.0","123 N. White Sands Blvd, Alamogordo",123 N. White Sands Blvd,Alamogordo,88310.0,PURLIFE DISPENSARY - Alamogordo,,
"1300 White Sands Blvd, Alamogordo 88310.0","1300 White Sands Blvd, Alamogordo",1300 White Sands Blvd,Alamogordo,88310.0,"RMC NM, INC - CLOVIS RETAIL",,
"1610 Indian Wells Rd, Alamogordo 88310.0","1610 Indian Wells Rd, Alamogordo",1610 Indian Wells Rd,Alamogordo,88310.0,HIGHER GRADE FARMS LLC - INDIAN WELLS RETAIL,,
"2010 Pecan Dr, Alamogordo 88310.0","2010 Pecan Dr, Alamogordo",2010 Pecan Dr,Alamogordo,88310.0,S  H GREEN LIFE - PECAN DR RETAIL,,
"215 Highway 82, Alamogordo 88310.0","215 Highway 82, Alamogordo",215 Highway 82,Alamogordo,88310.0,"EL LUMBRE FARMS, LLC - HWY 82 RETAIL",,
"218 WhiteSands, Alamogordo 88310.0","218 WhiteSands, Alamogordo",218 WhiteSands,Alamogordo,88310.0,ROADRUNNER CANNABIS CO LLC,,
"2419 North White Sands Blvd Suite C, Alamogordo 88310.0","2419 North White Sands Blvd Suite C, Alamogordo",2419 North White Sands Blvd Suite C,Alamogordo,88310.0,"GRANDPAS HOME GROWN HERBS, LLC - VILLA CHRISTINA RETAIL",,
"2617 N. White Sands Blvd. Ste. D, Alamogordo 88310.0","2617 N. White Sands Blvd. Ste. D, Alamogordo",2617 N. White Sands Blvd. Ste. D,Alamogordo,88310.0,COMPASSIONATE DISTRIBUTORS INC - WHITE SANDS RETAIL,,
"300 N White Sands Blvd., Alamogordo 88310.0","300 N White Sands Blvd., Alamogordo",300 N White Sands Blvd.,Alamogordo,88310.0,PECOS VALLEY PRODUCTION INC - WHITE SANDS RETAIL,,
"601 N White Sands Blvd, Alamogordo 88310.0","601 N White Sands Blvd, Alamogordo",601 N White Sands Blvd,Alamogordo,88310.0,NEW MEXICO TOP ORGANICS ULTRA HEALTH INC  ALAMOGORDO RETAIL,,
"604 Tenth St, Alamogordo 88310.0","604 Tenth St, Alamogordo",604 Tenth St,Alamogordo,88310.0,LAVISH LEAF LLC- 10TH STREET RETAIL,,
"707 A N Whitesands Blvd, Alamogordo 88310.0","707 A N Whitesands Blvd, Alamogordo",707 A N Whitesands Blvd,Alamogordo,88310.0,SPIDER LLC-WHITESANDS BLVD RETAILER,,
"7246 Hwy 54 70, Alamogordo 88310.0","7246 Hwy 54 70, Alamogordo",7246 Hwy 54 70,Alamogordo,88310.0,4A FARM LLC DBA STOGIES - HWY 54 70 RETAIL/CONSUMPTION,,
"805 N White Sands Blvd Ste D, Alamogordo 88310.0","805 N White Sands Blvd Ste D, Alamogordo",805 N White Sands Blvd Ste D,Alamogordo,88310.0,SCORE 420 - WHITE SANDS BLVD RETAIL,,
"900 Adams, Alamogordo 88310.0","900 Adams, Alamogordo",900 Adams,Alamogordo,88310.0,LYONS PRIDE DISPENSARY LLC/ RETAIL ADAMS,,
"918 N White Sands Blvd, Alamogordo 88310.0","918 N White Sands Blvd, Alamogordo",918 N White Sands Blvd,Alamogordo,88310.0,RIDANKULOUS CO/ RETAIL N WHITE SANDS BLVD,,
"637 Broadway Blvd SE Suite A, Albquerque 87102.0","637 Broadway Blvd SE Suite A, Albquerque",637 Broadway Blvd SE Suite A,Albquerque,87102.0,HIGH LOADED FARMS LLC - BROADWAY BLVD RETAILER,,
"100 Coors Blvd., NW, Albuquerque 87120.0","100 Coors Blvd., NW, Albuquerque","100 Coors Blvd., NW",Albuquerque,87120.0,NEW MEXICO TOP ORGANICS ULTRA HEALTH INC  COORS BLVD RETAIL - Albuquerque,,
"10032 Coors Blvd NW, Albuquerque 87114.0","10032 Coors Blvd NW, Albuquerque",10032 Coors Blvd NW,Albuquerque,87114.0,THE VERDES FOUNDATION/ RETAIL COORS BLVD NW,,
"101 98th St SW, Albuquerque 87121.0","101 98th St SW, Albuquerque",101 98th St SW,Albuquerque,87121.0,ELKHORN RETAIL LLC/ RETAIL 98TH ST SW,,
"1011 4th St. NW, Albuquerque 87102.0","1011 4th St. NW, Albuquerque",1011 4th St. NW,Albuquerque,87102.0,WATTS INDUSTRIES LLC - 4TH ST RETAIL,,
"1015 4th Street SW, Albuquerque 87102.0","1015 4th Street SW, Albuquerque",1015 4th Street SW,Albuquerque,87102.0,PAR 4 LLC/ RETAIL 4TH STREET SW,,
"1016 Juan Tabo Blvd. NE Ste. J, Albuquerque 87112.0","1016 Juan Tabo Blvd. NE Ste. J, Albuquerque",1016 Juan Tabo Blvd. NE Ste. J,Albuquerque,87112.0,SEVEN CLOVER ALBUQUERQUE DISPENSARY,,
"1017 San Mateo SE, Albuquerque 87108.0","1017 San Mateo SE, Albuquerque",1017 San Mateo SE,Albuquerque,87108.0,WEED AND READ LTD LLC,,
"10200 Corrales Rd NW Ste E-2, Albuquerque 87114.0","10200 Corrales Rd NW Ste E-2, Albuquerque",10200 Corrales Rd NW Ste E-2,Albuquerque,87114.0,GOT GREENS LLC - CORRALES RD RETAIL,,
"10250 Cottonwood Park NW, Albuquerque 87114.0","10250 Cottonwood Park NW, Albuquerque",10250 Cottonwood Park NW,Albuquerque,87114.0,R. GREENLEAF ORGANICS DISPENSARY - Albuquerque,,
"1027 San Mateo Blvd SE, Albuquerque 87108.0","1027 San Mateo Blvd SE, Albuquerque",1027 San Mateo Blvd SE,Albuquerque,87108.0,"STONED DESERT, LLC - SAN MATEO BLVD RETAIL/CONS",,
"10660 Unser Blvd., NW, Albuquerque 87114.0","10660 Unser Blvd., NW, Albuquerque","10660 Unser Blvd., NW",Albuquerque,87114.0,EVEREST APOTHECARY - ALBUQUERQUE DISPENSARY,,
"11 Haines Ave NW, Albuquerque 87102.0","11 Haines Ave NW, Albuquerque",11 Haines Ave NW,Albuquerque,87102.0,AFICIONADO CANNABIS INC - HAINES RETAIL,,
"110 Yale SE, Albuquerque 87106.0","110 Yale SE, Albuquerque",110 Yale SE,Albuquerque,87106.0,R. GREENLEAF ORGANICS - Albuquerque,,
"1100 4th St NW, Albuquerque 87102.0","1100 4th St NW, Albuquerque",1100 4th St NW,Albuquerque,87102.0,RED GORILLA GREENS - 4TH ST RETAIL,,
"1125 Kent Ave NW, Albuquerque 87102.0","1125 Kent Ave NW, Albuquerque",1125 Kent Ave NW,Albuquerque,87102.0,GALLEGOS  RHODES ENTERPRISES LLC - KENT AVE RETAIL,,
"120 98th ST NW, Albuquerque 87121.0","120 98th ST NW, Albuquerque",120 98th ST NW,Albuquerque,87121.0,URBAN WELLNESS - 98TH ST DISPENSARY,,
"121 Eubank NE Ste A, Albuquerque 87123.0","121 Eubank NE Ste A, Albuquerque",121 Eubank NE Ste A,Albuquerque,87123.0,PECOS VALLEY PRODUCTION INC - EUBANK RETAIL,,
"1220 Eubank Blvd NE Ste B, Albuquerque 87112.0","1220 Eubank Blvd NE Ste B, Albuquerque",1220 Eubank Blvd NE Ste B,Albuquerque,87112.0,LOVES CANNABIS - Albuquerque,,
"1228 Juan Tabo NE, Albuquerque 87112.0","1228 Juan Tabo NE, Albuquerque",1228 Juan Tabo NE,Albuquerque,87112.0,THE TRIDENT CANNABIS COMPANY LLC - JUAN TABO RETAIL,,
"12611 Montgomery Blvd NE Suite A10, Albuquerque 87111.0","12611 Montgomery Blvd NE Suite A10, Albuquerque",12611 Montgomery Blvd NE Suite A10,Albuquerque,87111.0,FAMILY STRAINS 2 LLC,,
"12999 Central Avenue, Albuquerque 87123.0","12999 Central Avenue, Albuquerque",12999 Central Avenue,Albuquerque,87123.0,SCORE 420 - CENTRAL AVENUE RETAILER,,
"1300 Juan Tabo ne suite C, Albuquerque 87112.0","1300 Juan Tabo ne suite C, Albuquerque",1300 Juan Tabo ne suite C,Albuquerque,87112.0,BOGOSLLC - JUAN TABO MANUFACTURER,,
"1301 Rio Grande Blvd NW Ste 2, Albuquerque 87104.0","1301 Rio Grande Blvd NW Ste 2, Albuquerque",1301 Rio Grande Blvd NW Ste 2,Albuquerque,87104.0,OVERGROWN LLC- RIO GRANDE BLVD RETAIL,,
"13025 Lomas Blvd NE Ste B, Albuquerque 87112.0","13025 Lomas Blvd NE Ste B, Albuquerque",13025 Lomas Blvd NE Ste B,Albuquerque,87112.0,BOUTIQUE HIGH - LOMAS BLVD RETAIL,,
"1309 Eubank Blvd NE, Albuquerque 87112.0","1309 Eubank Blvd NE, Albuquerque",1309 Eubank Blvd NE,Albuquerque,87112.0,UNBEWEEDABLE CANNABIS CAFE LLC - EUBANK RETAIL/ CONSUMPTION,,
"1309 Yale Blvd SE, Albuquerque 87106.0","1309 Yale Blvd SE, Albuquerque",1309 Yale Blvd SE,Albuquerque,87106.0,CANVAS ORGANICS ENTERPRISES LLC - YALE BLVD RETAIL,,
"1330 San Pedro Dr NE Suite 103, Albuquerque 87110.0","1330 San Pedro Dr NE Suite 103, Albuquerque",1330 San Pedro Dr NE Suite 103,Albuquerque,87110.0,ABOVE GRADE CRAFT CANNABIS LLC - SAN PEDRO BLVD RETAIL,,
"1340 Broadway Blvd NE Ste A, Albuquerque 87102.0","1340 Broadway Blvd NE Ste A, Albuquerque",1340 Broadway Blvd NE Ste A,Albuquerque,87102.0,BLUE WHALE ENTERPRISES INC - BROADWAY RETAIL,,
"13600 Copper Ave NE, Albuquerque 87123.0","13600 Copper Ave NE, Albuquerque",13600 Copper Ave NE,Albuquerque,87123.0,WEEDMART LLC - COPPER RETAIL,,
"13600 Copper Ave NE Ste C, Albuquerque 87123.0","13600 Copper Ave NE Ste C, Albuquerque",13600 Copper Ave NE Ste C,Albuquerque,87123.0,WEEDMART LLC - COPPER AVE MANUFACTURER,,
"138 Harvard Dr SE, Albuquerque 87106.0","138 Harvard Dr SE, Albuquerque",138 Harvard Dr SE,Albuquerque,87106.0,TROPICS B LLC - 138 HARVARD DR SE CONS/RETAIL,,
"141 Osuna Rd NE, Albuquerque 87107.0","141 Osuna Rd NE, Albuquerque",141 Osuna Rd NE,Albuquerque,87107.0,OCC ABQ LLC- OSUNA RD RETAIL,,
"1416 Juan Tabo Blvd NE, Albuquerque 87112.0","1416 Juan Tabo Blvd NE, Albuquerque",1416 Juan Tabo Blvd NE,Albuquerque,87112.0,CANNAEXPRESS INC - JUAN TABO RETAIL,,
"1451 12th Street, Albuquerque 87104.0","1451 12th Street, Albuquerque",1451 12th Street,Albuquerque,87104.0,HF HOLDING LLC - 12TH ST MANUFACTURER,,
"1514 Coors Blvd Ste B, Albuquerque 87121.0","1514 Coors Blvd Ste B, Albuquerque",1514 Coors Blvd Ste B,Albuquerque,87121.0,PROHIBITION 37,,
"1520 Lomas Blvd NW, Albuquerque 87104.0","1520 Lomas Blvd NW, Albuquerque",1520 Lomas Blvd NW,Albuquerque,87104.0,FCI OF NEW MEXICO - LOMAS RETAIL,,
"1605 Isleta Blvd Ste D, Albuquerque 87105.0","1605 Isleta Blvd Ste D, Albuquerque",1605 Isleta Blvd Ste D,Albuquerque,87105.0,URBAN WELLNESS - ISLETA RETAIL,,
"1606 Central Ave NE Ste 101, Albuquerque 87106.0","1606 Central Ave NE Ste 101, Albuquerque",1606 Central Ave NE Ste 101,Albuquerque,87106.0,RELEAF CANNABIS CO - CENTRAL AVE RETAIL,,
"1616 Eubank Blvd NE, Albuquerque 87112.0","1616 Eubank Blvd NE, Albuquerque",1616 Eubank Blvd NE,Albuquerque,87112.0,KEYWAY INC/DBA THE BAD COMPANY,,
"1617 Indian School Rd, Albuquerque 87104.0","1617 Indian School Rd, Albuquerque",1617 Indian School Rd,Albuquerque,87104.0,LA MOTA NEW MEXICO - INDIAN SCHOOL ROAD MANUFACTURER,,
"1623 San Pedro Dr NE, Albuquerque 87110.0","1623 San Pedro Dr NE, Albuquerque",1623 San Pedro Dr NE,Albuquerque,87110.0,THE HOLY CANNABIS - SAN PEDRO RETAIL,,
"1629 4th St NW, Albuquerque 87102.0","1629 4th St NW, Albuquerque",1629 4th St NW,Albuquerque,87102.0,CLOUDWALKER FARM LLC - ABIQUIU RETAIL,,
"1698 Rio Bravo Blvd SW Ste B, Albuquerque 87105.0","1698 Rio Bravo Blvd SW Ste B, Albuquerque",1698 Rio Bravo Blvd SW Ste B,Albuquerque,87105.0,ANIMACANN INC - RIO BRAVO BLVD RETAIL,,
"1713 Juan Tabo Blvd NE, Albuquerque 87112.0","1713 Juan Tabo Blvd NE, Albuquerque",1713 Juan Tabo Blvd NE,Albuquerque,87112.0,CHADCOR HOLDINGS NM- RETAIL - Albuquerque,,
"1713 San Pedro Dr NE, Albuquerque 87110.0","1713 San Pedro Dr NE, Albuquerque",1713 San Pedro Dr NE,Albuquerque,87110.0,ONESTOPSMOKESHOPVAPER@ACCESSORIES - SAN PEDRO RETAIL,,
"1720 Juan Tabo Suite E, Albuquerque 87112.0","1720 Juan Tabo Suite E, Albuquerque",1720 Juan Tabo Suite E,Albuquerque,87112.0,"SMOKE HAVEN, LLC - JUAN TABO RETAILER",,
"1812 Eubank Blvd NE, Albuquerque 87112.0","1812 Eubank Blvd NE, Albuquerque",1812 Eubank Blvd NE,Albuquerque,87112.0,LAZYDAZE ABQ LLC - EUBANK CONS / RTLR,,
"191 Alameda Blvd NE, Albuquerque 87114.0","191 Alameda Blvd NE, Albuquerque",191 Alameda Blvd NE,Albuquerque,87114.0,BEFORE DAYLITE FARMS LLC - RETAIL,,
"1926 Isleta Blvd SW, Albuquerque 87105.0","1926 Isleta Blvd SW, Albuquerque",1926 Isleta Blvd SW,Albuquerque,87105.0,SKY VIEW CANNABIS LLC - ISLETA BLVD RETAIL,,
"200 Coors Blvd NW Suite D, Albuquerque 87121.0","200 Coors Blvd NW Suite D, Albuquerque",200 Coors Blvd NW Suite D,Albuquerque,87121.0,URBAN WELLNESS - COORS RETAIL,,
"2000 Carlisle Blvd NE Suite B, Albuquerque 87110.0","2000 Carlisle Blvd NE Suite B, Albuquerque",2000 Carlisle Blvd NE Suite B,Albuquerque,87110.0,DULCE CANNABIS,,
"2011 Mountain Road NW, Albuquerque 87104.0","2011 Mountain Road NW, Albuquerque",2011 Mountain Road NW,Albuquerque,87104.0,PURLIFE RETAIL - Albuquerque,,
"2015 Eubank Blvd NE, Albuquerque 87112.0","2015 Eubank Blvd NE, Albuquerque",2015 Eubank Blvd NE,Albuquerque,87112.0,FCI OF NEW MEXICO - EUBANK BLVD RETAIL,,
"2017 Ridgecrest Dr SE, Albuquerque 87108.0","2017 Ridgecrest Dr SE, Albuquerque",2017 Ridgecrest Dr SE,Albuquerque,87108.0,LUNA LEAF LLC - RIDGECREST DR RETAIL,,
"2035 Isleta Blvd SW Ste 1, Albuquerque 87105.0","2035 Isleta Blvd SW Ste 1, Albuquerque",2035 Isleta Blvd SW Ste 1,Albuquerque,87105.0,AMNESIA DISPENSARY  ACCESSORIES - ISLETA BLVD RETAIL,,
"207 Old Coors Dr SW, Albuquerque 87121.0","207 Old Coors Dr SW, Albuquerque",207 Old Coors Dr SW,Albuquerque,87121.0,REDS MARIJUANA SHOP LLC - OLD COORS DR RETAIL,,
"2100 Juan Tabo Blvd NE, Albuquerque 87112.0","2100 Juan Tabo Blvd NE, Albuquerque",2100 Juan Tabo Blvd NE,Albuquerque,87112.0,AMNESIA DISPENSARY  ACCESSORIES - DOUGLAS RETAIL,,
"2105 Vista Oeste NW STE D, Albuquerque 87120.0","2105 Vista Oeste NW STE D, Albuquerque",2105 Vista Oeste NW STE D,Albuquerque,87120.0,NM ALTITUDE LLC - VISTA OESTE NORTHWEST RETAILER,,
"2107 Central Ave NW, Albuquerque 87104.0","2107 Central Ave NW, Albuquerque",2107 Central Ave NW,Albuquerque,87104.0,SCORE 420 - CENTRAL AVE MANUFACTURER,,
"2117 Menaul Blvd NE Suite A, Albuquerque 87107.0","2117 Menaul Blvd NE Suite A, Albuquerque",2117 Menaul Blvd NE Suite A,Albuquerque,87107.0,GREEN CENTRAL STATION RETAIL MENAUL,,
"212 3rd St SW, Albuquerque 87102.0","212 3rd St SW, Albuquerque",212 3rd St SW,Albuquerque,87102.0,FOGO NA BOMBA - 3RD ST RETAIL,,
"2125 Central Ave NW, Albuquerque 87104.0","2125 Central Ave NW, Albuquerque",2125 Central Ave NW,Albuquerque,87104.0,SCORE 420 - CENTRAL  RETAIL,,
"214 Menaul Unit B C, Albuquerque 87107.0","214 Menaul Unit B C, Albuquerque",214 Menaul Unit B C,Albuquerque,87107.0,RR DESIGNS LLC - MENAUL RETAIL,,
"214 San Pedro Dr. NE, Albuquerque 87108.0","214 San Pedro Dr. NE, Albuquerque",214 San Pedro Dr. NE,Albuquerque,87108.0,FIREFLOWER LLC - SAN PEDRO RETAIL,,
"220 Copper Avenue NW, Suite 110, Unit 4, Albuquerque 87102.0","220 Copper Avenue NW, Suite 110, Unit 4, Albuquerque","220 Copper Avenue NW, Suite 110, Unit 4",Albuquerque,87102.0,HARVEST FOUNDATION ALBUQUERQUE DISPENSARY,,
"2201 Louisiana, Suite E, Albuquerque 87110.0","2201 Louisiana, Suite E, Albuquerque","2201 Louisiana, Suite E",Albuquerque,87110.0,EVEREST APOTHECARY DISPENSARY,,
"2211 Central Ave NW, Albuquerque 87104.0","2211 Central Ave NW, Albuquerque",2211 Central Ave NW,Albuquerque,87104.0,SWEET GREENS INC - CENTRAL RETAIL,,
"2308 Eubank BLVD, Albuquerque 87112.0","2308 Eubank BLVD, Albuquerque",2308 Eubank BLVD,Albuquerque,87112.0,TROPICS B LLC-EUBANK BLVD RETAIL/CONS,,
"2308 Eubank Blvd NE, Albuquerque 87112.0","2308 Eubank Blvd NE, Albuquerque",2308 Eubank Blvd NE,Albuquerque,87112.0,HERBAN OASIS LLC - RETAIL,,
"2325 San Pedro Drive Northeast, Albuquerque 87110.0","2325 San Pedro Drive Northeast, Albuquerque",2325 San Pedro Drive Northeast,Albuquerque,87110.0,GALLEGOS  RHODES ENTERPRISES LLC,,
"2400 Juan Tabo Blvd NE Suite B, Albuquerque 87112.0","2400 Juan Tabo Blvd NE Suite B, Albuquerque",2400 Juan Tabo Blvd NE Suite B,Albuquerque,87112.0,H2H DISTRIBUTION LLC - 2400 JUAN TABO RETAILER,,
"2400 rio grande blvd nw suite B, Albuquerque 87104.0","2400 rio grande blvd nw suite B, Albuquerque",2400 rio grande blvd nw suite B,Albuquerque,87104.0,LUNA LEAF LLC - RIO GRANDE BLVD NORTHWEST RETAILER,,
"2406 Comanche Rd. NE, Albuquerque 87107.0","2406 Comanche Rd. NE, Albuquerque",2406 Comanche Rd. NE,Albuquerque,87107.0,SANDIA BOTANICALS - Albuquerque,,
"2501 San Pedro Dr Ne Ste 114, Albuquerque 87110.0","2501 San Pedro Dr Ne Ste 114, Albuquerque",2501 San Pedro Dr Ne Ste 114,Albuquerque,87110.0,PUMP AND JUMP LLC - SAN PEDRO RETAIL,,
"2501 San Pedro Dr NE Suite 110, Albuquerque 87110.0","2501 San Pedro Dr NE Suite 110, Albuquerque",2501 San Pedro Dr NE Suite 110,Albuquerque,87110.0,CAPITAL LEVERAGE LLC - SAN PEDRO RETAIL,,
"2505 6th St NW, Albuquerque 87102.0","2505 6th St NW, Albuquerque",2505 6th St NW,Albuquerque,87102.0,BOSQUE BUDS LLC/ RETAIL 6TH ST NW,,
"2506 San Mateo Place, Albuquerque 87110.0","2506 San Mateo Place, Albuquerque",2506 San Mateo Place,Albuquerque,87110.0,A NICE DREAM INC - EDITH RETAIL,,
"251 98th St Ste A  B, Albuquerque 87121.0","251 98th St Ste A  B, Albuquerque",251 98th St Ste A  B,Albuquerque,87121.0,PECOS VALLEY PRODUCTION INC - 98TH ST RETAIL,,
"2523 4th St NW, Albuquerque 87102.0","2523 4th St NW, Albuquerque",2523 4th St NW,Albuquerque,87102.0,NATURES SECRET CANNABIS - 4TH ST RETAIL,,
"2525 Madison St NE, Albuquerque 87110.0","2525 Madison St NE, Albuquerque",2525 Madison St NE,Albuquerque,87110.0,BIGZ RECREATIONAL LLC - MADISON STREET NORTHEAST RETAILER,,
"2527 Wyoming Blvd NE, Albuquerque 87112.0","2527 Wyoming Blvd NE, Albuquerque",2527 Wyoming Blvd NE,Albuquerque,87112.0,THE PRIVATE STASH LLC - WYOMING BLVD RETAIL,,
"2528 Coors Blvd SW, Albuquerque 87121.0","2528 Coors Blvd SW, Albuquerque",2528 Coors Blvd SW,Albuquerque,87121.0,CANNACOLLC-COORS RETAIL,,
"2601 NE Louisiana Blvd., Albuquerque 87110.0","2601 NE Louisiana Blvd., Albuquerque",2601 NE Louisiana Blvd.,Albuquerque,87110.0,JOE WOJICK  JOE CALANDRA LLC,,
"2621 San Mateo Blvd NE Ste B, Albuquerque 87110.0","2621 San Mateo Blvd NE Ste B, Albuquerque",2621 San Mateo Blvd NE Ste B,Albuquerque,87110.0,PROHIBITION 37 - SAN MATEO RETAIL,,
"2621 Wyoming, Albuquerque 87112.0","2621 Wyoming, Albuquerque",2621 Wyoming,Albuquerque,87112.0,GH LLC,,
"2639 San Mateo Blvd, Albuquerque 87110.0","2639 San Mateo Blvd, Albuquerque",2639 San Mateo Blvd,Albuquerque,87110.0,RAW GREENS LLC - SAN MATEO RETAIL,,
"2714 4th St NW, Albuquerque 87107.0","2714 4th St NW, Albuquerque",2714 4th St NW,Albuquerque,87107.0,LA MOTA NEW MEXICO LLC - 4TH ST RETAIL,,
"2720 Central Ave Southeast F, Albuquerque 87106.0","2720 Central Ave Southeast F, Albuquerque",2720 Central Ave Southeast F,Albuquerque,87106.0,OCC ABQ LLC - Albuquerque,,
"2723 San Mateo Blvd NE, Suite B, Albuquerque 87110.0","2723 San Mateo Blvd NE, Suite B, Albuquerque","2723 San Mateo Blvd NE, Suite B",Albuquerque,87110.0,AMNESIA DISPENSARY  ACCESSORIES - Albuquerque,,
"2828 Carlisle NE, Albuquerque 87110.0","2828 Carlisle NE, Albuquerque",2828 Carlisle NE,Albuquerque,87110.0,GRANDE CULTIVATION COLLECTIVE LLC- CARLISLE MANUFACTURER,,
"2829 San Mateo Blvd NE, Albuquerque 87110.0","2829 San Mateo Blvd NE, Albuquerque",2829 San Mateo Blvd NE,Albuquerque,87110.0,THE NATURAL SOURCE LLC,,
"2910 San Mateo Blvd. NE, Albuquerque 87110.0","2910 San Mateo Blvd. NE, Albuquerque",2910 San Mateo Blvd. NE,Albuquerque,87110.0,URBAN WELLNESS - SAN MATEO DISPENSARY,,
"2925 Juan Tabo Blvd NE, Albuquerque 87112.0","2925 Juan Tabo Blvd NE, Albuquerque",2925 Juan Tabo Blvd NE,Albuquerque,87112.0,OCC ABQ LLC - Albuquerque,,
"2937 monte Vista Blvd ne, Albuquerque 87106.0","2937 monte Vista Blvd ne, Albuquerque",2937 monte Vista Blvd ne,Albuquerque,87106.0,CANNABIS INSTITUTE OF AMERICA - MONTE VISTA RTLR,,
"300 San Mateo Blvd SE, Albuquerque 87108.0","300 San Mateo Blvd SE, Albuquerque",300 San Mateo Blvd SE,Albuquerque,87108.0,H2H DISTRIBUTION LLC - SAN MATEO RETAILER,,
"300 Yale Blvd SE, Albuquerque 87106.0","300 Yale Blvd SE, Albuquerque",300 Yale Blvd SE,Albuquerque,87106.0,SMOKIN JOES LLC - YALE RETAIL,,
"3000 San Pedro Drive NE Suite B, Albuquerque 87110.0","3000 San Pedro Drive NE Suite B, Albuquerque",3000 San Pedro Drive NE Suite B,Albuquerque,87110.0,CANVAS ORGANICS ENTERPRISES LLC,,
"301 Central Ave NW, Albuquerque 87102.0","301 Central Ave NW, Albuquerque",301 Central Ave NW,Albuquerque,87102.0,MAD HATTER GROW LLC - CENTRAL RETAIL,,
"301 San Pedro NE, Albuquerque 87108.0","301 San Pedro NE, Albuquerque",301 San Pedro NE,Albuquerque,87108.0,MARCOS ANTONIO PAGAN CARTIGIANO - SAN PEDRO - RETAIL,,
"3094 San Mateo Blvd NE Ste 3100B, Albuquerque 87110.0","3094 San Mateo Blvd NE Ste 3100B, Albuquerque",3094 San Mateo Blvd NE Ste 3100B,Albuquerque,87110.0,MJ ALTA VIDA PRODUCTS LLC - SAN MATEO RETAIL,,
"3100 Suite B San Mateo Blvd, Albuquerque 87110.0","3100 Suite B San Mateo Blvd, Albuquerque",3100 Suite B San Mateo Blvd,Albuquerque,87110.0,MJ ALTA VIDA PRODUCTS LLC-3100 SAN MATEO RETAIL,,
"3107 San Mateo Blvd NE, Albuquerque 87110.0","3107 San Mateo Blvd NE, Albuquerque",3107 San Mateo Blvd NE,Albuquerque,87110.0,MAD HATTER GROW LLC - SAN MATEO BLVD RETAIL,,
"315 San Pedro NE Suite C, Albuquerque 87108.0","315 San Pedro NE Suite C, Albuquerque",315 San Pedro NE Suite C,Albuquerque,87108.0,OCC ABQ LLC- MANUFACTURER,,
"3228 Isleta Blvd SW, Albuquerque 87105.0","3228 Isleta Blvd SW, Albuquerque",3228 Isleta Blvd SW,Albuquerque,87105.0,LOVES CANNABIS- ISLETA RETAIL,,
"3250 Coors Blvd NW Suite A, Albuquerque 87120.0","3250 Coors Blvd NW Suite A, Albuquerque",3250 Coors Blvd NW Suite A,Albuquerque,87120.0,BUDDER PROS LLC - COORS BLVD RETAIL,,
"3313 4th St NW, Albuquerque 87107.0","3313 4th St NW, Albuquerque",3313 4th St NW,Albuquerque,87107.0,TAFOYA FARMS LLC/ RETAIL 4TH ST NW,,
"3320-A Coors Blvd NW, Albuquerque 87120.0","3320-A Coors Blvd NW, Albuquerque",3320-A Coors Blvd NW,Albuquerque,87120.0,HIGH DESERT RELIEF DISPENSARY - Albuquerque,,
"337 Eubank BLVD NE, Albuquerque 87123.0","337 Eubank BLVD NE, Albuquerque",337 Eubank BLVD NE,Albuquerque,87123.0,LALA LAND CANNABIS CO - EUBANK BLVD NORTHEAST RETAILER,,
"3400 Vassar Dr NE, Albuquerque 87107.0","3400 Vassar Dr NE, Albuquerque",3400 Vassar Dr NE,Albuquerque,87107.0,BAKED BUDS LLC - VASSAR RETAIL,,
"3410 NM-528 105, Albuquerque 87114.0","3410 NM-528 105, Albuquerque",3410 NM-528 105,Albuquerque,87114.0,HIGH DESERT RELIEF-NM-528 105 RETAIL,,
"3417 Central Avenue NE, Albuquerque 87106.0","3417 Central Avenue NE, Albuquerque",3417 Central Avenue NE,Albuquerque,87106.0,ENCHANTED BOTANICALS LLC - CENTRAL AVE RETAIL/CONSUMPTION,,
"3426 Vassar Dr. NE Ste B, Albuquerque 87107.0","3426 Vassar Dr. NE Ste B, Albuquerque",3426 Vassar Dr. NE Ste B,Albuquerque,87107.0,BIEN LOCA INDUSTRIES LLC/ RETAIL VASSAR DR. NE,,
"343 Wyoming Blvd NE, Albuquerque 87123.0","343 Wyoming Blvd NE, Albuquerque",343 Wyoming Blvd NE,Albuquerque,87123.0,"KIJANI CORP - WYOMING BLVD, ABQ",,
"3500 Calle Cuervo NW, Albuquerque 87114.0","3500 Calle Cuervo NW, Albuquerque",3500 Calle Cuervo NW,Albuquerque,87114.0,FCI OF NEW MEXICO - CALLE CUERVO RETAIL,,
"3500 Menaul Blvd NE Ste 6, Albuquerque 87107.0","3500 Menaul Blvd NE Ste 6, Albuquerque",3500 Menaul Blvd NE Ste 6,Albuquerque,87107.0,OCC ABQ LLC - MENAUL BLVD RETAIL,,
"3504 Montgomery Blvd NE, Albuquerque 87107.0","3504 Montgomery Blvd NE, Albuquerque",3504 Montgomery Blvd NE,Albuquerque,87107.0,EVEREST APOTHECARY/ RETAIL MONTGOMERY BLVD NE,,
"3530 Wyoming Blvd NE, Albuquerque 87111.0","3530 Wyoming Blvd NE, Albuquerque",3530 Wyoming Blvd NE,Albuquerque,87111.0,HIGHER LIVING CANNABIS FARMING CO LLC - WYOMING RETAIL,,
"3600 Cutler Avenue NE Unit 10, Albuquerque 87110.0","3600 Cutler Avenue NE Unit 10, Albuquerque",3600 Cutler Avenue NE Unit 10,Albuquerque,87110.0,JUICY JOINTS CANNABIS LLC - CUTLER AVENUE RETAILER,,
"3620 Bosque Plaza Lane NW, Albuquerque 87120.0","3620 Bosque Plaza Lane NW, Albuquerque",3620 Bosque Plaza Lane NW,Albuquerque,87120.0,GRASSROOTS GRANTS LLC DISPENSARY ALBUQUERQUE/ CONSUMPTION AREA,,
"3620 NM State Hwy 528, Albuquerque 87114.0","3620 NM State Hwy 528, Albuquerque",3620 NM State Hwy 528,Albuquerque,87114.0,PECOS VALLEY PRODUCTION INC - ALAMEDA,,
"3636 Monte Vista Blvd NE, Albuquerque 87106.0","3636 Monte Vista Blvd NE, Albuquerque",3636 Monte Vista Blvd NE,Albuquerque,87106.0,THE VERDES FOUNDATION/ RETAIL MONTE VISTA BLVD NE,,
"3641 12th St, Albuquerque 87107.0","3641 12th St, Albuquerque",3641 12th St,Albuquerque,87107.0,ANIMACANN INC-12TH ST RETAIL,,
"3641 12th Street NW, Albuquerque 87107.0","3641 12th Street NW, Albuquerque",3641 12th Street NW,Albuquerque,87107.0,SEVEN CLOVER - 2TH STREET NW RETAILER,,
"3700 Ellison Dr NW Ste E-2, Albuquerque 87114.0","3700 Ellison Dr NW Ste E-2, Albuquerque",3700 Ellison Dr NW Ste E-2,Albuquerque,87114.0,TAFOYA FARMS LLC-ELLISON DR RETAIL,,
"3701 San Mateo Blvd NE, Suite G, Albuquerque 87110.0","3701 San Mateo Blvd NE, Suite G, Albuquerque","3701 San Mateo Blvd NE, Suite G",Albuquerque,87110.0,IMPACT FARMS LLC - SAN MATEO BLVD RETAILER,,
"3730 Coors Blvd NW Ste B, Albuquerque 87120.0","3730 Coors Blvd NW Ste B, Albuquerque",3730 Coors Blvd NW Ste B,Albuquerque,87120.0,OCC ABQ LLC - COORS BLVD RETAIL,,
"3800 Central Ave. SE, Albuquerque 87108.0","3800 Central Ave. SE, Albuquerque",3800 Central Ave. SE,Albuquerque,87108.0,SEVEN CLOVER - Albuquerque,,
"3880 menaul blvd ne, Albuquerque 87110.0","3880 menaul blvd ne, Albuquerque",3880 menaul blvd ne,Albuquerque,87110.0,AMIGOS MARKETING - MENAUL BLVD NORTHEAST RETAILER,,
"400 Lomas Blvd NE, Albuquerque 87102.0","400 Lomas Blvd NE, Albuquerque",400 Lomas Blvd NE,Albuquerque,87102.0,CHRONIC KINGS LLC - LOMAS BLVD RETAIL,,
"400 Louisiana SE, Albuquerque 87108.0","400 Louisiana SE, Albuquerque",400 Louisiana SE,Albuquerque,87108.0,ENCHANTED LEAF NM - LOUISIANA RETAIL,,
"4000 Menaul Blvd NE, Albuquerque 87110.0","4000 Menaul Blvd NE, Albuquerque",4000 Menaul Blvd NE,Albuquerque,87110.0,"PURLIFE - UNIV AVE, LC",,
"4000 San Mateo Blvd NE Ste A, Albuquerque 87110.0","4000 San Mateo Blvd NE Ste A, Albuquerque",4000 San Mateo Blvd NE Ste A,Albuquerque,87110.0,FCI OF NEW MEXICO - SAN MATEO BLVD RETAIL,,
"4001 Menaul Blvd NE, Albuquerque 87110.0","4001 Menaul Blvd NE, Albuquerque",4001 Menaul Blvd NE,Albuquerque,87110.0,FCI OF NEW MEXICO - MENAUL BLVD RETAIL,,
"4001 San Mateo Blvd NE Ste C, Albuquerque 87110.0","4001 San Mateo Blvd NE Ste C, Albuquerque",4001 San Mateo Blvd NE Ste C,Albuquerque,87110.0,FLY HIGH NEW MEXICO LLC- RETAIL SAN MATEO BLVD NE STE C,,
"401 Eubank Blvd SE Ste. D, Albuquerque 87123.0","401 Eubank Blvd SE Ste. D, Albuquerque",401 Eubank Blvd SE Ste. D,Albuquerque,87123.0,CANVAS ORGANICS ENTERPRISES LLC - EUBANK BLVD RETAIL,,
"4014 Central Avenue SE, Albuquerque 87108.0","4014 Central Avenue SE, Albuquerque",4014 Central Avenue SE,Albuquerque,87108.0,R. GREENLEAF ORGANICS DISPENSARY - Albuquerque,,
"405 Montano Rd NE, Albuquerque 87107.0","405 Montano Rd NE, Albuquerque",405 Montano Rd NE,Albuquerque,87107.0,URBAN WELLNESS - MONTANO DISPENSARY,,
"411 Rankin Rd NE, Albuquerque 87107.0","411 Rankin Rd NE, Albuquerque",411 Rankin Rd NE,Albuquerque,87107.0,SUNSHINE PHARM,,
"416 Yale Blvd SE Suite B, Albuquerque 87106.0","416 Yale Blvd SE Suite B, Albuquerque",416 Yale Blvd SE Suite B,Albuquerque,87106.0,CASACANNA LLC - YALE BLVD RETAILER,,
"417 Tramway Blvd. NE, Suite 2, Albuquerque 87123.0","417 Tramway Blvd. NE, Suite 2, Albuquerque","417 Tramway Blvd. NE, Suite 2",Albuquerque,87123.0,PURLIFE - ALBUQUERQUE RETAIL,,
"4200 4th St NW, Albuquerque 87107.0","4200 4th St NW, Albuquerque",4200 4th St NW,Albuquerque,87107.0,CANNACOLLC - 4TH ST RETAIL - Albuquerque,,
"4201 Central Avenue NW, Suite B-6, Albuquerque 87105.0","4201 Central Avenue NW, Suite B-6, Albuquerque","4201 Central Avenue NW, Suite B-6",Albuquerque,87105.0,EVEREST APOTHECARY- ALBUQUERQUE DISPENSARY,,
"4212 4th St NW, Albuquerque 87107.0","4212 4th St NW, Albuquerque",4212 4th St NW,Albuquerque,87107.0,CANNACOLLC - 4TH ST RETAIL - Albuquerque,,
"4411 Montano Rd NW, Suite F, Albuquerque 87120.0","4411 Montano Rd NW, Suite F, Albuquerque","4411 Montano Rd NW, Suite F",Albuquerque,87120.0,MOUNTAIN DESERT HEALTH,,
"4414 Menaul Blvd. NE, Albuquerque 87110.0","4414 Menaul Blvd. NE, Albuquerque",4414 Menaul Blvd. NE,Albuquerque,87110.0,R. GREENLEAF ORGANICS DISPENSARY - Albuquerque,,
"4501 4th Street NW, Suite F, Albuquerque 87107.0","4501 4th Street NW, Suite F, Albuquerque","4501 4th Street NW, Suite F",Albuquerque,87107.0,CRANIUM EXTRACTS LLC,,
"4505 Menaul Blvd NE, Albuquerque 87110.0","4505 Menaul Blvd NE, Albuquerque",4505 Menaul Blvd NE,Albuquerque,87110.0,EASTER LLC - MENAUL BLVD RETAIL,,
"4521 Central Ave NE, Albuquerque 87108.0","4521 Central Ave NE, Albuquerque",4521 Central Ave NE,Albuquerque,87108.0,SCORE 420/ RETAIL CENTRAL AVE NE,,
"4601 Paradise Blvd. Suite H, Albuquerque 87114.0","4601 Paradise Blvd. Suite H, Albuquerque",4601 Paradise Blvd. Suite H,Albuquerque,87114.0,URBAN WELLNESS - PARADISE DISPENSARY,,
"4602 Lomas Blvd NE, Albuquerque 87110.0","4602 Lomas Blvd NE, Albuquerque",4602 Lomas Blvd NE,Albuquerque,87110.0,ROAD RUNNER ORGANICS LLC - SAN MATEO BLVD RETAIL,,
"4606 McLeod NE, Albuquerque 87109.0","4606 McLeod NE, Albuquerque",4606 McLeod NE,Albuquerque,87109.0,GASD UP EXOTICS LLC/ RETAIL MCLEOD NE,,
"468 Isleta Blvd SW, Albuquerque 87105.0","468 Isleta Blvd SW, Albuquerque",468 Isleta Blvd SW,Albuquerque,87105.0,LTDM LLC - ISLETA BLVD RETAIL,,
"4701 Menaul Blvd NE, Albuquerque 87110.0","4701 Menaul Blvd NE, Albuquerque",4701 Menaul Blvd NE,Albuquerque,87110.0,BOUTIQUEBUDZ LLC - MENAUL RETAIL,,
"4711 Central Ave NW, Albuquerque 87105.0","4711 Central Ave NW, Albuquerque",4711 Central Ave NW,Albuquerque,87105.0,FIRST CLASS CANNABIS - CENTRAL RETAIL,,
"4711 Lomas Blvd NE, Albuquerque 87110.0","4711 Lomas Blvd NE, Albuquerque",4711 Lomas Blvd NE,Albuquerque,87110.0,LEAF AND FLOWER LLC/ RETAIL LOMAS BLVD NE,,
"4840-H Pan American East Freeway, Albuquerque 87109.0","4840-H Pan American East Freeway, Albuquerque",4840-H Pan American East Freeway,Albuquerque,87109.0,HIGH DESERT RELIEF DISPENSARY - Albuquerque,,
"5000 Jefferson NE B, Albuquerque 87109.0","5000 Jefferson NE B, Albuquerque",5000 Jefferson NE B,Albuquerque,87109.0,AMNESIA DISPENSARY  ACCESSORIES - Albuquerque,,
"5005 Menaul Blvd NE, Albuquerque 87110.0","5005 Menaul Blvd NE, Albuquerque",5005 Menaul Blvd NE,Albuquerque,87110.0,"HOUSE OF BLAZE, LLC - MENAUL RETAIL",,
"5007 Lomas Blvd NE, Albuquerque 87110.0","5007 Lomas Blvd NE, Albuquerque",5007 Lomas Blvd NE,Albuquerque,87110.0,HIGH TIDES DISPENSARY LLC - LOMAS RETAIL,,
"5016 Lomas Blvd NE, Albuquerque 87108.0","5016 Lomas Blvd NE, Albuquerque",5016 Lomas Blvd NE,Albuquerque,87108.0,DISPENSARY NEAR ME/ RETAIL LOMAS BLVD NE,,
"5115 Coors Blvd. NW, Albuquerque 87120.0","5115 Coors Blvd. NW, Albuquerque",5115 Coors Blvd. NW,Albuquerque,87120.0,NEW MEXICO TOP ORGANICS ULTRA HEALTH INC  COORS BLVD RETAIL - Albuquerque,,
"516 Chama St NE Ste B, Albuquerque 87108.0","516 Chama St NE Ste B, Albuquerque",516 Chama St NE Ste B,Albuquerque,87108.0,NEW HEIGHTS DISPENSARY INC/ RETAIL CHAMA ST NE STE B,,
"520 Airport Blvd NW, Albuquerque 87121.0","520 Airport Blvd NW, Albuquerque",520 Airport Blvd NW,Albuquerque,87121.0,LINCOLN WATFORD LLC - RETAIL,,
"5201 Ouray NW, Albuquerque 87120.0","5201 Ouray NW, Albuquerque",5201 Ouray NW,Albuquerque,87120.0,R. GREENLEAF ORGANICS DISPENSARY - Albuquerque,,
"5212 4th St NW Suite A, Albuquerque 87107.0","5212 4th St NW Suite A, Albuquerque",5212 4th St NW Suite A,Albuquerque,87107.0,URBAN WELLNESS - 4TH ST RETAIL,,
"5231 San Mateo Blvd NE, Albuquerque 87109.0","5231 San Mateo Blvd NE, Albuquerque",5231 San Mateo Blvd NE,Albuquerque,87109.0,NO MIDS LLC - SAN MATEO RETAIL,,
"5231 San Mateo Blvd NE Suite A, Albuquerque 87109.0","5231 San Mateo Blvd NE Suite A, Albuquerque",5231 San Mateo Blvd NE Suite A,Albuquerque,87109.0,BMD LLC-SAN MATEO BLVD NE SUITE A RETAIL,,
"5401 Lomas Blvd Ste A, Albuquerque 87110.0","5401 Lomas Blvd Ste A, Albuquerque",5401 Lomas Blvd Ste A,Albuquerque,87110.0,505 FARMS ABQ LLC - LOMAS BLVD RETAIL,,
"5541 Midway Park Blvd NE, Albuquerque 87109.0","5541 Midway Park Blvd NE, Albuquerque",5541 Midway Park Blvd NE,Albuquerque,87109.0,CRAV LLC/RETAIL MIDWAY PARK BLVD NE,,
"5700 4th Street NW, Albuquerque 87109.0","5700 4th Street NW, Albuquerque",5700 4th Street NW,Albuquerque,87109.0,NEW MEXICO TOP ORGANICS ULTRA HEALTH INC  4TH ST RETAIL,,
"5704 Lomas Blvd NE, Albuquerque 87110.0","5704 Lomas Blvd NE, Albuquerque",5704 Lomas Blvd NE,Albuquerque,87110.0,RELEAF CANNABIS CO - LOMAS BLVD RETAIL,,
"5737 Menaul Blvd NE, Albuquerque 87110.0","5737 Menaul Blvd NE, Albuquerque",5737 Menaul Blvd NE,Albuquerque,87110.0,ENCHANTED BOTANICALS LLC - MENAUL BLVD MANUFACTURER,,
"5809 Juan Tabo, Albuquerque 87111.0","5809 Juan Tabo, Albuquerque",5809 Juan Tabo,Albuquerque,87111.0,EVEREST APOTHECARY - RETAIL,,
"5926 2nd Street NW, Albuquerque 87107.0","5926 2nd Street NW, Albuquerque",5926 2nd Street NW,Albuquerque,87107.0,KITE LLC DBA THRIVE CRAFT CANNABIS CO - RETAIL/CONSUMPTION 2ND STREET NW,,
"6005 Coronado Ave NE, Albuquerque 87109.0","6005 Coronado Ave NE, Albuquerque",6005 Coronado Ave NE,Albuquerque,87109.0,THE VERDES FOUNDATION  6005 CORONADO PRODUCER,,
"6010 Coors Blvd Ste 3, Albuquerque 87120.0","6010 Coors Blvd Ste 3, Albuquerque",6010 Coors Blvd Ste 3,Albuquerque,87120.0,EVEREST APOTHECARY - Albuquerque,,
"6015 4th St NW, Albuquerque 87107.0","6015 4th St NW, Albuquerque",6015 4th St NW,Albuquerque,87107.0,LEAF AND FLOWER LLC-4TH ST RETAIL,,
"6016 Isleta Blvd SW, Albuquerque 87105.0","6016 Isleta Blvd SW, Albuquerque",6016 Isleta Blvd SW,Albuquerque,87105.0,PAJARITO HEALING HERB LLC/ RETAIL ISLETA BLVD SW,,
"6200 Montgomery Blvd NE, Albuquerque 87111.0","6200 Montgomery Blvd NE, Albuquerque",6200 Montgomery Blvd NE,Albuquerque,87111.0,VICE CANNABIS LLC,,
"6220 San Mateo BLVD, Albuquerque 87190.0","6220 San Mateo BLVD, Albuquerque",6220 San Mateo BLVD,Albuquerque,87190.0,URBAN WELLNESS - ACADEMY DISPENSARY,,
"629 Amherst Dr NE, Albuquerque 87106.0","629 Amherst Dr NE, Albuquerque",629 Amherst Dr NE,Albuquerque,87106.0,LEMON CANNABIS CO - AMHERST RETAIL,,
"6300 Montano Rd NW, Albuquerque 87120.0","6300 Montano Rd NW, Albuquerque",6300 Montano Rd NW,Albuquerque,87120.0,CHEEKS  WEEZY LLC,,
"6311 Lomas Blvd NE, Albuquerque 87111.0","6311 Lomas Blvd NE, Albuquerque",6311 Lomas Blvd NE,Albuquerque,87111.0,OCC ABQ LLC - Albuquerque,,
"637 broadway blvd se, Albuquerque 87102.0","637 broadway blvd se, Albuquerque",637 broadway blvd se,Albuquerque,87102.0,HONEYHOLE CANNABIS CO. LLC - BROADWAY BLVD SOUTHEAST RETAILER,,
"640 Coors Blvd SW, Albuquerque 87121.0","640 Coors Blvd SW, Albuquerque",640 Coors Blvd SW,Albuquerque,87121.0,CRESTVIEW LLC - COORS BLVD RETAIL,,
"6910 Central Ave SE, Albuquerque 87108.0","6910 Central Ave SE, Albuquerque",6910 Central Ave SE,Albuquerque,87108.0,SEVEN TEN LLC/ RETAIL CENTRAL AVE SE,,
"6919 Montgomery Blvd NE, Suite B, Albuquerque 87109.0","6919 Montgomery Blvd NE, Suite B, Albuquerque","6919 Montgomery Blvd NE, Suite B",Albuquerque,87109.0,RIO GRANDE FARMACEUTICALS LLC,,
"700 Avenida Dolores Huerta Ave, Albuquerque 87105.0","700 Avenida Dolores Huerta Ave, Albuquerque",700 Avenida Dolores Huerta Ave,Albuquerque,87105.0,"FROST STATION CANNABIS, LLC - AVENIDA DOLORES HUERTA AVENUE RETAILER",,
"7001 Menaul Blvd NE, Albuquerque 87110.0","7001 Menaul Blvd NE, Albuquerque",7001 Menaul Blvd NE,Albuquerque,87110.0,CHADCOR HOLDINGS NM- RETAIL - Albuquerque,,
"7001 Montgomery Blvd, Albuquerque 87109.0","7001 Montgomery Blvd, Albuquerque",7001 Montgomery Blvd,Albuquerque,87109.0,PUR LIFE RETAIL,,
"7016 2nd St. NW, Albuquerque 87107.0","7016 2nd St. NW, Albuquerque",7016 2nd St. NW,Albuquerque,87107.0,SEVEN CLOVER - Albuquerque,,
"7301 Central Ave NE, Albuquerque 87108.0","7301 Central Ave NE, Albuquerque",7301 Central Ave NE,Albuquerque,87108.0,BUDDIES FARMS LCC/ RETAIL CENTRAL AVE NE,,
"7301 San Antonio Drive NE, Albuquerque 87109.0","7301 San Antonio Drive NE, Albuquerque",7301 San Antonio Drive NE,Albuquerque,87109.0,THE VERDES FOUNDATION  SAN ANTONIO DRIVE RETAIL,,
"7401 Central Ave NE, Albuquerque 87108.0","7401 Central Ave NE, Albuquerque",7401 Central Ave NE,Albuquerque,87108.0,JOINT VENTURE CANNABIS LLC- OLD COORS RD RETAIL,,
"7401 Menaul Blvd. NE, Albuquerque 87110.0","7401 Menaul Blvd. NE, Albuquerque",7401 Menaul Blvd. NE,Albuquerque,87110.0,NEW MEXICO TOP ORGANICS ULTRA HEALTH INC  MENAUL BLVD RETAIL,,
"7601 San Pedro, Albuquerque 87109.0","7601 San Pedro, Albuquerque",7601 San Pedro,Albuquerque,87109.0,GH LLC - SAN PEDRO RETAIL,,
"7608 Menaul Blvd NE, Albuquerque 87110.0","7608 Menaul Blvd NE, Albuquerque",7608 Menaul Blvd NE,Albuquerque,87110.0,OCC ABQ LLC - Albuquerque,,
"7610 Carmel NE, Ste. B, Albuquerque 87122.0","7610 Carmel NE, Ste. B, Albuquerque","7610 Carmel NE, Ste. B",Albuquerque,87122.0,URBAN WELLNESS - CARMEL ROAD DISPENSARY,,
"7710 Menaul Blvd, Albuquerque 87110.0","7710 Menaul Blvd, Albuquerque",7710 Menaul Blvd,Albuquerque,87110.0,REEFER MADNESS LLC - MENAUL BLVD RETAIL,,
"806 Old Coors Drive SW, Albuquerque 87121.0","806 Old Coors Drive SW, Albuquerque",806 Old Coors Drive SW,Albuquerque,87121.0,SCORE 420 - OLD COORS DRIVE RETAILER,,
"8104 Wyoming, Albuquerque 87113.0","8104 Wyoming, Albuquerque",8104 Wyoming,Albuquerque,87113.0,NEW MEXICO TOP ORGANICS ULTRA HEALTH INC  WYOMING RETAIL,,
"8110 Louisiana Blvd NE Suite D-1, Albuquerque 87113.0","8110 Louisiana Blvd NE Suite D-1, Albuquerque",8110 Louisiana Blvd NE Suite D-1,Albuquerque,87113.0,NM ALTITUDE LLC - LOUISIANA BLVD RETAIL,,
"8150 Paseo del Norte NE, Albuquerque 87109.0","8150 Paseo del Norte NE, Albuquerque",8150 Paseo del Norte NE,Albuquerque,87109.0,R. GREENLEAF ORGANICS - PASEO DEL NORTE NE RETAIL,,
"818 San Mateo Boulevard Southeast, Albuquerque 87108.0","818 San Mateo Boulevard Southeast, Albuquerque",818 San Mateo Boulevard Southeast,Albuquerque,87108.0,LOVES CANNABIS - Albuquerque,,
"8367 Corona Loop NE, Albuquerque 87113.0","8367 Corona Loop NE, Albuquerque",8367 Corona Loop NE,Albuquerque,87113.0,DREAMWEAVER LLC - CORONA LOOP RETAIL,,
"8508 Central Ave SE, Albuquerque 87108.0","8508 Central Ave SE, Albuquerque",8508 Central Ave SE,Albuquerque,87108.0,ES HOLDINGS LLC - CENTRAL RETAIL,,
"8512 Calle Alameda NE, Albuquerque 87113.0","8512 Calle Alameda NE, Albuquerque",8512 Calle Alameda NE,Albuquerque,87113.0,MULEZ - CALLE ALAMEDA RETAIL,,
"8521 Golf Course Rd NW, Albuquerque 87114.0","8521 Golf Course Rd NW, Albuquerque",8521 Golf Course Rd NW,Albuquerque,87114.0,PURLIFE- GOLF COURSE RD NW  RETAIL,,
"8521 Golf Course Rd. SW Ste A, Albuquerque 87114.0","8521 Golf Course Rd. SW Ste A, Albuquerque",8521 Golf Course Rd. SW Ste A,Albuquerque,87114.0,420GBG LLC - GOLF COURSE RETAIL,,
"8715 Central Ave NW, Albuquerque 87121.0","8715 Central Ave NW, Albuquerque",8715 Central Ave NW,Albuquerque,87121.0,BREAKING BUD DISPENSARY LLC - CENTRAL RETAIL,,
"8900 Central Ave SE, Albuquerque 87123.0","8900 Central Ave SE, Albuquerque",8900 Central Ave SE,Albuquerque,87123.0,ROUTE 66 SMOKE SHOP LLC / RETAIL RHODE ISLAND ST NE,,
"8917 Adams ST NE, Albuquerque 87113.0","8917 Adams ST NE, Albuquerque",8917 Adams ST NE,Albuquerque,87113.0,CARVER FAMILY FARM- RETAIL MICRO,,
"8920 Menaul Blvd NE, Albuquerque 87112.0","8920 Menaul Blvd NE, Albuquerque",8920 Menaul Blvd NE,Albuquerque,87112.0,THE GRASS STATION LLC - MENAUL BLVD NORTHEAST RETAILER,,
"9012 Central Ave SE, Albuquerque 87123.0","9012 Central Ave SE, Albuquerque",9012 Central Ave SE,Albuquerque,87123.0,NEW MEXICO DRIP LLC - CENTRAL AVE RETAIL,,
"904 Broadway NE St. A, Albuquerque 87102.0","904 Broadway NE St. A, Albuquerque",904 Broadway NE St. A,Albuquerque,87102.0,HF HOLDINGS LLC - GOLF COURSE RETAIL,,
"915 Yale SE, Albuquerque 87106.0","915 Yale SE, Albuquerque",915 Yale SE,Albuquerque,87106.0,MAMA AND THE GIRLS / RETAIL LAGUAYRA DR NE,,
"9237 4th St. NW, Albuquerque 87114.0","9237 4th St. NW, Albuquerque",9237 4th St. NW,Albuquerque,87114.0,EVEREST APOTHECARY - DISPENSARY,,
"9370 Coors Blvd NW Suite 600, Albuquerque 87114.0","9370 Coors Blvd NW Suite 600, Albuquerque",9370 Coors Blvd NW Suite 600,Albuquerque,87114.0,EQUILIBRIUM CANNABIS COMPANY LLC - COORS RETAIL,,
"9402 Indian School Rd NE, Albuquerque 87112.0","9402 Indian School Rd NE, Albuquerque",9402 Indian School Rd NE,Albuquerque,87112.0,A FARMER AND HIS DOG LLC-INDIAN SCHOOL RETAIL,,
"9635 Menaul Blvd NE, Albuquerque 87112.0","9635 Menaul Blvd NE, Albuquerque",9635 Menaul Blvd NE,Albuquerque,87112.0,FUEGO CANNABIS LLC - MENAUL BLVD RETAIL,,
"9800 Montgomery Blvd NE, Albuquerque 87110.0","9800 Montgomery Blvd NE, Albuquerque",9800 Montgomery Blvd NE,Albuquerque,87110.0,PURLIFE DISPENSARY - Albuquerque,,
"9821 Montgomery Blvd, Albuquerque 87111.0","9821 Montgomery Blvd, Albuquerque",9821 Montgomery Blvd,Albuquerque,87111.0,"R. GREENLEAF ORGANICS, INC.",,
"9880 Montgomery Blvd NE Ste C, Albuquerque 87111.0","9880 Montgomery Blvd NE Ste C, Albuquerque",9880 Montgomery Blvd NE Ste C,Albuquerque,87111.0,OCC ABQ LLC - MONTGOMERY BLVD NE RETAIL,,
"9901 Lomas Blvd NE, Albuquerque 87112.0","9901 Lomas Blvd NE, Albuquerque",9901 Lomas Blvd NE,Albuquerque,87112.0,ELEMENTS DISPENSARY LLC/ RETAIL LOMAS BLVD NE,,
"701 State Rd 68, Alcalde 87511.0","701 State Rd 68, Alcalde",701 State Rd 68,Alcalde,87511.0,NM HY-LYFE LLC - STATE RD 68 RETAIL,,
"876 Highway 48, Alto 88312.0","876 Highway 48, Alto",876 Highway 48,Alto,88312.0,GREEN MINDED HOLDINGS LLC - Alto,,
"11 Halo Pines Terrace, Angel Fire 87110.0","11 Halo Pines Terrace, Angel Fire",11 Halo Pines Terrace,Angel Fire,87110.0,OFF GRID GROW COMPANY LLC - NM-434 RETAIL,,
"103 Miller St, Anthony 88021.0","103 Miller St, Anthony",103 Miller St,Anthony,88021.0,RH AND MC LLC - MILLER ST RETAIL,,
"1275 Anthony Dr Ste C7, Anthony 88021.0","1275 Anthony Dr Ste C7, Anthony",1275 Anthony Dr Ste C7,Anthony,88021.0,TOP OF THE 8TH LLC - RETAIL,,
"138 Anthony Dr, Anthony 88021.0","138 Anthony Dr, Anthony",138 Anthony Dr,Anthony,88021.0,"RMC NM, INC - ANTHONY RETAIL",,
"1400 E Ohara Road, Anthony 88021.0","1400 E Ohara Road, Anthony",1400 E Ohara Road,Anthony,88021.0,ERB HOLDINGS/ RETAIL OHARA ROAD,,
"1600 E OHara Rd, Anthony 88021.0","1600 E OHara Rd, Anthony",1600 E OHara Rd,Anthony,88021.0,"KUSHOLOGY 101 LLC - OHARA RD, RETAIL",,
"3100 S Highway 28, Anthony 88021.0","3100 S Highway 28, Anthony",3100 S Highway 28,Anthony,88021.0,THE GREEN MATRIX - S HIGHWAY 28 RETAIL,,
"401 Anthony Dr Ste B, Anthony 88021.0","401 Anthony Dr Ste B, Anthony",401 Anthony Dr Ste B,Anthony,88021.0,TOP OF THE 8TH LLC - ANTHONY DRIVE RETAIL,,
"816 Anthony Dr, Anthony 88021.0","816 Anthony Dr, Anthony",816 Anthony Dr,Anthony,88021.0,GREENGO NM - ANTHONY DR RETAIL,,
"6 Chili Plant Rd, Arrey 87930.0","6 Chili Plant Rd, Arrey",6 Chili Plant Rd,Arrey,87930.0,FREEDOM FARMS - DISPENSARY,,
"501 S 1st St, Artesia 88210.0","501 S 1st St, Artesia",501 S 1st St,Artesia,88210.0,PECOS VALLEY PRODUCTION INC - 1ST ST RETAIL,,
"111 N Main, Aztec 87410.0","111 N Main, Aztec",111 N Main,Aztec,87410.0,GRADYS CANNABIS LLC- RETAIL,,
"1308 W Aztec Blvd, Aztec 87410.0","1308 W Aztec Blvd, Aztec",1308 W Aztec Blvd,Aztec,87410.0,DESERT FLOWER LLC - AZTEC RD RETAIL,,
"2210 W Aztec Blvd, Aztec 87410.0","2210 W Aztec Blvd, Aztec",2210 W Aztec Blvd,Aztec,87410.0,BURNIN BARRELS/ RETAIL W AZTEC BLVD,,
"1103 Tom Foy Boulevard, Bayard 88023.0","1103 Tom Foy Boulevard, Bayard",1103 Tom Foy Boulevard,Bayard,88023.0,HAPPY HERB LLC - RETAIL BAYARD,,
"203 S Main St, Belen 87002.0","203 S Main St, Belen",203 S Main St,Belen,87002.0,EVEREST APOTHECARY/ RETAIL S MAIN STREET,,
"207 South Main St, Belen 87002.0","207 South Main St, Belen",207 South Main St,Belen,87002.0,MOTAVATED LLC-207 SOUTH MAIN ST RETAIL,,
"212 Becker Ave, Belen 87002.0","212 Becker Ave, Belen",212 Becker Ave,Belen,87002.0,SMOKAL SMOKE LOCAL - BECKER AVE RETAIL,,
"2384 NM 47, Belen 87002.0","2384 NM 47, Belen",2384 NM 47,Belen,87002.0,DISPENSARY NEAR ME-MANUFACTURER,,
"300 Rio Communities, Belen 87002.0","300 Rio Communities, Belen",300 Rio Communities,Belen,87002.0,OCC ABQ LLC - RIO COMMUNITIES RETAIL,,
"320 N Main St, Belen 87002.0","320 N Main St, Belen",320 N Main St,Belen,87002.0,ROOTS DISPENSARY LLC/ RETAIL,,
"804 S Main St, Belen 87002.0","804 S Main St, Belen",804 S Main St,Belen,87002.0,BUDDING BAR AND DISPENSARY LLC/ RETAIL S MAIN ST,,
"1042 Camino Del Pueblo, Bernalillo 87004.0","1042 Camino Del Pueblo, Bernalillo",1042 Camino Del Pueblo,Bernalillo,87004.0,BERNA-LENO INC - DEL PUEBLO RETAIL,,
"113 US 550, Bernalillo 87004.0","113 US 550, Bernalillo",113 US 550,Bernalillo,87004.0,HIGH DESERT RELIEF - US 550 RETAILER,,
"115-US 550, Bernalillo 87004.0","115-US 550, Bernalillo",115-US 550,Bernalillo,87004.0,URBAN WELLNESS - US 550 RETAILER,,
"242 US-550, Bernalillo 87004.0","242 US-550, Bernalillo",242 US-550,Bernalillo,87004.0,R GREEN LEAF ORGANICS INC/ RETAIL US 550,,
"255 Camino Don Tomas, Bernalillo 87004.0","255 Camino Don Tomas, Bernalillo",255 Camino Don Tomas,Bernalillo,87004.0,NEW MEXICO TOP ORGANICS ULTRA HEALTH INC - CAMINO DON TOMAS RETAIL,,
"413 S Camino Del Pueblo, Bernalillo 87004.0","413 S Camino Del Pueblo, Bernalillo",413 S Camino Del Pueblo,Bernalillo,87004.0,ROYAL HIGHNESS LLC - CAMINO DEL PUEBLO RETAIL,,
"501 US-550 S, Bernalillo 87004.0","501 US-550 S, Bernalillo",501 US-550 S,Bernalillo,87004.0,"PURLIFE - US-550 S, BERNALILLO",,
"510 HWY 528 Ste G, Bernalillo 87004.0","510 HWY 528 Ste G, Bernalillo",510 HWY 528 Ste G,Bernalillo,87004.0,FAMILY STRAINS 2 LLC - HWY 528 RETAIL,,
"848 S Camino Del Pueblo, Bernalillo 87004.0","848 S Camino Del Pueblo, Bernalillo",848 S Camino Del Pueblo,Bernalillo,87004.0,SANDD INC - CAMINO DEL PUEBLO RETAIL,,
"872 Camino Del Pueblo Ste F, Bernalillo 87004.0","872 Camino Del Pueblo Ste F, Bernalillo",872 Camino Del Pueblo Ste F,Bernalillo,87004.0,MERCAN DREAMS LLC - CAMINO DEL PUEBLO RETAIL,,
"961 S Camino Del Pueblo, Bernalillo 87004.0","961 S Camino Del Pueblo, Bernalillo",961 S Camino Del Pueblo,Bernalillo,87004.0,LA LUZ ORGANICS LLC - CAMINO DEL PUEBLO RETAIL,,
"965 US-550 Ste B, Bernalillo 87004.0","965 US-550 Ste B, Bernalillo",965 US-550 Ste B,Bernalillo,87004.0,MERCAN DREAMS LLC- BERNA RETAIL,,
"980 Highway 550, Bernalillo 87004.0","980 Highway 550, Bernalillo",980 Highway 550,Bernalillo,87004.0,ROAD RUNNER PHARMS - HWY 550 RETAIL,,
"816 West Broadway, Bloomfield 87413.0","816 West Broadway, Bloomfield",816 West Broadway,Bloomfield,87413.0,TREEZ LLC/ RETAIL W BROADWAY,,
"1495 Bosque Farms Blvd, Bosque Farms 87068.0","1495 Bosque Farms Blvd, Bosque Farms",1495 Bosque Farms Blvd,Bosque Farms,87068.0,"FROST STATION CANNABIS, LLC -",,
"109 West Last Rd, Capitan 88316.0","109 West Last Rd, Capitan",109 West Last Rd,Capitan,88316.0,DBGJR LLC - WEST LAST RD RETAIL,,
"1101 W. Pierce St., Carlsbad 88220.0","1101 W. Pierce St., Carlsbad",1101 W. Pierce St.,Carlsbad,88220.0,STONED APE CANNA CO - PIERCE RETAIL,,
"1215 S Canal St, Carlsbad 88220.0","1215 S Canal St, Carlsbad",1215 S Canal St,Carlsbad,88220.0,TKO CANNABIS LLC - CANAL RETAIL,,
"1301 S.  Canal St, Carlsbad 88220.0","1301 S.  Canal St, Carlsbad",1301 S.  Canal St,Carlsbad,88220.0,NEW MEXICO TOP ORGANICS ULTRA HEALTH INC  CANAL ST RETAIL,,
"1410 N Canal St, Carlsbad 88220.0","1410 N Canal St, Carlsbad",1410 N Canal St,Carlsbad,88220.0,N.M. CANNACO,,
"1704 S. Canal Street, Carlsbad 88220.0","1704 S. Canal Street, Carlsbad",1704 S. Canal Street,Carlsbad,88220.0,COMPASSIONATE DISTRIBUTORS INC - CANAL RETAIL,,
"221 S. Canyon St, Carlsbad 88220.0","221 S. Canyon St, Carlsbad",221 S. Canyon St,Carlsbad,88220.0,TREE AMIGOS CANNABIS LLC - CANYON RETAIL,,
"2302 W Pierce St Ste D5  D6, Carlsbad 88220.0","2302 W Pierce St Ste D5  D6, Carlsbad",2302 W Pierce St Ste D5  D6,Carlsbad,88220.0,TKO CANNABIS LLC - PIERCE RETAIL,,
"2521 Canal St, Carlsbad 88220.0","2521 Canal St, Carlsbad",2521 Canal St,Carlsbad,88220.0,FCI OF NEW MEXICO - CANAL ST RETAIL,,
"3106 E Greene St, Carlsbad 88220.0","3106 E Greene St, Carlsbad",3106 E Greene St,Carlsbad,88220.0,PROCESS MANAGEMENT CONTROL - E GREENE RETAIL,,
"401 South Canyon Street, Carlsbad 88220.0","401 South Canyon Street, Carlsbad",401 South Canyon Street,Carlsbad,88220.0,BUD BOARD DISPENSARY LLC - SOUTH CANYON STREET RETAILER,,
"516. Canal St, Carlsbad 88220.0","516. Canal St, Carlsbad",516. Canal St,Carlsbad,88220.0,THE CANNABIS STORE- CANAL ST RETAIL,,
"611 N CANAL ST, Carlsbad 79936.0","611 N CANAL ST, Carlsbad",611 N CANAL ST,Carlsbad,79936.0,GLOBAL THC LLC- N CANAL ST RETAIL,,
"618 W Pierce, Carlsbad 88220.0","618 W Pierce, Carlsbad",618 W Pierce,Carlsbad,88220.0,BUD BOARD DISPENSARY LLC - PIERCE RETAIL,,
"800  800 1/2 W Pierce St, Carlsbad 88220.0","800  800 1/2 W Pierce St, Carlsbad",800  800 1/2 W Pierce St,Carlsbad,88220.0,R. GREENLEAF ORGANICS INC - PIERCE ST RETAIL,,
"810 W Mermod St, Carlsbad 88220.0","810 W Mermod St, Carlsbad",810 W Mermod St,Carlsbad,88220.0,PECOS VALLEY PRODUCTION INC - MERMOD ST RETAIL,,
"812 N. Canal Street, Carlsbad 88220.0","812 N. Canal Street, Carlsbad",812 N. Canal Street,Carlsbad,88220.0,PECOS VALLEY PRODUCTION INC - CANAL ST RETAIL,,
"6505 US Highway 380, Carrizozo 88301.0","6505 US Highway 380, Carrizozo",6505 US Highway 380,Carrizozo,88301.0,GREEN MINDED HOLDINGS LLC - US HIGHWAY 380,,
"12133 Hwy 14 N, Cedar Crest 87008.0","12133 Hwy 14 N, Cedar Crest",12133 Hwy 14 N,Cedar Crest,87008.0,DIAMOND LEAF LLC/ RETAIL N HWY 14,,
"12202 North Highway 14, Cedar Crest 87008.0","12202 North Highway 14, Cedar Crest",12202 North Highway 14,Cedar Crest,87008.0,THE GRATEFUL LLAMA LLC- NORTH HIGHWAY 14 RTLR,,
"2381 Frontage Rd, Chama 87520.0","2381 Frontage Rd, Chama",2381 Frontage Rd,Chama,87520.0,MOUNTAIN HIGH EXPRESS,,
"100 Arch Angel Way, Chaparral 88081.0","100 Arch Angel Way, Chaparral",100 Arch Angel Way,Chaparral,88081.0,STATELINE CANNABIS NM LLC - ARCH ANGEL WAY RETAILER/CONSUMPTION,,
"101 Angelina Blvd, Chaparral 88081.0","101 Angelina Blvd, Chaparral",101 Angelina Blvd,Chaparral,88081.0,R R HEMPIRE LLC - ANGELINA BLVD RETAIL,,
"101 Stephanie, Chaparral 880081.0","101 Stephanie, Chaparral",101 Stephanie,Chaparral,880081.0,STATELINE CANNABIS NM LLC-STEPHANIE RETAIL/CONS,,
"1245 Riley Way, Chaparral 88081.0","1245 Riley Way, Chaparral",1245 Riley Way,Chaparral,88081.0,GANJIKA GARDENS LLC/ RETAIL RILEY WAY,,
"140 Schneberger Dr, Chaparral 88081.0","140 Schneberger Dr, Chaparral",140 Schneberger Dr,Chaparral,88081.0,GROTH INDUSTRIES LLC - SCHNEBERGER DR RETIAL,,
"170 McCombs, Chaparral 88081.0","170 McCombs, Chaparral",170 McCombs,Chaparral,88081.0,MEDD LLC - PALOMA BLANCA RETAIL,,
"305 S County Line Dr, Chaparral 88081.0","305 S County Line Dr, Chaparral",305 S County Line Dr,Chaparral,88081.0,575 CANNABIS LLC- RETAIL 305 S COUNTY LINE,,
"305 S County Line Rd, Chaparral 88081.0","305 S County Line Rd, Chaparral",305 S County Line Rd,Chaparral,88081.0,SEVEN NINE GROW LLC - EL PASEO DR RETAIL,,
"308 McCombs Rd Spc 2, Chaparral 88081.0","308 McCombs Rd Spc 2, Chaparral",308 McCombs Rd Spc 2,Chaparral,88081.0,ASTRO BUDS LLC - MCCOMBS RD RETAIL,,
"460 County Line Drive, Space F, Chaparral 88081.0","460 County Line Drive, Space F, Chaparral","460 County Line Drive, Space F",Chaparral,88081.0,"GREEN THERAPY DISPENSARY, LLC",,
"545 S. County Line, Chaparral 88081.0","545 S. County Line, Chaparral",545 S. County Line,Chaparral,88081.0,HHNM CHAPARRAL 1 COMPANY- S. COUNTY LINE RETAIL,,
"764 Angelina blvd, Chaparral 88081.0","764 Angelina blvd, Chaparral",764 Angelina blvd,Chaparral,88081.0,AREA 54 DISPENSARY LLC- ANGELINA BLVD RETAIL,,
"1042 State Line, Chapparal 88081.0","1042 State Line, Chapparal",1042 State Line,Chapparal,88081.0,HOUSE OF FLOWERS ON THE BORDER LLC - RETAIL,,
"106 S First St, Clayton 88415.0","106 S First St, Clayton",106 S First St,Clayton,88415.0,"RMC NM, INC - CLAYTON RETAIL",,
"1623 S 1st St Ste B, Clayton 88415.0","1623 S 1st St Ste B, Clayton",1623 S 1st St Ste B,Clayton,88415.0,"FROSTYS EMPORIUM, LLC- 1ST ST RETAIL - Clayton",,
"303 N. 1st St, Clayton 88415.0","303 N. 1st St, Clayton",303 N. 1st St,Clayton,88415.0,THE GREEN GENIE LLC - FIRST ST. RETAIL,,
"422 Monroe, Clayton 88415.0","422 Monroe, Clayton",422 Monroe,Clayton,88415.0,HONEYBUDZ LLC - MONROE ST RETAIL,,
"511 South 1st St., Clayton 88415.0","511 South 1st St., Clayton",511 South 1st St.,Clayton,88415.0,"FROSTYS EMPORIUM, LLC- 1ST ST RETAIL - Clayton",,
"524 S. 1st St., Clayton 88415.0","524 S. 1st St., Clayton",524 S. 1st St.,Clayton,88415.0,NEW MEXICO TOP ORGANICS ULTRA HEALTH INC  1ST ST RETAIL,,
"603 S First St, Clayton 88415.0","603 S First St, Clayton",603 S First St,Clayton,88415.0,KDS DISPENSARY - FIRST ST RETAIL,,
"9 Main St., Clayton 88415.0","9 Main St., Clayton",9 Main St.,Clayton,88415.0,HONEYBUDZ LLC - MAIN ST RETAIL,,
"102 Mexican Avenue, Unit 420, Cloudcroft 88317.0","102 Mexican Avenue, Unit 420, Cloudcroft","102 Mexican Avenue, Unit 420",Cloudcroft,88317.0,"CCC HOLDINGS, LLC",,
"109 James Canyon Unit 8, Cloudcroft 88317.0","109 James Canyon Unit 8, Cloudcroft",109 James Canyon Unit 8,Cloudcroft,88317.0,"CCC HOLDINGS, LLC - JAMES CANYON RETAIL",,
"504 Burro Ave, Cloudcroft 88317.0","504 Burro Ave, Cloudcroft",504 Burro Ave,Cloudcroft,88317.0,BUDDING INDUSTRIES LLC - BURRO AVE RETAILER,,
"106 S Main St, Clovis 88101.0","106 S Main St, Clovis",106 S Main St,Clovis,88101.0,EARL AND TOM LLC - MAIN ST MANUFACTURER,,
"1321 N Pile St, Clovis 88101.0","1321 N Pile St, Clovis",1321 N Pile St,Clovis,88101.0,COMPASSIONATE DISTRIBUTORS INC - PILE RETAIL,,
"1512 N. Prince, Clovis 88101.0","1512 N. Prince, Clovis",1512 N. Prince,Clovis,88101.0,NEW MEXICO TOP ORGANICS ULTRA HEALTH INC  CLOVIS RETAIL,,
"1605 Mabry St, Clovis 88101.0","1605 Mabry St, Clovis",1605 Mabry St,Clovis,88101.0,COWBOY VERDEZ LLC-  MABRY ST RETAIL,,
"2009 Ross, Clovis 88101.0","2009 Ross, Clovis",2009 Ross,Clovis,88101.0,R. GREENLEAF ORGANICS INC - CLOVIS RETAIL,,
"221 n primes st, Clovis 88101.0","221 n primes st, Clovis",221 n primes st,Clovis,88101.0,M AND M 2025 LLC - NORTH PRIMES STREET RETAILER,,
"2216 W 7th St., Clovis 88101.0","2216 W 7th St., Clovis",2216 W 7th St.,Clovis,88101.0,GREEN GROVE PRODUCTIONS- 7TH ST RETAIL,,
"2300 E 7th ST, Clovis 88101.0","2300 E 7th ST, Clovis",2300 E 7th ST,Clovis,88101.0,M AND M 2025 LLC - EAST 7TH STREET RETAILER,,
"2320 N Main St, Clovis 88101.0","2320 N Main St, Clovis",2320 N Main St,Clovis,88101.0,CANNA COLLECTIVE LLC-N MAIN ST RETAIL,,
"2905 North Prince Street, Clovis 88101.0","2905 North Prince Street, Clovis",2905 North Prince Street,Clovis,88101.0,SCORE 420- PRINCE RETAIL,,
"321 W 7th St Ste B, Clovis 88101.0","321 W 7th St Ste B, Clovis",321 W 7th St Ste B,Clovis,88101.0,FACTORY DIRECT PIPES REC - 7TH ST RETAIL,,
"3211 N Prince St, Clovis 88101.0","3211 N Prince St, Clovis",3211 N Prince St,Clovis,88101.0,EARL AND TOM LLC - NORTH PRINCE STREET RETAILER,,
"3221 Axtell St, Clovis 88101.0","3221 Axtell St, Clovis",3221 Axtell St,Clovis,88101.0,LA MOTA NEW MEXICO LLC/ RETAIL AXTELL ST,,
"3608 N Prince Street, Suite E, Clovis 88101.0","3608 N Prince Street, Suite E, Clovis","3608 N Prince Street, Suite E",Clovis,88101.0,VANA SOCIETY LLC - Clovis,,
"3806 Mabry Dr., Clovis 88101.0","3806 Mabry Dr., Clovis",3806 Mabry Dr.,Clovis,88101.0,HIGH STANDARDS 23 - MABRY DR. RETAIL,,
"4024 N Prince St Ste G, Clovis 88101.0","4024 N Prince St Ste G, Clovis",4024 N Prince St Ste G,Clovis,88101.0,PECOS VALLEY PRODUCTION INC - N PRINCE ST RETAIL,,
"408 n Norris st, Clovis 88101.0","408 n Norris st, Clovis",408 n Norris st,Clovis,88101.0,M AND M 2025 LLC - NORTH NORRIS STREET RETAILER,,
"4101 North Prince St, Clovis 88101.0","4101 North Prince St, Clovis",4101 North Prince St,Clovis,88101.0,PURLIFE DISPENSARY - CLOVIS,,
"416 N. Hull St., Clovis 88101.0","416 N. Hull St., Clovis",416 N. Hull St.,Clovis,88101.0,JAR-O LLC - HULL ST RETAIL,,
"5021 N. Prince, Clovis 88101.0","5021 N. Prince, Clovis",5021 N. Prince,Clovis,88101.0,PECOS VALLEY PRODUCTION INC - CLOVIS RETAIL,,
"601 Llano Estacado, Clovis 88101.0","601 Llano Estacado, Clovis",601 Llano Estacado,Clovis,88101.0,FCI OF NEW MEXICO - LLANO ESTACADO RETAIL,,
"721 E 1st, Clovis 88101.0","721 E 1st, Clovis",721 E 1st,Clovis,88101.0,BEST BUDS - 1ST RETAIL,,
"435 W.CARTER ST., Columbus 88029.0","435 W.CARTER ST., Columbus",435 W.CARTER ST.,Columbus,88029.0,OBI WAN CANNABIS LLC - WEST CARTER STREET RETAILER,,
"4484 Corrales Road, Corrales 87048.0","4484 Corrales Road, Corrales",4484 Corrales Road,Corrales,87048.0,CORRALES HEMPORIUM LLC/ RETAIL CORRALES ROAD,,
"6404 Hwy 550, Cuba 87013.0","6404 Hwy 550, Cuba",6404 Hwy 550,Cuba,87013.0,HERRERA CANNABIS COMPANY/ RETAIL HWY 550,,
"1113 W Spruce St, Deming 88030.0","1113 W Spruce St, Deming",1113 W Spruce St,Deming,88030.0,DEMING CANNABIS COMPANY LLC - SPRUCE ST RETAIL,,
"115 N Silver Ave, Deming 88030.0","115 N Silver Ave, Deming",115 N Silver Ave,Deming,88030.0,THE CANNA COMPANY,,
"118 E Pine St, Deming 88030.0","118 E Pine St, Deming",118 E Pine St,Deming,88030.0,KOKOPELLI MEDICINALS - EAST PINE STREET RETAILER,,
"1802 E Pine St., Deming 88030.0","1802 E Pine St., Deming",1802 E Pine St.,Deming,88030.0,AGRICANNA LLC - E PINE RETAIL,,
"807 E. Pine, Deming 88030.0","807 E. Pine, Deming",807 E. Pine,Deming,88030.0,NEW MEXICO TOP ORGANICS ULTRA HEALTH INC  PINE RETAIL,,
"814 Silver Ave, Deming 88030.0","814 Silver Ave, Deming",814 Silver Ave,Deming,88030.0,ORIGINAL CCO LLC,,
"745 Highway 64, Eagle Nest 87718.0","745 Highway 64, Eagle Nest",745 Highway 64,Eagle Nest,87718.0,NEW MEXICO TOP ORGANICS ULTRA HEALTH INC - Eagle Nest,,
"1942 Old 66 HWY, Edgewood 87015.0","1942 Old 66 HWY, Edgewood",1942 Old 66 HWY,Edgewood,87015.0,PECOS VALLEY PRODUCTION INC - OLD 66 HWY RETAIL,,
"2 Marietta Ct Ste B, Edgewood 87015.0","2 Marietta Ct Ste B, Edgewood",2 Marietta Ct Ste B,Edgewood,87015.0,ROADRUNNER RETAIL,,
"4 George Court Suites B, C, D, Edgewood 87015.0","4 George Court Suites B, C, D, Edgewood","4 George Court Suites B, C, D",Edgewood,87015.0,NEW MEXICO TOP ORGANICS ULTRA HEALTH INC - Edgewood,,
"869 County Line Road, Edgewood 87015.0","869 County Line Road, Edgewood",869 County Line Road,Edgewood,87015.0,JJS SECRET GARDEN LLC / RETAIL COUNTY LINE ROAD,,
"14 NM 150, El Prado 87529.0","14 NM 150, El Prado",14 NM 150,El Prado,87529.0,"TAOS MOUNTAIN GROWN, LLC - NM 150 RETAIL",,
"505 Highway 195, Elephant Butte 87935.0","505 Highway 195, Elephant Butte",505 Highway 195,Elephant Butte,87935.0,"BUTTE CANNABIS, LLC - HWY 195 RETAIL",,
"105 E Paseo de Onate, Espanola 87532.0","105 E Paseo de Onate, Espanola",105 E Paseo de Onate,Espanola,87532.0,NEW AIR LLC,,
"1205 N Riverside Dr, Espanola 87532.0","1205 N Riverside Dr, Espanola",1205 N Riverside Dr,Espanola,87532.0,ELKHORN RETAIL LLC - 1205 RIVERSIDE RETAIL,,
"1811 N Riverside Dr Ste A, Espanola 87532.0","1811 N Riverside Dr Ste A, Espanola",1811 N Riverside Dr Ste A,Espanola,87532.0,FRESHBUDZ LLC - RIVERSIDE DR RETAIL,,
"419 N Riverside Dr, Espanola 87532.0","419 N Riverside Dr, Espanola",419 N Riverside Dr,Espanola,87532.0,FCI OF NEW MEXICO - ESPANOLA RETAIL,,
"423 South Riverside Drive, Espanola 87532.0","423 South Riverside Drive, Espanola",423 South Riverside Drive,Espanola,87532.0,ELKHORN RETAIL LLC/ RETAIL SOUTH RIVERSIDE DRIVE,,
"527  527B N. Riverside Dr., Espanola 87532.0","527  527B N. Riverside Dr., Espanola",527  527B N. Riverside Dr.,Espanola,87532.0,BEST DAZE INC - FORMERLY GIVING TREE ORGANICS-PRODUCTION,,
"811 A. North Riverside Drive, Espanola 87532.0","811 A. North Riverside Drive, Espanola",811 A. North Riverside Drive,Espanola,87532.0,NEW MEXICO TOP ORGANICS ULTRA HEALTH INC  ESPANOLA RETAIL,,
"908 N Riverside Dr, Espanola 87532.0","908 N Riverside Dr, Espanola",908 N Riverside Dr,Espanola,87532.0,"HUSTLE BOYZ, LLC - RIVERSIDE DR RETAIL",,
"301 S 5th St, Estancia 87016.0","301 S 5th St, Estancia",301 S 5th St,Estancia,87016.0,AMY MAY MAY FLOWER - 5TH ST RETAIL,,
"1600 Ave O, Eunice 88231.0","1600 Ave O, Eunice",1600 Ave O,Eunice,88231.0,TOKER KING LLC - AVE O RETAIL,,
"2002 Avenue O, Eunice 88231.0","2002 Avenue O, Eunice",2002 Avenue O,Eunice,88231.0,BETTER DAZE CANNABIS CO LLC - AVE O RETAIL,,
"109 West Broadway, Farmington 87401.0","109 West Broadway, Farmington",109 West Broadway,Farmington,87401.0,HIGH ALTITUDE EXOTICS LIMITED LIABILITY COMPANY/ RETAIL WEST BROADWAY,,
"115 W Main ST., Farmington 87401.0","115 W Main ST., Farmington",115 W Main ST.,Farmington,87401.0,SMOKEAZY LLC- W MAIN ST. RETAIL,,
"1801 E Broadway St, Farmington 87401.0","1801 E Broadway St, Farmington",1801 E Broadway St,Farmington,87401.0,FARMINGTON CRAFT LLC - BROADWAY RETAIL,,
"1901 E 20th St, Farmington 87401.0","1901 E 20th St, Farmington",1901 E 20th St,Farmington,87401.0,ANIMACANN INC - 20TH ST RETAIL,,
"1930 San Juan Blvd A, Farmington 87401.0","1930 San Juan Blvd A, Farmington",1930 San Juan Blvd A,Farmington,87401.0,KANNABIS KLUB/ RETAIL SAN JUAN BLVD,,
"199 S Butler, Farmington 87401.0","199 S Butler, Farmington",199 S Butler,Farmington,87401.0,ZIA TOKE LLC,,
"2010 E Main St R 1, Farmington 87401.0","2010 E Main St R 1, Farmington",2010 E Main St R 1,Farmington,87401.0,CGFNM HOLDINGS LLC - RETAIL,,
"206 S Miller, Farmington 87401.0","206 S Miller, Farmington",206 S Miller,Farmington,87401.0,CANNACULTURE GROW COMPANY LLC - S MILLER RETAIL,,
"3000 E 20th St, Farmington 87402.0","3000 E 20th St, Farmington",3000 E 20th St,Farmington,87402.0,THE REEF JOINT LLC - 20TH ST RETAIL,,
"3024 E. Main Street, Suite A., Farmington 87042.0","3024 E. Main Street, Suite A., Farmington","3024 E. Main Street, Suite A.",Farmington,87042.0,PURLIFE DISPENSARY FARMINGTON,,
"3150 E Main St, Farmington 87402.0","3150 E Main St, Farmington",3150 E Main St,Farmington,87402.0,SCORE 420 - E MAIN FARMINGTON RETAIL,,
"3501 E Main St Ste 1  2, Farmington 87402.0","3501 E Main St Ste 1  2, Farmington",3501 E Main St Ste 1  2,Farmington,87402.0,FCI OF NEW MEXICO - FARMINGTON RETAIL,,
"4000 E Main St, Farmington 87402.0","4000 E Main St, Farmington",4000 E Main St,Farmington,87402.0,R GREENLEAF ORGANICS INC - EVERYDAY WEED FARMINGTON RTLR,,
"403 W. Main St, Farmington 87401.0","403 W. Main St, Farmington",403 W. Main St,Farmington,87401.0,ALL AMERICAN BUD COMPANY -RETAIL,,
"426 E Main St, Farmington 87401.0","426 E Main St, Farmington",426 E Main St,Farmington,87401.0,OCC ABQ LLC - Farmington,,
"4339 E Main St, Farmington 87402.0","4339 E Main St, Farmington",4339 E Main St,Farmington,87402.0,ZIA TOKE LLC - MAIN ST RETAIL,,
"4601 English Rd, Farmington 87402.0","4601 English Rd, Farmington",4601 English Rd,Farmington,87402.0,DISTINGUISHED DISPENSARY LLC - ENGLISH RD RETAIL,,
"5100 E Main St Suite 105, Farmington 87402.0","5100 E Main St Suite 105, Farmington",5100 E Main St Suite 105,Farmington,87402.0,MOTHERS MEDS LLC - MAIN ST RETAIL,,
"663 W MAIN ST, Farmington 87401.0","663 W MAIN ST, Farmington",663 W MAIN ST,Farmington,87401.0,THE ALCHEMIST LLC - MAIN ST RETAIL,,
"911 W Apache St, Farmington 87401.0","911 W Apache St, Farmington",911 W Apache St,Farmington,87401.0,911 KRONIC/ RETAIL W APACHE ST,,
"928 E Main St Bldg C, Farmington 87401.0","928 E Main St Bldg C, Farmington",928 E Main St Bldg C,Farmington,87401.0,THE GRASS STATION LLC - MAIN ST RETAIL,,
"138 W Sumner Ave, Fort Sumner 88119.0","138 W Sumner Ave, Fort Sumner",138 W Sumner Ave,Fort Sumner,88119.0,SMOKE N MIKES LLC - SUMNER AVE RETAIL,,
"213 E Sumner Ave, Fort Sumner 88119.0","213 E Sumner Ave, Fort Sumner",213 E Sumner Ave,Fort Sumner,88119.0,SCORE 420- E SUMNER AVE RETAIL,,
"1005 E. Hwy 66, Gallup 87301.0","1005 E. Hwy 66, Gallup",1005 E. Hwy 66,Gallup,87301.0,PROHIBITION 37 - E HWY 66 RETAIL,,
"1020 W Maloney Ste A, Gallup 87301.0","1020 W Maloney Ste A, Gallup",1020 W Maloney Ste A,Gallup,87301.0,MGGA LLC - MALONEY ST RETAIL,,
"103 Dean ST, Gallup 87301.0","103 Dean ST, Gallup",103 Dean ST,Gallup,87301.0,MGGA LLC - Gallup,,
"106 W Coal Ave, Gallup 87301.0","106 W Coal Ave, Gallup",106 W Coal Ave,Gallup,87301.0,"420 DISPENSARY, LLC - W COAL RETAIL",,
"1121 US 491, Gallup 87301.0","1121 US 491, Gallup",1121 US 491,Gallup,87301.0,"RMC NM, INC - GALLUP RETAIL",,
"1208  East Highway 66, Gallup 87301.0","1208  East Highway 66, Gallup",1208  East Highway 66,Gallup,87301.0,LAVA WELLNESS,,
"1379 US-491, Gallup 87301.0","1379 US-491, Gallup",1379 US-491,Gallup,87301.0,FCI OF NEW MEXICO - GALLUP RETAIL,,
"200 W. Coal Ave, Gallup 87301.0","200 W. Coal Ave, Gallup",200 W. Coal Ave,Gallup,87301.0,NEW MEXICO TOP ORGANICS ULTRA HEALTH INC  GALLUP DISPENSARY,,
"3400 East Hwy 66, Gallup 87301.0","3400 East Hwy 66, Gallup",3400 East Hwy 66,Gallup,87301.0,GRASSROOTS GRANTS LLC DISPENSARY GALLUP,,
"503 US Hwy 491 Ste E, Gallup 87301.0","503 US Hwy 491 Ste E, Gallup",503 US Hwy 491 Ste E,Gallup,87301.0,MGGA LLC - Gallup,,
"611 W Historic HWY 66, Gallup 87301.0","611 W Historic HWY 66, Gallup",611 W Historic HWY 66,Gallup,87301.0,CMC CANNABIS DISPENSARY LLC/ RETAIL W HISTORIC HWY 66,,
"815 E Historical Hwy. E 66, Gallup 87301.0","815 E Historical Hwy. E 66, Gallup",815 E Historical Hwy. E 66,Gallup,87301.0,TOP SHELF - HISTORICAL HWY RETAIL,,
"105 Route 66, Glenrio 88434.0","105 Route 66, Glenrio",105 Route 66,Glenrio,88434.0,GLENRIO SMOKE STOP LLC/ RETAIL ROUTE 66,,
"1005 Mesa Blvd., Grants 87357.0","1005 Mesa Blvd., Grants",1005 Mesa Blvd.,Grants,87357.0,GRASSROOTS GRANTS LLC DISPENSARY,,
"899 East Roosevelt, Grants 87020.0","899 East Roosevelt, Grants",899 East Roosevelt,Grants,87020.0,R. GREENLEAF ORGANICS DISPENSARY GRANTS,,
"629 Franklin Street, Hatch 87937.0","629 Franklin Street, Hatch",629 Franklin Street,Hatch,87937.0,HATCH VALLEY VENTURES LLC - FRANKLIN STREET RETAILER,,
"629 N Franklin St, Hatch 87937.0","629 N Franklin St, Hatch",629 N Franklin St,Hatch,87937.0,HIGH NOON CANNABIS LLC - FRANKLIN ST RETAIL,,
"1003 N Linam St, Hobbs 88240.0","1003 N Linam St, Hobbs",1003 N Linam St,Hobbs,88240.0,CANNA BUDDHA LLC/ RETAIL N LINAM ST,,
"1127 Joe Harvey Blvd, Hobbs 88240.0","1127 Joe Harvey Blvd, Hobbs",1127 Joe Harvey Blvd,Hobbs,88240.0,"CHADCOR HOLDINGS NM, LLC - JOE HARVEY BLVD RETAIL",,
"1710 W. Joe Harvey Blvd Ste G, Hobbs 88240.0","1710 W. Joe Harvey Blvd Ste G, Hobbs",1710 W. Joe Harvey Blvd Ste G,Hobbs,88240.0,TRU HIGH CROP LLC - RETAIL N DAL PASO ST,,
"1822 S. Dal Paso, Hobbs 88240.0","1822 S. Dal Paso, Hobbs",1822 S. Dal Paso,Hobbs,88240.0,COMPASSIONATE DISTRIBUTORS INC -  DAL PASO RETAIL,,
"1901 W. Joe Harvey Blvd. Suite 130, Hobbs 88240.0","1901 W. Joe Harvey Blvd. Suite 130, Hobbs",1901 W. Joe Harvey Blvd. Suite 130,Hobbs,88240.0,R. GREENLEAF ORGANICS INC - CAMINO REAL RETAIL,,
"1912 N Grimes, Hobbs 88240.0","1912 N Grimes, Hobbs",1912 N Grimes,Hobbs,88240.0,ENCHANTMENT GROWTH CO - Hobbs,,
"207 North Grimes, Hobbs 88240.0","207 North Grimes, Hobbs",207 North Grimes,Hobbs,88240.0,BRYANS GREEN CARE RETAIL - Hobbs,,
"2206 West Marland Boulevard, Hobbs 88240.0","2206 West Marland Boulevard, Hobbs",2206 West Marland Boulevard,Hobbs,88240.0,BUD BOARD DISPENSARY LLC,,
"236 E. Navajo Dr. Suites: N-800 , O-700, Hobbs 88240.0","236 E. Navajo Dr. Suites: N-800 , O-700, Hobbs","236 E. Navajo Dr. Suites: N-800 , O-700",Hobbs,88240.0,URBAN WELLNESS - HOBBS DISPENSARY,,
"2620 N Lovington Hwy, Hobbs 88240.0","2620 N Lovington Hwy, Hobbs",2620 N Lovington Hwy,Hobbs,88240.0,PECOS VALLEY PRODUCTION INC - LOVINGTON HWY RETAIL,,
"301 N GRIMES ST, Hobbs 88240.0","301 N GRIMES ST, Hobbs",301 N GRIMES ST,Hobbs,88240.0,PURLIFE RETAIL - Hobbs,,
"310 W Navajo Dr, Hobbs 88240.0","310 W Navajo Dr, Hobbs",310 W Navajo Dr,Hobbs,88240.0,PECOS VALLEY PRODUCTION INC - RETAIL NAVAJO,,
"311 W Broadway St, Hobbs 88240.0","311 W Broadway St, Hobbs",311 W Broadway St,Hobbs,88240.0,PECOS VALLEY PRODUCTION INC - BROADWAY ST RETAIL,,
"312 W Navajo Ste 100, Hobbs 88240.0","312 W Navajo Ste 100, Hobbs",312 W Navajo Ste 100,Hobbs,88240.0,COUTH FARMS LLC - W NAVAJO RETAIL,,
"3211 N Dal Paso, Hobbs 88240.0","3211 N Dal Paso, Hobbs",3211 N Dal Paso,Hobbs,88240.0,NEW MEXICO TOP ORGANICS ULTRA HEALTH INC  N DAL PASO RETAIL,,
"3501 N Grimes St Ste 100, Hobbs 88240.0","3501 N Grimes St Ste 100, Hobbs",3501 N Grimes St Ste 100,Hobbs,88240.0,GNOMAD LLC - GRIMES ST RETAIL,,
"3817 N Central Avenue, Suite A, Hobbs 88240.0","3817 N Central Avenue, Suite A, Hobbs","3817 N Central Avenue, Suite A",Hobbs,88240.0,"HIGH DESERT RELIEF-N CENTRAL AVENUE, SUITE A RETAIL",,
"4301 N Grimes St Suite 600, Hobbs 88240.0","4301 N Grimes St Suite 600, Hobbs",4301 N Grimes St Suite 600,Hobbs,88240.0,FCI OF NEW MEXICO - HOBBS RETAIL,,
"4401 N Grimes Ste 300, Hobbs 88240.0","4401 N Grimes Ste 300, Hobbs",4401 N Grimes Ste 300,Hobbs,88240.0,ROADRUNNER GREENS LLC - N GRIMES RETAIL,,
"502 West Navajo Dr, Hobbs 88240.0","502 West Navajo Dr, Hobbs",502 West Navajo Dr,Hobbs,88240.0,BRYANS GREEN CARE- NAVAJO DR RETAIL/CONS,,
"616 E Bender Blvd, Hobbs 88240.0","616 E Bender Blvd, Hobbs",616 E Bender Blvd,Hobbs,88240.0,"WONDERLAND, LLC - BENDER RETAIL",,
"617 S Cochran, Hobbs 88240.0","617 S Cochran, Hobbs",617 S Cochran,Hobbs,88240.0,MESA FLOWERS,,
"701 N Grimes St, Hobbs 88240.0","701 N Grimes St, Hobbs",701 N Grimes St,Hobbs,88240.0,ANIMACANN INC - GRIMES ST RETAIL,,
"708 E Bender Blvd, Hobbs 88240.0","708 E Bender Blvd, Hobbs",708 E Bender Blvd,Hobbs,88240.0,MINDSCAPE VENTURES LLC/ RETAIL E BENDER BLVD,,
"718 Bender Blvd, Hobbs 88240.0","718 Bender Blvd, Hobbs",718 Bender Blvd,Hobbs,88240.0,PRIMOS RAW ORGANICS - BENDER BLVD RETAILER,,
"927 E Bender Blvd, Hobbs 88240.0","927 E Bender Blvd, Hobbs",927 E Bender Blvd,Hobbs,88240.0,SCORE 420 - BENDER BLVD RETAIL,,
"211 W Kansas Ave, Jal 88252.0","211 W Kansas Ave, Jal",211 W Kansas Ave,Jal,88252.0,TOKER KING LLC/ RETAIL W KANSAS AVE,,
"3411 NM-18, Jal 88252.0","3411 NM-18, Jal",3411 NM-18,Jal,88252.0,GREY MOON OPERATIONS LLC - RETAIL,,
"435 S 3rd St., Jal 88252.0","435 S 3rd St., Jal",435 S 3rd St.,Jal,88252.0,CANNABIS CENTRAL LLC - 3RD ST RETAIL,,
"604 E Kansas Ave, Jal 88252.0","604 E Kansas Ave, Jal",604 E Kansas Ave,Jal,88252.0,HAPPY SMILES LLC -610 RETAIL - Jal,,
"610 E Kansas Ave, Jal 88252.0","610 E Kansas Ave, Jal",610 E Kansas Ave,Jal,88252.0,HAPPY SMILES LLC -610 RETAIL - Jal,,
"714 S Commerce, Jal 88252.0","714 S Commerce, Jal",714 S Commerce,Jal,88252.0,ENCHANTMENT GROWTH CO - Jal,,
"17502 Highway 4 Suite B, Jemez Springs 87025.0","17502 Highway 4 Suite B, Jemez Springs",17502 Highway 4 Suite B,Jemez Springs,87025.0,JEMEZ MOUNTAIN MEDS LLC - HIGHWAY 4 RETAIL,,
"4157 US-64, Kirtland 87417.0","4157 US-64, Kirtland",4157 US-64,Kirtland,87417.0,CGFNM HOLDINGS LLC- US 64 RETAIL,,
"4157 US-64, Kirtland 87414.0","4157 US-64, Kirtland",4157 US-64,Kirtland,87414.0,FOSTER FARMS LLC - US 64 RETAIL,,
"4354 Highway 64, Kirtland 87417.0","4354 Highway 64, Kirtland",4354 Highway 64,Kirtland,87417.0,KINDLIFE KIRTLAND LLC/ RETAIL HIGHWAY 64,,
"1000 N Main, Las Cruces 88081.0","1000 N Main, Las Cruces",1000 N Main,Las Cruces,88081.0,NERA LLC/ RETAIL HIGHWAY 213,,
"1025 El Paseo, Las Cruces 88001.0","1025 El Paseo, Las Cruces",1025 El Paseo,Las Cruces,88001.0,DISPENSARY NEAR ME LAS CRUCES - EL PASEO RETAIL,,
"1128 South Solano Drive, Las Cruces 88001.0","1128 South Solano Drive, Las Cruces",1128 South Solano Drive,Las Cruces,88001.0,BOTANICAL INFUSIONS/ RETAIL SOUTH SOLANO DRIVE,,
"1201 South Solano Drive, Las Cruces 88001.0","1201 South Solano Drive, Las Cruces",1201 South Solano Drive,Las Cruces,88001.0,MUNCHIEZ CANNABIS LLC- SOLANO RETAIL,,
"1240 S Valley Dr Ste D, Las Cruces 88005.0","1240 S Valley Dr Ste D, Las Cruces",1240 S Valley Dr Ste D,Las Cruces,88005.0,EVEREST APOTHECARY - Las Cruces,,
"1275 W Picacho Ave 1, Las Cruces 88007.0","1275 W Picacho Ave 1, Las Cruces",1275 W Picacho Ave 1,Las Cruces,88007.0,MONSTER HOUSE SMOKE LLC - PICACHO AVE RETAIL / CONSUMPTION,,
"140 W Picacho Ave Unit C, Las Cruces 88005.0","140 W Picacho Ave Unit C, Las Cruces",140 W Picacho Ave Unit C,Las Cruces,88005.0,FCI OF NEW MEXICO - PICACHO AVE RETAIL,,
"1405 S. Valley Drive, Las Cruces 88005.0","1405 S. Valley Drive, Las Cruces",1405 S. Valley Drive,Las Cruces,88005.0,PROHIBITION 37 - S. VALLEY DR RETAIL,,
"142 Wyatt Dr, Las Cruces 88005.0","142 Wyatt Dr, Las Cruces",142 Wyatt Dr,Las Cruces,88005.0,MASBUDS LLC - WYATT DR RETAIL,,
"1455 Hickory Dr Ste 1B, Las Cruces 88005.0","1455 Hickory Dr Ste 1B, Las Cruces",1455 Hickory Dr Ste 1B,Las Cruces,88005.0,GRANDE CULTIVATION COLLECTIVE LLC - HICKORY DR RETAIL,,
"1455 Hickory Dr., Las Cruces 88005.0","1455 Hickory Dr., Las Cruces",1455 Hickory Dr.,Las Cruces,88005.0,RARE ENTERPRISES LLC - HICKORY RETAIL,,
"1590 E Lohman Ave, Las Cruces 88001.0","1590 E Lohman Ave, Las Cruces",1590 E Lohman Ave,Las Cruces,88001.0,ORGAN MOUNTAIN WELLNESS LLC - RETAIL,,
"1595 El Paseo Rd, Las Cruces 88001.0","1595 El Paseo Rd, Las Cruces",1595 El Paseo Rd,Las Cruces,88001.0,COUTH FARMS LLC- EL PASEO RD RETAIL,,
"1600 South Valley Drive, Suite D, Las Cruces 88005.0","1600 South Valley Drive, Suite D, Las Cruces","1600 South Valley Drive, Suite D",Las Cruces,88005.0,NEW MEXICO TOP ORGANICS ULTRA HEALTH INC  LAS CRUCES RETAIL,,
"1602 E Lohman, Las Cruces 88011.0","1602 E Lohman, Las Cruces",1602 E Lohman,Las Cruces,88011.0,EUPHORIA GROUP LLC/ RETAIL E LOHMAN,,
"162 Wyatt Dr, Las Cruces 88005.0","162 Wyatt Dr, Las Cruces",162 Wyatt Dr,Las Cruces,88005.0,TURQUOISE BLOOM INC/ RETAIL WYATT DR,,
"1685 North Main St, Las Cruces 88001.0","1685 North Main St, Las Cruces",1685 North Main St,Las Cruces,88001.0,HHNM LAS CRUCES 2 COMPANY- NORTH MAIN ST RETAIL,,
"1713 E. University Blvd, Las Cruces 88001.0","1713 E. University Blvd, Las Cruces",1713 E. University Blvd,Las Cruces,88001.0,FLORA VERDE LLC - UNIVERSITY BLVD RETAIL,,
"1810 E. Lohman, Las Cruces 88001.0","1810 E. Lohman, Las Cruces",1810 E. Lohman,Las Cruces,88001.0,CONNOISSEUR COLLECTIVE LLC - RETAIL,,
"1886 W Picacho Ave, Las Cruces 88005.0","1886 W Picacho Ave, Las Cruces",1886 W Picacho Ave,Las Cruces,88005.0,RICARDO O WILSON - IDAHO RETAIL,,
"1960 N Solano Dr, Las Cruces 88001.0","1960 N Solano Dr, Las Cruces",1960 N Solano Dr,Las Cruces,88001.0,BOTANICAL INFUSIONS - N SOLANO DR RETAIL,,
"1965 Bataan Memorial, Las Cruces 88012.0","1965 Bataan Memorial, Las Cruces",1965 Bataan Memorial,Las Cruces,88012.0,NEW MEXICO TOP ORGANICS ULTRA HEALTH INC - Las Cruces,,
"200 Conway, Las Cruces 88005.0","200 Conway, Las Cruces",200 Conway,Las Cruces,88005.0,AKESO BOTANICALS LLC,,
"200 S Solano Ste 3, Las Cruces 88001.0","200 S Solano Ste 3, Las Cruces",200 S Solano Ste 3,Las Cruces,88001.0,"ROUND HOUSE RESERVE, LLC - SOLANO RETAIL",,
"2000 E Lohman Ave Ste E, Las Cruces 88001.0","2000 E Lohman Ave Ste E, Las Cruces",2000 E Lohman Ave Ste E,Las Cruces,88001.0,GREENGO NM - LOHMAN AVE RETAIL,,
"2001 Copper Loop Ste 5, Las Cruces 880005.0","2001 Copper Loop Ste 5, Las Cruces",2001 Copper Loop Ste 5,Las Cruces,880005.0,LAS COLAS LLC,,
"2153 W Picacho Ave, Las Cruces 88007.0","2153 W Picacho Ave, Las Cruces",2153 W Picacho Ave,Las Cruces,88007.0,EFFY EXOTICS LLC - PICACHO RETAIL,,
"2215 A South Main St, Las Cruces 88005.0","2215 A South Main St, Las Cruces",2215 A South Main St,Las Cruces,88005.0,M THOMAS LLC - EL MOLINO MANUFACTURER,,
"2240 E Lohman Ave., Unit 1, Las Cruces 88001.0","2240 E Lohman Ave., Unit 1, Las Cruces","2240 E Lohman Ave., Unit 1",Las Cruces,88001.0,CHADCOR HOLDINGS NM- RETAIL - Las Cruces,,
"227 S Main St, Las Cruces 88001.0","227 S Main St, Las Cruces",227 S Main St,Las Cruces,88001.0,PHARMTRUE LLC,,
"2305 Nevada Ave, Las Cruces 88001.0","2305 Nevada Ave, Las Cruces",2305 Nevada Ave,Las Cruces,88001.0,CANNAVERSE - NEVADA AVE RETAIL,,
"2460 Locust St Ste1, Las Cruces 88001.0","2460 Locust St Ste1, Las Cruces",2460 Locust St Ste1,Las Cruces,88001.0,PECOS VALLEY PRODUCTION INC - LOCUST ST RETAIL,,
"2460 Missouri Ave, Las Cruces 88001.0","2460 Missouri Ave, Las Cruces",2460 Missouri Ave,Las Cruces,88001.0,HASHTAG CANNABIS LLC - RETAIL,,
"250 W Amador Ave, Las Cruces 88005.0","250 W Amador Ave, Las Cruces",250 W Amador Ave,Las Cruces,88005.0,DANK OF AMERICA LLC - W AMADOR RETAIL,,
"2505 Missouri Avenue, Las Cruces 88011.0","2505 Missouri Avenue, Las Cruces",2505 Missouri Avenue,Las Cruces,88011.0,K PAYNE RELIEF/ RETAIL MISSOURI AVENUE,,
"2517 Main St, Las Cruces 87107.0","2517 Main St, Las Cruces",2517 Main St,Las Cruces,87107.0,SANDIA BOTANICALS - Las Cruces,,
"2702  West Amador Suite B-2, Las Cruces 88005.0","2702  West Amador Suite B-2, Las Cruces",2702  West Amador Suite B-2,Las Cruces,88005.0,ROYAL CANNABIS LLC - AMADOR RETAIL,,
"2821 N Telshor Blvd, Las Cruces 88011.0","2821 N Telshor Blvd, Las Cruces",2821 N Telshor Blvd,Las Cruces,88011.0,SCORE 420 - 2107 CENTRAL RETAIL,,
"300 N Main St. Ste 4, Las Cruces 88001.0","300 N Main St. Ste 4, Las Cruces",300 N Main St. Ste 4,Las Cruces,88001.0,CLM MANAGEMENT LLC - N MAIN ST RETAIL,,
"301 N Seventeenth St. Ste A, Las Cruces 88005.0","301 N Seventeenth St. Ste A, Las Cruces",301 N Seventeenth St. Ste A,Las Cruces,88005.0,GANJA GARDENS LLC - SEVENTEENTH ST RETAIL,,
"301 N Solano Dr Ste 8, Las Cruces 88001.0","301 N Solano Dr Ste 8, Las Cruces",301 N Solano Dr Ste 8,Las Cruces,88001.0,MONSTER HOUSE SMOKE LLC/ RETAIL N SOLANO DR,,
"3050 Roadrunner Parkway, Ste A2, Las Cruces 88011.0","3050 Roadrunner Parkway, Ste A2, Las Cruces","3050 Roadrunner Parkway, Ste A2",Las Cruces,88011.0,PECOS VALLEY PRODUCTION INC - ROADRUNNER PARKWAY RETAIL,,
"3330 Rinconada Blvd, Las Cruces 88011.0","3330 Rinconada Blvd, Las Cruces",3330 Rinconada Blvd,Las Cruces,88011.0,AMIGOS LAS CRUCES LLC- RINCONADA BLVD RETAIL,,
"3497 Bataan Memorial West, Las Cruces 88102.0","3497 Bataan Memorial West, Las Cruces",3497 Bataan Memorial West,Las Cruces,88102.0,MONSTER HOUSE SMOKE LLC,,
"3510 Northrise Suite 4, Las Cruces 88011.0","3510 Northrise Suite 4, Las Cruces",3510 Northrise Suite 4,Las Cruces,88011.0,BIG RANCH CULTIVATION LLC - NORTHRISE RETAIL,,
"3830 E Lohman Ave Building-2, Las Cruces 88011.0","3830 E Lohman Ave Building-2, Las Cruces",3830 E Lohman Ave Building-2,Las Cruces,88011.0,URBAN WELLNESS - LAS CRUCES DISPENSARY,,
"3841 East Lohman Ave, Las Cruces 88011.0","3841 East Lohman Ave, Las Cruces",3841 East Lohman Ave,Las Cruces,88011.0,EVEREST APOTHECARY - LAS CRUCES DISPENSARY,,
"3850 Foothills Rd Suite 5, Las Cruces 88011.0","3850 Foothills Rd Suite 5, Las Cruces",3850 Foothills Rd Suite 5,Las Cruces,88011.0,NEW ERA NM LLC - FOOTHILLS RD RETAIL,,
"401 North 17th St. Suite 8, Las Cruces 88005.0","401 North 17th St. Suite 8, Las Cruces",401 North 17th St. Suite 8,Las Cruces,88005.0,SERRANO SPRINGS LLC - 17TH ST. RETAIL,,
"4165 White Sage Arc, Las Cruces 88012.0","4165 White Sage Arc, Las Cruces",4165 White Sage Arc,Las Cruces,88012.0,EVEREST APOTHECARY - WHITE SAGE RETAIL,,
"421 Avenida De Mesilla, Las Cruces 88005.0","421 Avenida De Mesilla, Las Cruces",421 Avenida De Mesilla,Las Cruces,88005.0,MARY J LANE LC,,
"513 E Idaho, Las Cruces 88001.0","513 E Idaho, Las Cruces",513 E Idaho,Las Cruces,88001.0,M THOMAS LLC - MAIN ST RETAIL - Las Cruces,,
"523 E Idaho, Las Cruces 88001.0","523 E Idaho, Las Cruces",523 E Idaho,Las Cruces,88001.0,M THOMAS LLC - MAIN ST RETAIL - Las Cruces,,
"530 N Telshor Suite G, Las Cruces 88007.0","530 N Telshor Suite G, Las Cruces",530 N Telshor Suite G,Las Cruces,88007.0,TRUE ESSENTIA/ RETAIL N TELSHOR SUITE E,,
"580 S. Valley Dr. Ste. 300, Las Cruces 88005.0","580 S. Valley Dr. Ste. 300, Las Cruces",580 S. Valley Dr. Ste. 300,Las Cruces,88005.0,HHNM LAS CRUCES 1 COMPANY- S VALLEY DR RETAIL,,
"600 S Solano, Las Cruces 88001.0","600 S Solano, Las Cruces",600 S Solano,Las Cruces,88001.0,QUEEN BEES COLLECTIVE LLC - SOLANO RETAIL,,
"606 N Mesquite, Las Cruces 88001.0","606 N Mesquite, Las Cruces",606 N Mesquite,Las Cruces,88001.0,PENDEJADAS INC,,
"615 E Lohman Ave, Las Cruces 88001.0","615 E Lohman Ave, Las Cruces",615 E Lohman Ave,Las Cruces,88001.0,BLOOM MANAGEMENT GROUP LLC - E LOHMAN AVE RETAIL - RETAIL,,
"641 Thorpe Rd., Las Cruces 88007.0","641 Thorpe Rd., Las Cruces",641 Thorpe Rd.,Las Cruces,88007.0,THE MATCHBOX LLC - THORPE RETAIL,,
"725 South Solano, Las Cruces 88001.0","725 South Solano, Las Cruces",725 South Solano,Las Cruces,88001.0,ROUND HOUSE RESERVE LLC - S SOLANO RETAIL,,
"750 S Solano, Las Cruces 88001.0","750 S Solano, Las Cruces",750 S Solano,Las Cruces,88001.0,ALTER EGO DISPENSARY LLC - SOLANO RETAIL,,
"755 S Telshor Blvd.. Bldg A, Las Cruces 88011.0","755 S Telshor Blvd.. Bldg A, Las Cruces",755 S Telshor Blvd.. Bldg A,Las Cruces,88011.0,PURLIFE - TELSHOR BLVD RETAIL,,
"775 S Telshor, Las Cruces 88011.0","775 S Telshor, Las Cruces",775 S Telshor,Las Cruces,88011.0,R. GREENLEAF ORGANICS INC - TELSHOR RETAIL,,
"795 S Salano Dr STE A, Las Cruces 88001.0","795 S Salano Dr STE A, Las Cruces",795 S Salano Dr STE A,Las Cruces,88001.0,CASA VERDE CANNABIS LLC - SOLANO RETAIL,,
"951 N Solano Dr Suite B, Las Cruces 88001.0","951 N Solano Dr Suite B, Las Cruces",951 N Solano Dr Suite B,Las Cruces,88001.0,ZIA COLLECTIVE DISPENSARY- SOLANO RETAIL,,
"9575 Bataan Memorial West, Las Cruces 88012.0","9575 Bataan Memorial West, Las Cruces",9575 Bataan Memorial West,Las Cruces,88012.0,AIM HIGH ENTERPRISES LLC- BATAAN MEMORIAL WEST RETAIL,,
"1608 7th St, Las Vegas 87701.0","1608 7th St, Las Vegas",1608 7th St,Las Vegas,87701.0,FCI OF NEW MEXICO - LAS VEGAS RETAIL,,
"1822 7th St, Las Vegas 87701.0","1822 7th St, Las Vegas",1822 7th St,Las Vegas,87701.0,SMOKE N BODY JEWELRY LLC/ RETAIL 7TH ST,,
"2410 7th St, Las Vegas 87701.0","2410 7th St, Las Vegas",2410 7th St,Las Vegas,87701.0,ROLLIN LOVE LLC - 7TH ST RETAIL,,
"252/254 Mills Ave., Las Vegas 87701.0","252/254 Mills Ave., Las Vegas",252/254 Mills Ave.,Las Vegas,87701.0,NEW MEXICO TOP ORGANICS ULTRA HEALTH INC  LAS VEGAS DISPENSARY,,
"327 S Grand, Las Vegas 87701.0","327 S Grand, Las Vegas",327 S Grand,Las Vegas,87701.0,TILLYS CANNABIS CONSORTIUM - GRAND RETAIL,,
"615 E. Lincoln St, Las Vegas 87701.0","615 E. Lincoln St, Las Vegas",615 E. Lincoln St,Las Vegas,87701.0,R. GREENLEAF ORGANICS DISPENSARY LAS VEGAS,,
"800 Mills Ave, Las Vegas 87701.0","800 Mills Ave, Las Vegas",800 Mills Ave,Las Vegas,87701.0,BEST DAZE INC - Las Vegas,,
"124 US Hwy 54, Logan 88426.0","124 US Hwy 54, Logan",124 US Hwy 54,Logan,88426.0,TOOT TOOT PROPERTIES LLC/ RETAIL US HWY 54,,
"403 North US Hwy 54, Logan 82446.0","403 North US Hwy 54, Logan",403 North US Hwy 54,Logan,82446.0,CHIKERE CAFE LLC - US HWY 54 RETAIL,,
"805 Main Street, Lordsburg 88045.0","805 Main Street, Lordsburg",805 Main Street,Lordsburg,88045.0,NEW MEXICO TOP ORGANICS ULTRA HEALTH INC - Lordsburg,,
"248 DP Road, Los Alamos 87544.0","248 DP Road, Los Alamos",248 DP Road,Los Alamos,87544.0,ARRIVE,,
"555 Oppenheimer Dr Ste 100, Los Alamos 87544.0","555 Oppenheimer Dr Ste 100, Los Alamos",555 Oppenheimer Dr Ste 100,Los Alamos,87544.0,WHEEED LLC - LOS ALAMOS RETAIL,,
"111 Lujan Rd SE, Los Lunas 87031.0","111 Lujan Rd SE, Los Lunas",111 Lujan Rd SE,Los Lunas,87031.0,FAMILY STRAINS LLC,,
"127 Hwy 314 NW, Los Lunas 87031.0","127 Hwy 314 NW, Los Lunas",127 Hwy 314 NW,Los Lunas,87031.0,LEAF REPUBLIC - HWY 314 NW RETAIL,,
"1651 Main Street, Suite E, Los Lunas 87031.0","1651 Main Street, Suite E, Los Lunas","1651 Main Street, Suite E",Los Lunas,87031.0,EVEREST APOTHECARY - LOS LUNAS DISPENSARY,,
"2235-2245 Main St SE, Los Lunas 87031.0","2235-2245 Main St SE, Los Lunas",2235-2245 Main St SE,Los Lunas,87031.0,R. GREENLEAF ORGANICS - Los Lunas,,
"3414 Highway 47, Los Lunas 87031.0","3414 Highway 47, Los Lunas",3414 Highway 47,Los Lunas,87031.0,GH LLC- HIGHWAY 47 RETAIL,,
"3459 Main St Suite D, Los Lunas 87031.0","3459 Main St Suite D, Los Lunas",3459 Main St Suite D,Los Lunas,87031.0,FCI OF NEW MEXICO - MAIN ST RETAIL,,
"3513 Main St, Los Lunas 87031.0","3513 Main St, Los Lunas",3513 Main St,Los Lunas,87031.0,LL MANAGEMENT LLC,,
"4883 Highway 314, Los Lunas 87031.0","4883 Highway 314, Los Lunas",4883 Highway 314,Los Lunas,87031.0,ZIA DYNASTYS TREEHOUSE,,
"7103 4th St NW Bldg F, Los Ranchos 87107.0","7103 4th St NW Bldg F, Los Ranchos",7103 4th St NW Bldg F,Los Ranchos,87107.0,TOASTED LLC - 4TH ST RETAIL,,
"7218 4th Street NW, Los Ranchos 87107.0","7218 4th Street NW, Los Ranchos",7218 4th Street NW,Los Ranchos,87107.0,CASA KUSH LLC/ RETAIL 4TH STREET NW,,
"11 El Lobo Road, Loving 88256.0","11 El Lobo Road, Loving",11 El Lobo Road,Loving,88256.0,PROCESS MANAGEMENT CONTROL - LOVING RETAIL,,
"412 W. Birch Street, Loving 88256.0","412 W. Birch Street, Loving",412 W. Birch Street,Loving,88256.0,TOKER KING LLC - BIRCH STREET RETAILER,,
"107 E. Washington Ave, Lovington 88260.0","107 E. Washington Ave, Lovington",107 E. Washington Ave,Lovington,88260.0,"TAKE TWO, LLC",,
"1103 S Main St, Lovington 88260.0","1103 S Main St, Lovington",1103 S Main St,Lovington,88260.0,HIGHLINE CANNABIS LLC,,
"2330 S Main, Lovington 88260.0","2330 S Main, Lovington",2330 S Main,Lovington,88260.0,BRYANS GREEN CARE RETAIL - Lovington,,
"526 W Ave D, Lovington 88260.0","526 W Ave D, Lovington",526 W Ave D,Lovington,88260.0,BETTER DAZE CANNABIS CO LLC - AVE D RETAIL,,
"609 Tatum Highway, Lovington 88260.0","609 Tatum Highway, Lovington",609 Tatum Highway,Lovington,88260.0,HI LEVEL LOGISTICS LLC/ RETAIL E TATUM HIGHWAY,,
"830 W Avenue D, Lovington 88260.0","830 W Avenue D, Lovington",830 W Avenue D,Lovington,88260.0,TREEHOUSE CANNABIS LLC - WEST AVE RETAIL,,
"2860 State Hwy 14 N A1, Madrid 87010.0","2860 State Hwy 14 N A1, Madrid",2860 State Hwy 14 N A1,Madrid,87010.0,TRU LUV BUD LLC - HWY 14 RETAIL,,
"8 Railyard Ln, Madrid 87010.0","8 Railyard Ln, Madrid",8 Railyard Ln,Madrid,87010.0,"MADRID CANNABIS, INC - RAILYARD LN, RETAIL",,
"2060 Calle De Parin, Mesilla 88046.0","2060 Calle De Parin, Mesilla",2060 Calle De Parin,Mesilla,88046.0,GREENE STREET HOLDINGS NEW MEXICO LLC- LOHMAN RETAIL,,
"5555 S Main St, Mesilla Park 88047.0","5555 S Main St, Mesilla Park",5555 S Main St,Mesilla Park,88047.0,DR GREEN ORGANICS - MAIN ST RETAIL,,
"1700 Juniper Dr, Milan 87021.0","1700 Juniper Dr, Milan",1700 Juniper Dr,Milan,87021.0,"THE HERBAL CLUB, LLC",,
"711 W Route 66, Milan 87021.0","711 W Route 66, Milan",711 W Route 66,Milan,87021.0,UNCLE ROYS - W ROUTE 66 RETAIL,,
"195 State Hwy 518, Mora 87732.0","195 State Hwy 518, Mora",195 State Hwy 518,Mora,87732.0,SMOKING CROW CANNABIS COMPANY - STATE HWY 434 RETAIL,,
"121 US Route 66, Moriarty 87035.0","121 US Route 66, Moriarty",121 US Route 66,Moriarty,87035.0,BUDDER PROS LLC,,
"2015 US Rt 66 West Ste 1, Moriarty 87035.0","2015 US Rt 66 West Ste 1, Moriarty",2015 US Rt 66 West Ste 1,Moriarty,87035.0,STONE CENTRAL CANNABIS LLC - RT 66 RETAIL,,
"729 NM-22, Pena Blanca 87041.0","729 NM-22, Pena Blanca",729 NM-22,Pena Blanca,87041.0,LOONIE ZOONIE LABORATORIES LLC RETAIL SAN MATEO BLVD NE,,
"2 Valencia Rd, Peralta 87042.0","2 Valencia Rd, Peralta",2 Valencia Rd,Peralta,87042.0,GRANDMAS POT SHOP LLC - PERALTA,,
"3524 Hwy 47, Peralta 87042.0","3524 Hwy 47, Peralta",3524 Hwy 47,Peralta,87042.0,ROAD RUNNER ORGANICS/ RETAIL HWY 47,,
"206 Huw Tii Rd, Picuris Pueblo 87553.0","206 Huw Tii Rd, Picuris Pueblo",206 Huw Tii Rd,Picuris Pueblo,87553.0,PICURIS PUEBLO - HUW TII RD RETAIL,,
"221 NM165 Suite J, Placitas 87043.0","221 NM165 Suite J, Placitas",221 NM165 Suite J,Placitas,87043.0,IGWT LLC - NM165 RETAIL,,
"30 Frontage Road, Placitas 87043.0","30 Frontage Road, Placitas",30 Frontage Road,Placitas,87043.0,LEAF AND FLOWER LLC - Placitas,,
"1012 W. 2nd st, Portales 88130.0","1012 W. 2nd st, Portales",1012 W. 2nd st,Portales,88130.0,NEW MEXICO TOP ORGANICS ULTRA HEALTH INC  2ND ST RETAIL,,
"106 N Main Ave, Portales 88130.0","106 N Main Ave, Portales",106 N Main Ave,Portales,88130.0,HIGH SUPPLY CANNABIS LLC - MAIN AVE RETAIL,,
"1301 S Avenue D, Portales 88130.0","1301 S Avenue D, Portales",1301 S Avenue D,Portales,88130.0,ENCHANTED DESERT FARMS LLC,,
"215 E 2nd Street, Portales 88130.0","215 E 2nd Street, Portales",215 E 2nd Street,Portales,88130.0,PECOS VALLEY PRODUCTION INC - 2ND ST RETAIL,,
"226 W 2nd St., Portales 88301.0","226 W 2nd St., Portales",226 W 2nd St.,Portales,88301.0,DISPENSARY NEAR ME - 2ND ST RETAIL,,
"312 S Main Ave, Portales 88130.0","312 S Main Ave, Portales",312 S Main Ave,Portales,88130.0,HORIZON GROWERS OF NEW MEXICO LLC - RETAIL MAIN AVE,,
"800 East Elbe Street, Portales 88130.0","800 East Elbe Street, Portales",800 East Elbe Street,Portales,88130.0,BEST LIFE PRODUCTIONS - ROOSEVELT RETAIL,,
"815 E Brazos, Portales 88130.0","815 E Brazos, Portales",815 E Brazos,Portales,88130.0,NM GREEN DOOR LLC/ RETAIL E BRAZOS,,
"2339 Highway 522, Questa 87556.0","2339 Highway 522, Questa",2339 Highway 522,Questa,87556.0,TAOS ORGANICS LLC - HWY 522 RETAIL,,
"1144 S Second St, Raton 87740.0","1144 S Second St, Raton",1144 S Second St,Raton,87740.0,STEPHEN LIN HAYDEN,,
"215 Clayton Rd, Raton 87740.0","215 Clayton Rd, Raton",215 Clayton Rd,Raton,87740.0,WILLOW SPRINGS CANNABIS LLC - CLAYTON ROAD RETAILER,,
"320 W River Street, Red River 87558.0","320 W River Street, Red River",320 W River Street,Red River,87558.0,VT INDUSTRIES LLC/ RETAIL W RIVER STREET,,
"2350 State Highway 47, Rio Communities 87002.0","2350 State Highway 47, Rio Communities",2350 State Highway 47,Rio Communities,87002.0,SCORPIO FARMS LLC - CENTRAL RETAIL,,
"1000 Golf Course Rd SE, Rio Rancho 87124.0","1000 Golf Course Rd SE, Rio Rancho",1000 Golf Course Rd SE,Rio Rancho,87124.0,PURLIFE DISPENSARY - Rio Rancho,,
"1100 State Highway 528 Ne Suite A, Rio Rancho 87144.0","1100 State Highway 528 Ne Suite A, Rio Rancho",1100 State Highway 528 Ne Suite A,Rio Rancho,87144.0,NM ALTITUDE RETAIL,,
"1660 NM  528 SE Ste 105, Rio Rancho 87124.0","1660 NM  528 SE Ste 105, Rio Rancho",1660 NM  528 SE Ste 105,Rio Rancho,87124.0,URBAN WELLNESS - RIO RANCHO DISPENSARY,,
"1670 Rio Rancho Drive. SE, Rio Rancho 87124.0","1670 Rio Rancho Drive. SE, Rio Rancho",1670 Rio Rancho Drive. SE,Rio Rancho,87124.0,SEVEN CLOVER RIO RANCHO DISPENSARY,,
"2320 Grande Blvd. SE, Rio Rancho 87124.0","2320 Grande Blvd. SE, Rio Rancho",2320 Grande Blvd. SE,Rio Rancho,87124.0,THE VERDES FOUNDATION  GRANDE BLVD RETAIL,,
"3851 Southern Blvd., SE, Rio Rancho 87124.0","3851 Southern Blvd., SE, Rio Rancho","3851 Southern Blvd., SE",Rio Rancho,87124.0,NEW MEXICO TOP ORGANICS ULTRA HEALTH INC  SOUTHERN BLVD RETAIL,,
"199 State Highway 80, Suite B, Rodeo 88056.0","199 State Highway 80, Suite B, Rodeo","199 State Highway 80, Suite B",Rodeo,88056.0,THE BLAZING YUCCA LLC.- STATE HWY 80 RETAIL,,
"117 West Walnut, Roswell 88203.0","117 West Walnut, Roswell",117 West Walnut,Roswell,88203.0,COMPASSIONATE DISTRIBUTORS INC - WALNUT RETAIL,,
"1407 West 2nd St, Roswell 88201.0","1407 West 2nd St, Roswell",1407 West 2nd St,Roswell,88201.0,OCC ABQ LLC - Roswell,,
"1725 SE Main St. Suite B, Roswell 88203.0","1725 SE Main St. Suite B, Roswell",1725 SE Main St. Suite B,Roswell,88203.0,285 SOUTH DISPENSARY LLC - MAIN ST. RETAIL,,
"2303 N Main St, Roswell 88201.0","2303 N Main St, Roswell",2303 N Main St,Roswell,88201.0,FCI OF NEW MEXICO - ROSWELL RETAIL,,
"2800 N. Main Street, Suite 4, Roswell 88201.0","2800 N. Main Street, Suite 4, Roswell","2800 N. Main Street, Suite 4",Roswell,88201.0,NEW MEXICO TOP ORGANICS ULTRA HEALTH INC  ROSWELL DISPENSARY,,
"3108 North Main, Roswell 88201.0","3108 North Main, Roswell",3108 North Main,Roswell,88201.0,BRYANS GREEN CARE RETAIL - Roswell,,
"313 W Country Club, Roswell 88201.0","313 W Country Club, Roswell",313 W Country Club,Roswell,88201.0,PECOS VALLEY PRODUCTION INC - COUNTRY CLUB RETAIL,,
"325 S MAIN ST, Roswell 88203.0","325 S MAIN ST, Roswell",325 S MAIN ST,Roswell,88203.0,PURLIFE RETAIL - Roswell,,
"3606 N Main St, Unit 500, Roswell 88201.0","3606 N Main St, Unit 500, Roswell","3606 N Main St, Unit 500",Roswell,88201.0,GNOMAD LLC - 3606 N MAIN RETAIL,,
"4311 N. Main Street, Roswell 88201.0","4311 N. Main Street, Roswell",4311 N. Main Street,Roswell,88201.0,R. GREENLEAF ORGANICS DISPENSARY ROSWELL,,
"711 N Union Ave, Roswell 88201.0","711 N Union Ave, Roswell",711 N Union Ave,Roswell,88201.0,PRESS LABS INCORPORATED - UNION AVE RETAIL,,
"737 N Main St, Roswell 88201.0","737 N Main St, Roswell",737 N Main St,Roswell,88201.0,PECOS VALLEY PRODUCTION INC - MAIN ST RETAIL,,
"1000 Sudderth Drive, Ruidoso 88345.0","1000 Sudderth Drive, Ruidoso",1000 Sudderth Drive,Ruidoso,88345.0,PECOS VALLEY PRODUCTION INC - RUIDOSO RETAIL,,
"101 Mechem Dr, Ruidoso 88345.0","101 Mechem Dr, Ruidoso",101 Mechem Dr,Ruidoso,88345.0,ELEVATION 6420 LLC - MECHEM DR - RETAIL,,
"1100 Sudderth Dr., Ruidoso 88345.0","1100 Sudderth Dr., Ruidoso",1100 Sudderth Dr.,Ruidoso,88345.0,COMPASSIONATE DISTRIBUTORS INC - SUDDERTH RETAIL,,
"1608 Sudderth Dr, Ruidoso 88345.0","1608 Sudderth Dr, Ruidoso",1608 Sudderth Dr,Ruidoso,88345.0,ST CANAPA LLC - SUDDERTH DR RETAIL,,
"1715 Sudderth Dr, Ruidoso 88345.0","1715 Sudderth Dr, Ruidoso",1715 Sudderth Dr,Ruidoso,88345.0,MUNCHIEZ CANNABIS LLC - SUDDERTH DR RETAIL,,
"1803 Sudderth, Ruidoso 88345.0","1803 Sudderth, Ruidoso",1803 Sudderth,Ruidoso,88345.0,DISPENSARY NEAR ME RUFINA LLC- SUDDERTH RETAIL,,
"200 Sudderth Rd Unit A  B, Ruidoso 88345.0","200 Sudderth Rd Unit A  B, Ruidoso",200 Sudderth Rd Unit A  B,Ruidoso,88345.0,CHILLAX GLASS - SUDDERTH RD RETAIL,,
"2117 Sudderth Dr., Ruidoso 88345.0","2117 Sudderth Dr., Ruidoso",2117 Sudderth Dr.,Ruidoso,88345.0,GNOMAD LLC - SUDDERTH DR RETAIL/CONSUMPTION,,
"2330 Sudderth Dr, Ruidoso 88345.0","2330 Sudderth Dr, Ruidoso",2330 Sudderth Dr,Ruidoso,88345.0,GREEN MINDED HOLDINGS LLC - Ruidoso,,
"356 A Sudderth Drive, Ruidoso 88345.0","356 A Sudderth Drive, Ruidoso",356 A Sudderth Drive,Ruidoso,88345.0,ZS BUD BOARD LLC - MECHEM RETAIL,,
"360 Sudderth, Ruidoso 88345.0","360 Sudderth, Ruidoso",360 Sudderth,Ruidoso,88345.0,R. GREENLEAF ORGANICS INC - SUDDERTH RETAIL,,
"412 Gavilan Canyon Rd Lot 8, Ruidoso 88345.0","412 Gavilan Canyon Rd Lot 8, Ruidoso",412 Gavilan Canyon Rd Lot 8,Ruidoso,88345.0,VIRTUOUS CANNABIS LLC/ RETAIL GAVILAN CANYON RD,,
"412 Mechem Dr, Ruidoso 88035.0","412 Mechem Dr, Ruidoso",412 Mechem Dr,Ruidoso,88035.0,MONSTER HOUSE SMOKE LLC-RETAIL / CONSUMPTION,,
"26897 US-70, Ruidoso Downs 88345.0","26897 US-70, Ruidoso Downs",26897 US-70,Ruidoso Downs,88345.0,DUKE FAMILY LLC - SUDDERTH DR. CONSUMPTION AND RETAIL,,
"2674 Hwy 35, San Lorenzo 88041.0","2674 Hwy 35, San Lorenzo",2674 Hwy 35,San Lorenzo,88041.0,HERBAL WELLNESS SOLUTIONS LLC/ RETAIL HWY 35,,
"23347 Hwy 550, San Ysidro 87053.0","23347 Hwy 550, San Ysidro",23347 Hwy 550,San Ysidro,87053.0,DR VS MOUNTAIN MEDS LLC - HWY 550 RETAIL,,
"100 Alameda Street, Santa Fe 87501.0","100 Alameda Street, Santa Fe",100 Alameda Street,Santa Fe,87501.0,TRIBAL HEALING ENTERPRISES CORPORATION/ RETAIL ALAMEDA STREET,,
"1089 S. St. Francis Drive, Santa Fe 87505.0","1089 S. St. Francis Drive, Santa Fe",1089 S. St. Francis Drive,Santa Fe,87505.0,PROHIBITION 37 - ST. FRANCIS DR RETAIL,,
"1161 Siler rd, Santa Fe 87507.0","1161 Siler rd, Santa Fe",1161 Siler rd,Santa Fe,87507.0,HIGH FLYER DISPENSARY LLC-SILER RD RETAIL,,
"121 Sandoval St, Santa Fe 87501.0","121 Sandoval St, Santa Fe",121 Sandoval St,Santa Fe,87501.0,"RMC NM, INC - SANTA FE",,
"1228 Parkway Drive Unit D, Santa Fe 87507.0","1228 Parkway Drive Unit D, Santa Fe",1228 Parkway Drive Unit D,Santa Fe,87507.0,GREEN LIGHT MULTIFACTOR LLC,,
"128 W Palace Ave, Santa Fe 87501.0","128 W Palace Ave, Santa Fe",128 W Palace Ave,Santa Fe,87501.0,BEST DAZE INC - Santa Fe,,
"1320 Luana St, Santa Fe 87505.0","1320 Luana St, Santa Fe",1320 Luana St,Santa Fe,87505.0,DEEP SKY CANNABIS LLC - LUANA ST RETAIL,,
"142 Daniel Dt, Santa Fe 87501.0","142 Daniel Dt, Santa Fe",142 Daniel Dt,Santa Fe,87501.0,MAMA AND THE GIRLS -,,
"1592 San Mateo Lane, Santa Fe 87505.0","1592 San Mateo Lane, Santa Fe",1592 San Mateo Lane,Santa Fe,87505.0,KEYWAY- RETAIL,,
"1710 Cerrillos Rd, Santa Fe 87505.0","1710 Cerrillos Rd, Santa Fe",1710 Cerrillos Rd,Santa Fe,87505.0,BIG RANCH CULTIVATION LLC - CERRILLOS ROAD RETAILER,,
"1829 Cerrillos Road, Santa Fe 87505.0","1829 Cerrillos Road, Santa Fe",1829 Cerrillos Road,Santa Fe,87505.0,ELKHORN RETAIL LLC/ RETAIL CERRILLOS ROAD,,
"1900 Cerrillos Rd, Santa Fe 87505.0","1900 Cerrillos Rd, Santa Fe",1900 Cerrillos Rd,Santa Fe,87505.0,GMCC INC - CERRILLOS RETAIL,,
"1907 St. Michaels Drive, Santa Fe 87505.0","1907 St. Michaels Drive, Santa Fe",1907 St. Michaels Drive,Santa Fe,87505.0,NEW MEXICO TOP ORGANICS ULTRA HEALTH INC - ST MICHAELS DR RETAIL,,
"220 N. Guadalupe Street, Santa Fe 87507.0","220 N. Guadalupe Street, Santa Fe",220 N. Guadalupe Street,Santa Fe,87507.0,"KURE, INC. - DISPENSARY",,
"220 Shelby St, Santa Fe 87501.0","220 Shelby St, Santa Fe",220 Shelby St,Santa Fe,87501.0,THE VERDES FOUNDATION  SHELBY ST RETAIL,,
"24 Bisbee Ct., Santa Fe 87508.0","24 Bisbee Ct., Santa Fe",24 Bisbee Ct.,Santa Fe,87508.0,KEYWAY - DISPENSARY -OPEN,,
"2641 B Cerrillos Rd, Santa Fe 87505.0","2641 B Cerrillos Rd, Santa Fe",2641 B Cerrillos Rd,Santa Fe,87505.0,BUDSTONES SMOKE SHOP - CERRILLOS RD RETAIL,,
"2778 Agua Fria St Suite 5, Santa Fe 87507.0","2778 Agua Fria St Suite 5, Santa Fe",2778 Agua Fria St Suite 5,Santa Fe,87507.0,HIGH CLASS/ RETAIL AGUA FRIA ST SUITE 10,,
"2859 Cerrillos Rd Unit 4, Santa Fe 87507.0","2859 Cerrillos Rd Unit 4, Santa Fe",2859 Cerrillos Rd Unit 4,Santa Fe,87507.0,BLACK POWDER DISPENSARY INCORPORATED,,
"2903 Agua Fria St, Santa Fe 87507.0","2903 Agua Fria St, Santa Fe",2903 Agua Fria St,Santa Fe,87507.0,ENDO LLC - RETAIL,,
"300 Galisteo Street STE 201, Santa Fe 87501.0","300 Galisteo Street STE 201, Santa Fe",300 Galisteo Street STE 201,Santa Fe,87501.0,DEEP SKY CANNABIS LLC - GALISTEO STREET STE 201 RETAILER,,
"3140 Cerrillos Rd Ste L, Santa Fe 87507.0","3140 Cerrillos Rd Ste L, Santa Fe",3140 Cerrillos Rd Ste L,Santa Fe,87507.0,PURLIFE/ RETAIL CERRILLOS RD STE L,,
"3256 Cerrillos Rd, Santa Fe 87507.0","3256 Cerrillos Rd, Santa Fe",3256 Cerrillos Rd,Santa Fe,87507.0,FCI OF NEW MEXICO - CERRILLOS RD RETAIL - Santa Fe,,
"3258 Cerrillos Rd, Santa Fe 87507.0","3258 Cerrillos Rd, Santa Fe",3258 Cerrillos Rd,Santa Fe,87507.0,FCI OF NEW MEXICO - CERRILLOS RD RETAIL - Santa Fe,,
"3354 Cerrillos Rd, Santa Fe 87507.0","3354 Cerrillos Rd, Santa Fe",3354 Cerrillos Rd,Santa Fe,87507.0,"KURE, INC. DISPENSARY SANTA FE THIRD LOCATION",,
"3501 Cerrillos Rd, Santa Fe 87507.0","3501 Cerrillos Rd, Santa Fe",3501 Cerrillos Rd,Santa Fe,87507.0,OHM ORGANICS LLC - CERRILLOS RD. RETAIL,,
"3530 Zafarano Dr Ste C5, Santa Fe 87507.0","3530 Zafarano Dr Ste C5, Santa Fe",3530 Zafarano Dr Ste C5,Santa Fe,87507.0,"THE VERDES FOUNDATION - ZAFARANO, SF",,
"3963 Cerrillos Rd Ste B, Santa Fe 87507.0","3963 Cerrillos Rd Ste B, Santa Fe",3963 Cerrillos Rd Ste B,Santa Fe,87507.0,EVEREST APOTHECARY - Santa Fe,,
"403 W. Cordova Rd, Santa Fe 87505.0","403 W. Cordova Rd, Santa Fe",403 W. Cordova Rd,Santa Fe,87505.0,R. GREENLEAF ORGANICS DISPENSARY SANTA FE,,
"4641 Airport Rd, Santa Fe 87507.0","4641 Airport Rd, Santa Fe",4641 Airport Rd,Santa Fe,87507.0,BEST DAZE INC - RETAIL SANTA FE - Santa Fe,,
"5041 Main Street, Santa Fe 87507.0","5041 Main Street, Santa Fe",5041 Main Street,Santa Fe,87507.0,HIGH DESERT RELIEF DISPENSARY - Santa Fe,,
"507 Old Santa Fe Trail, Santa Fe 87505.0","507 Old Santa Fe Trail, Santa Fe",507 Old Santa Fe Trail,Santa Fe,87505.0,ELKHORN RETAIL LLC/ RETAIL OLD SANTA FE TRAIL,,
"604 N Guadalupe, Santa Fe 87501.0","604 N Guadalupe, Santa Fe",604 N Guadalupe,Santa Fe,87501.0,ELKHORN RETAIL LLC/ RETAIL N GUADALUPE,,
"607 Cerrillos Rd Suite A, Santa Fe 87505.0","607 Cerrillos Rd Suite A, Santa Fe",607 Cerrillos Rd Suite A,Santa Fe,87505.0,SFCC LLC - CERRILLOS RETAIL,,
"628 Old Las Vegas Hwy, Santa Fe 87508.0","628 Old Las Vegas Hwy, Santa Fe",628 Old Las Vegas Hwy,Santa Fe,87508.0,KURE LLC - OLD LV HWY RETAILER,,
"68 Cities of Gold Rd, Santa Fe 87506.0","68 Cities of Gold Rd, Santa Fe",68 Cities of Gold Rd,Santa Fe,87506.0,PUEBLO OF POJOAQUE WO POVI CANNABIS,,
"7 Avenida Vista Grande, Santa Fe 87508.0","7 Avenida Vista Grande, Santa Fe",7 Avenida Vista Grande,Santa Fe,87508.0,BEST DAZE INC - RETAIL SANTA FE - Santa Fe,,
"7 Caliente Rd, Santa Fe 87507.0","7 Caliente Rd, Santa Fe",7 Caliente Rd,Santa Fe,87507.0,BLAZED CANNABIS LLC - CALIENTE RD RETAIL,,
"7502 Mallard Way B, Santa Fe 87507.0","7502 Mallard Way B, Santa Fe",7502 Mallard Way B,Santa Fe,87507.0,GREEN FUEGO/ RETAIL MALLARD WAY B,,
"802 Early St, Santa Fe 87505.0","802 Early St, Santa Fe",802 Early St,Santa Fe,87505.0,LEAF AND FLOWER LLC - Santa Fe,,
"820 Mercer St, Santa Fe 87505.0","820 Mercer St, Santa Fe",820 Mercer St,Santa Fe,87505.0,BEST DAZE INC RETAIL,,
"839 Paseo De Peralta, Santa Fe 87501.0","839 Paseo De Peralta, Santa Fe",839 Paseo De Peralta,Santa Fe,87501.0,AMIGOS CANNABIS - PASEO DE PERALTA MANUFACTURER,,
"901 Early Street, Santa Fe 87505.0","901 Early Street, Santa Fe",901 Early Street,Santa Fe,87505.0,FRUIT OF THE EARTH ORGANICS-DISPENSARY,,
"1973 Historic Route 66, Santa Rosa 88435.0","1973 Historic Route 66, Santa Rosa",1973 Historic Route 66,Santa Rosa,88435.0,NEW MEXICO TOP ORGANICS ULTRA HEALTH INC - Santa Rosa,,
"2483 U.S. Rt 66, Santa Rosa 88435.0","2483 U.S. Rt 66, Santa Rosa",2483 U.S. Rt 66,Santa Rosa,88435.0,"JACC LIFE, LLC",,
"5300 Mcnutt Rd, Santa Teresa 88008.0","5300 Mcnutt Rd, Santa Teresa",5300 Mcnutt Rd,Santa Teresa,88008.0,GARDEN OF DREAMS CANNABIS LLC,,
"5305 McNutt Rd, Santa Teresa 88008.0","5305 McNutt Rd, Santa Teresa",5305 McNutt Rd,Santa Teresa,88008.0,ST CANAPA LLC - MCNUTT RD RETAIL,,
"5325 McNutt Rd, Santa Teresa 88008.0","5325 McNutt Rd, Santa Teresa",5325 McNutt Rd,Santa Teresa,88008.0,FRESHIES LLC/ RETAIL MCNUTT RD,,
"5620 McNutt Rd, Santa Teresa 88008.0","5620 McNutt Rd, Santa Teresa",5620 McNutt Rd,Santa Teresa,88008.0,HI LIFE DISPENSARY LLC - MCNUTT RD - RETAIL,,
"1628 Silver Heights Blvd, Silver City 88061.0","1628 Silver Heights Blvd, Silver City",1628 Silver Heights Blvd,Silver City,88061.0,"RMC NM, INC - SILVER CITY RETAIL - Silver City",,
"2005 Hwy 180 Suite 300, Silver City 88061.0","2005 Hwy 180 Suite 300, Silver City",2005 Hwy 180 Suite 300,Silver City,88061.0,HAPPY HERB LLC - RETAIL SILVER CITY,,
"2320 Highway 180 East, Silver City 88061.0","2320 Highway 180 East, Silver City",2320 Highway 180 East,Silver City,88061.0,NEW MEXICO TOP ORGANICS ULTRA HEALTH INC  SILVER CITY RETAIL,,
"305 S. Bullard St., Silver City 88061.0","305 S. Bullard St., Silver City",305 S. Bullard St.,Silver City,88061.0,PHAT BOY PHARMS LLC,,
"412 Silver Heights Blvd, Silver City 88061.0","412 Silver Heights Blvd, Silver City",412 Silver Heights Blvd,Silver City,88061.0,HAPPY HERB LLC,,
"857 Silver Heights Blvd, Silver City 88061.0","857 Silver Heights Blvd, Silver City",857 Silver Heights Blvd,Silver City,88061.0,FLY HIGH CANNABIS LLC - SILVER HEIGHTS RETAIL,,
"909 N Hudson Street, Silver City 88061.0","909 N Hudson Street, Silver City",909 N Hudson Street,Silver City,88061.0,BIG RANCH CULTIVATION LLC - HUDSON STREET RETAIL,,
"910 N Pope St, Silver City 88061.0","910 N Pope St, Silver City",910 N Pope St,Silver City,88061.0,BUFFALO BUD FARMING CO LLC - RETAIL,,
"103 Manzanares Ave, Socorro 87801.0","103 Manzanares Ave, Socorro",103 Manzanares Ave,Socorro,87801.0,PROHIBITION 37 - MANZANARES AVE RETAIL,,
"124 B Manzanares Ave, Socorro 87801.0","124 B Manzanares Ave, Socorro",124 B Manzanares Ave,Socorro,87801.0,DISPENSARY NEAR ME SOCORRO LLC,,
"402 S California St, Socorro 87801.0","402 S California St, Socorro",402 S California St,Socorro,87801.0,SMOKAL SMOKE LOCAL - CALIFORNIA ST RETAIL,,
"496 NM Hwy 1, Socorro 87801.0","496 NM Hwy 1, Socorro",496 NM Hwy 1,Socorro,87801.0,STEVOS SANTA FE TRUCK STOP-NM HWY 1 RETAIL,,
"508 Highway 85, Socorro 87801.0","508 Highway 85, Socorro",508 Highway 85,Socorro,87801.0,"FROST STATION CANNABIS, LLC - HIGHWAY 85 RETAILER",,
"508 Old US Highway 85, Socorro 87801.0","508 Old US Highway 85, Socorro",508 Old US Highway 85,Socorro,87801.0,GH LLC- OLD US RETAIL,,
"100 Maguey Ct, Sunland Park 88063.0","100 Maguey Ct, Sunland Park",100 Maguey Ct,Sunland Park,88063.0,FLORA VERDE LLC - MAGUEY CT RETAIL,,
"100 Palomas Pl Ste B-2, Sunland Park 88063.0","100 Palomas Pl Ste B-2, Sunland Park",100 Palomas Pl Ste B-2,Sunland Park,88063.0,CARDIEL BOTANICA LTD CO - PALOMAS PL RETAIL,,
"101 Maguey Suite 4, Sunland Park 88063.0","101 Maguey Suite 4, Sunland Park",101 Maguey Suite 4,Sunland Park,88063.0,NUVES LLC - RANCH ROAD RETAIL,,
"1051 McNutt Rd, Sunland Park 88063.0","1051 McNutt Rd, Sunland Park",1051 McNutt Rd,Sunland Park,88063.0,SUNLAND MCNUTT GROUP LLC- MCNUTT RD RETAIL,,
"1144 McNutt, Sunland Park 88063.0","1144 McNutt, Sunland Park",1144 McNutt,Sunland Park,88063.0,J AND J LOAN COMPANY- MCNUTT RETAIL,,
"1155 McNutt Road, Sunland Park 88063.0","1155 McNutt Road, Sunland Park",1155 McNutt Road,Sunland Park,88063.0,NEW MEXICO TOP ORGANICS ULTRA HEALTH INC  SUNLAND PARK RETAIL,,
"1165 McNutt Dr Unit C5, Sunland Park 88063.0","1165 McNutt Dr Unit C5, Sunland Park",1165 McNutt Dr Unit C5,Sunland Park,88063.0,"ROUND HOUSE RESERVE, LLC - MCNUTT DR RETAIL",,
"1290 McNutt Rd, Sunland Park 88063.0","1290 McNutt Rd, Sunland Park",1290 McNutt Rd,Sunland Park,88063.0,DISPENSARY NEAR ME SUNLAND PARK LLC- MCNUTT RETAIL,,
"1290 McNutt Rd. Ste. D, Sunland Park 88063.0","1290 McNutt Rd. Ste. D, Sunland Park",1290 McNutt Rd. Ste. D,Sunland Park,88063.0,HHNM SUNLAND PARK 1 COMPANY- MCNUTT RD. STE. D RETAIL,,
"1500 Appaloosa Dr Bldg A Ste 140, Sunland Park 88063.0","1500 Appaloosa Dr Bldg A Ste 140, Sunland Park",1500 Appaloosa Dr Bldg A Ste 140,Sunland Park,88063.0,ANIMACANN INC - APPALOOSA DR RETAIL,,
"1500 Appaloosa St Suite B, Sunland Park 88063.0","1500 Appaloosa St Suite B, Sunland Park",1500 Appaloosa St Suite B,Sunland Park,88063.0,BLUE WHALE SUNLAND - APPALOOSA ST RETAIL,,
"1541 Appaloosa Unit 7, Sunland Park 88063.0","1541 Appaloosa Unit 7, Sunland Park",1541 Appaloosa Unit 7,Sunland Park,88063.0,OLD GODS CANNABIS INC/ RETAIL APPALOOSA UNIT7,,
"1541 Appaloosas Unit 1, 2, Crossing Offices, Sunland Park 88063.0","1541 Appaloosas Unit 1, 2, Crossing Offices, Sunland Park","1541 Appaloosas Unit 1, 2, Crossing Offices",Sunland Park,88063.0,"R GREENLEAF ORGANICS INC/ RETAIL APPALOOSA UNIT 1,2",,
"1580 Appaloosa Dr Ste 320, Sunland Park 88063.0","1580 Appaloosa Dr Ste 320, Sunland Park",1580 Appaloosa Dr Ste 320,Sunland Park,88063.0,EVEREST APOTHECARY - Sunland Park,,
"159 Sunland Park Dr, Sunland Park 88063.0","159 Sunland Park Dr, Sunland Park",159 Sunland Park Dr,Sunland Park,88063.0,FIELDS OF DREAMS - SUNLAND PARK RETAIL,,
"1615 Appaloosa Dr, Sunland Park 88063.0","1615 Appaloosa Dr, Sunland Park",1615 Appaloosa Dr,Sunland Park,88063.0,"CHADCOR HOLDINGS NM, LLC",,
"1621 Appaloosa Dr, Sunland Park 88063.0","1621 Appaloosa Dr, Sunland Park",1621 Appaloosa Dr,Sunland Park,88063.0,CHADCOR HOLDINGS NM- RETAIL - Sunland Park,,
"1685 McNutt, Sunland Park 88063.0","1685 McNutt, Sunland Park",1685 McNutt,Sunland Park,88063.0,CARDIEL BOTANICA LTD CO - MCNUTT RD RETAIL,,
"1769 Victory Ln, Sunland Park 88063.0","1769 Victory Ln, Sunland Park",1769 Victory Ln,Sunland Park,88063.0,APOGEE THERAPEUTICS LLC - RETAIL/CONSUMPTION,,
"1805 Futurity Dr, Sunland Park 88603.0","1805 Futurity Dr, Sunland Park",1805 Futurity Dr,Sunland Park,88603.0,BESOS LLC/ RETAIL FUTURITY DR,,
"1845 McNutt Rd, Sunland Park 88063.0","1845 McNutt Rd, Sunland Park",1845 McNutt Rd,Sunland Park,88063.0,NEWBERRY FARMS LLC - MCNUTT RD. RETAIL,,
"1925 Appaloosa Dr, Sunland Park 88063.0","1925 Appaloosa Dr, Sunland Park",1925 Appaloosa Dr,Sunland Park,88063.0,PECOS VALLEY PRODUCTION INC - APPALOOSA DR RETAIL,,
"1925 Appoloosa Dr, Sunland Park 88063.0","1925 Appoloosa Dr, Sunland Park",1925 Appoloosa Dr,Sunland Park,88063.0,TEN 10 PROJECT LLC- APPOLOOSA DR RETAIL,,
"1999 Futurity Drive Unit A, Sunland Park 88063.0","1999 Futurity Drive Unit A, Sunland Park",1999 Futurity Drive Unit A,Sunland Park,88063.0,"NEBRO, LLC",,
"2167 McNutt Rd suite A, Sunland Park 88063.0","2167 McNutt Rd suite A, Sunland Park",2167 McNutt Rd suite A,Sunland Park,88063.0,OBI WAN CANNABIS LLC,,
"2327 McNutt Ste D, Sunland Park 88063.0","2327 McNutt Ste D, Sunland Park",2327 McNutt Ste D,Sunland Park,88063.0,YERBAVIVA LLC/ RETAIL MCNUTT STE D,,
"2355 McNutt Road, Sunland Park 88063.0","2355 McNutt Road, Sunland Park",2355 McNutt Road,Sunland Park,88063.0,SCORE 420 - MCNUTT RETAIL,,
"245 Derby Rd, Sunland Park 88063.0","245 Derby Rd, Sunland Park",245 Derby Rd,Sunland Park,88063.0,"GREEN LABS CANNABIS COMPANY, LLC- DERBY RD RETAIL",,
"267 Anapra Rd, Sunland Park 88063.0","267 Anapra Rd, Sunland Park",267 Anapra Rd,Sunland Park,88063.0,SUNSHINE ESSENTIALS/ RETAIL MCNUTT,,
"871 McNutt Rd, Sunland Park 88063.0","871 McNutt Rd, Sunland Park",871 McNutt Rd,Sunland Park,88063.0,PROHIBITION 37 - MCNUTT RD RETAIL,,
"101 Camino De La Placita, Taos 87571.0","101 Camino De La Placita, Taos",101 Camino De La Placita,Taos,87571.0,"RMC NM, INC - TAOS",,
"1033 Paseo Del Sur Suite A, Taos 87571.0","1033 Paseo Del Sur Suite A, Taos",1033 Paseo Del Sur Suite A,Taos,87571.0,ELKHORN RETAIL LLC/ RETAIL PASEO DEL SUR SUITE A,,
"1034 Paseo de Pueblo Sur, Taos 87571.0","1034 Paseo de Pueblo Sur, Taos",1034 Paseo de Pueblo Sur,Taos,87571.0,GREEN WORLD TAOS INC,,
"1103 Paseo Del Pueblo Sur, Taos 87571.0","1103 Paseo Del Pueblo Sur, Taos",1103 Paseo Del Pueblo Sur,Taos,87571.0,TAOS 420 CANNABIS  COFFEE LLC - TAOS RETAIL,,
"1128 Paseo del Pueblo Sur, Taos 87571.0","1128 Paseo del Pueblo Sur, Taos",1128 Paseo del Pueblo Sur,Taos,87571.0,FCI OF NEW MEXICO - TAOS RETAIL,,
"212 Bendix St Unit E, Taos 87571.0","212 Bendix St Unit E, Taos",212 Bendix St Unit E,Taos,87571.0,ELEVATION 6969 LLC/ RETAIL BENDIX ST UNIT E,,
"216A Paseo Del Pueblo Sur, Taos 87571.0","216A Paseo Del Pueblo Sur, Taos",216A Paseo Del Pueblo Sur,Taos,87571.0,SANGRE DE CRISTO RETAIL LLC - Taos,,
"536 Paseo del Pueblo Norte, Taos 87571.0","536 Paseo del Pueblo Norte, Taos",536 Paseo del Pueblo Norte,Taos,87571.0,BIGHORN VENTURES- RETAIL,,
"726 Paseo Del Pueblo Sur Suite A, Taos 87571.0","726 Paseo Del Pueblo Sur Suite A, Taos",726 Paseo Del Pueblo Sur Suite A,Taos,87571.0,GS GANJA/ RETAIL STRAIGHT ARROW ROAD,,
"910 Paseo Del Pueblo Norte, Taos 87571.0","910 Paseo Del Pueblo Norte, Taos",910 Paseo Del Pueblo Norte,Taos,87571.0,SIERRA MADRE MED REC LLC - PASEO DEL PUEBLO RETAIL,,
"110 Emma Road, Taos Ski Valley 87525.0","110 Emma Road, Taos Ski Valley",110 Emma Road,Taos Ski Valley,87525.0,SANGRE DE CRISTO RETAIL LLC - Taos Ski Valley,,
"124 E Broadway St, Tatum 88267.0","124 E Broadway St, Tatum",124 E Broadway St,Tatum,88267.0,TATUM HOUSE OF CANNA LLC,,
"223 West Broadway Ste A, Tatum 88267.0","223 West Broadway Ste A, Tatum",223 West Broadway Ste A,Tatum,88267.0,GNOMAD LLC-BROADWAY RETAIL,,
"512 E Broadway, Tatum 88267.0","512 E Broadway, Tatum",512 E Broadway,Tatum,88267.0,BUDDING GENIUS LLC/ RETAIL BROADWAY,,
"202 State St, Texico 88135.0","202 State St, Texico",202 State St,Texico,88135.0,EVEREST APOTHECARY - Texico,,
"205 Wheeler Ave, Texico 88135.0","205 Wheeler Ave, Texico",205 Wheeler Ave,Texico,88135.0,VANA SOCIETY LLC - Texico,,
"500 Wheeler Ave, Texico 88135.0","500 Wheeler Ave, Texico",500 Wheeler Ave,Texico,88135.0,KUSTOM CANNABIS LLC - WHEELER AVE RETAIL,,
"800 Wheeler Avenue, Texico 88135.0","800 Wheeler Avenue, Texico",800 Wheeler Avenue,Texico,88135.0,TNM HOLDINGS LLC/ RETAIL WHEELER AVENUE,,
"372 Pounds Rd, Timberon 88350.0","372 Pounds Rd, Timberon",372 Pounds Rd,Timberon,88350.0,BSD SPECIALTY FARMS LLC - POUNDS RD RETAIL,,
"203 S. Foch Street, Truth or Consequences 87901.0","203 S. Foch Street, Truth or Consequences",203 S. Foch Street,Truth or Consequences,87901.0,PURLIFE - FOCH STREET RETAIL,,
"280 Date St, Truth or Consequences 87901.0","280 Date St, Truth or Consequences",280 Date St,Truth or Consequences,87901.0,"RMC NM, INC - T OR C RETAIL",,
"412 Date St., Truth or Consequences 87901.0","412 Date St., Truth or Consequences",412 Date St.,Truth or Consequences,87901.0,HOT SPRINGS CANNABIS - DATE ST RETAIL,,
"610 N. Broadway, Truth or Consequences 87901.0","610 N. Broadway, Truth or Consequences",610 N. Broadway,Truth or Consequences,87901.0,NEW MEXICO TOP ORGANICS ULTRA HEALTH INC  BROADWAY RETAIL,,
"107 W Main St, Tucumcari 88401.0","107 W Main St, Tucumcari",107 W Main St,Tucumcari,88401.0,BETTER BUDS LLC/ RETAIL W MAIN ST,,
"123 Tucumcari Blvd, Tucumcari 88401.0","123 Tucumcari Blvd, Tucumcari",123 Tucumcari Blvd,Tucumcari,88401.0,YERBA BUENA/ RETAIL TUCUMCARI BLVD,,
"1501 East Rte 66, Tucumcari 88401.0","1501 East Rte 66, Tucumcari",1501 East Rte 66,Tucumcari,88401.0,DANK OF THE WEST - RETAIL,,
"1801 South Mountain Rd, Tucumcari 88401.0","1801 South Mountain Rd, Tucumcari",1801 South Mountain Rd,Tucumcari,88401.0,TAOS 420 CANNABIS  COFFEE LLC - TUCUMCARI RETAIL,,
"1824 South First Street, Tucumcari 88401.0","1824 South First Street, Tucumcari",1824 South First Street,Tucumcari,88401.0,"LIFTED, A FINE CANNABIS BOUTIQUE LLC/ RETAIL SOUTH FIRST STREET",,
"3023 S First St, Tucumcari 88401.0","3023 S First St, Tucumcari",3023 S First St,Tucumcari,88401.0,LAGGRAY LLC,,
"605 W Tucumcari Blvd, Tucumcari 88401.0","605 W Tucumcari Blvd, Tucumcari",605 W Tucumcari Blvd,Tucumcari,88401.0,"RMC NM, INC - TUCUMCARI BLVD RETAIL",,
"912 E Route 66 Blvd, Tucumcari 88401.0","912 E Route 66 Blvd, Tucumcari",912 E Route 66 Blvd,Tucumcari,88401.0,PROHIBITION 37 - ROUTE 66 RETAIL,,
"301 Central Avenue, Tularosa 88352.0","301 Central Avenue, Tularosa",301 Central Avenue,Tularosa,88352.0,ENCHANTED CALICO,,
"308 Granado Street, Tularosa 88352.0","308 Granado Street, Tularosa",308 Granado Street,Tularosa,88352.0,TDG LLC / TULAROSA DRY GOODS,,
"900 St Francis Dr, Tularosa 88352.0","900 St Francis Dr, Tularosa",900 St Francis Dr,Tularosa,88352.0,LAUGHING LEAF DISPENSARY- ST FRANCIS RETAIL,,
"900 St. Francis Dr, Tularosa 88352.0","900 St. Francis Dr, Tularosa",900 St. Francis Dr,Tularosa,88352.0,BUDDING INDUSTRIES LLC-  ST. FRANCIS DR. RETAILER,,
"1101 Vado Rd, Vado 88072.0","1101 Vado Rd, Vado",1101 Vado Rd,Vado,88072.0,PINOS ALTOS FARMS LLC,,
"350 W 8th St., Vaughn 88353.0","350 W 8th St., Vaughn",350 W 8th St.,Vaughn,88353.0,GRIND 2 PEACEFUL MIND LLC - 5TH ST RETAIL,,
"35 Rover Blvd, White Rock 87544.0","35 Rover Blvd, White Rock",35 Rover Blvd,White Rock,87544.0,420 TEA TIME LLC/ RETAIL- ROVER BLVD,,
"NM-264 491, Yah Ta Hey 87375.0","NM-264 491, Yah Ta Hey",NM-264 491,Yah Ta Hey,87375.0,MY STASH - NM-264 RETAIL,,
