key_with_zip,key_no_zip,address,city,zip,licensee,lat,lng
"100 Coors Blvd., NW, Albuquerque 87120.0","100 Coors Blvd., NW, Albuquerque","100 Coors Blvd., NW",Albuquerque,87120.0,NEW MEXICO TOP ORGANICS ULTRA HEALTH INC  COORS BLVD RETAIL - Albuquerque,,
"10032 Coors Blvd NW, Albuquerque 87114.0","10032 Coors Blvd NW, Albuquerque",10032 Coors Blvd NW,Albuquerque,87114.0,THE VERDES FOUNDATION/ RETAIL COORS BLVD NW,,
"101 98th St SW, Albuquerque 87121.0","101 98th St SW, Albuquerque",101 98th St SW,Albuquerque,87121.0,ELKHORN RETAIL LLC/ RETAIL 98TH ST SW,,
"1011 4th St. NW, Albuquerque 87102.0","1011 4th St. NW, Albuquerque",1011 4th St. NW,Albuquerque,87102.0,WATTS INDUSTRIES LLC - 4TH ST RETAIL,,
"1015 4th Street SW, Albuquerque 87102.0","1015 4th Street SW, Albuquerque",1015 4th Street SW,Albuquerque,87102.0,PAR 4 LLC/ RETAIL 4TH STREET SW,,
"1016 Juan Tabo Blvd. NE Ste. J, Albuquerque 87112.0","1016 Juan Tabo Blvd. NE Ste. J, Albuquerque",1016 Juan Tabo Blvd. NE Ste. J,Albuquerque,87112.0,SEVEN CLOVER ALBUQUERQUE DISPENSARY,,
"1017 San Mateo SE, Albuquerque 87108.0","1017 San Mateo SE, Albuquerque",1017 San Mateo SE,Albuquerque,87108.0,WEED AND READ LTD LLC,,
"10200 Corrales Rd NW Ste E-2, Albuquerque 87114.0","10200 Corrales Rd NW Ste E-2, Albuquerque",10200 Corrales Rd NW Ste E-2,Albuquerque,87114.0,GOT GREENS LLC - CORRALES RD RETAIL,,
"10250 Cottonwood Park NW, Albuquerque 87114.0","10250 Cottonwood Park NW, Albuquerque",10250 Cottonwood Park NW,Albuquerque,87114.0,R. GREENLEAF ORGANICS DISPENSARY - Albuquerque,,
"1027 San Mateo Blvd SE, Albuquerque 87108.0","1027 San Mateo Blvd SE, Albuquerque",1027 San Mateo Blvd SE,Albuquerque,87108.0,"STONED DESERT, LLC - SAN MATEO BLVD RETAIL/CONS",,
"10660 Unser Blvd., NW, Albuquerque 87114.0","10660 Unser Blvd., NW, Albuquerque","10660 Unser Blvd., NW",Albuquerque,87114.0,EVEREST APOTHECARY - ALBUQUERQUE DISPENSARY,,
"11 Haines Ave NW, Albuquerque 87102.0","11 Haines Ave NW, Albuquerque",11 Haines Ave NW,Albuquerque,87102.0,AFICIONADO CANNABIS INC - HAINES RETAIL,,
"110 Yale SE, Albuquerque 87106.0","110 Yale SE, Albuquerque",110 Yale SE,Albuquerque,87106.0,R. GREENLEAF ORGANICS - Albuquerque,,
"1100 4th St NW, Albuquerque 87102.0","1100 4th St NW, Albuquerque",1100 4th St NW,Albuquerque,87102.0,RED GORILLA GREENS - 4TH ST RETAIL,,
"1125 Kent Ave NW, Albuquerque 87102.0","1125 Kent Ave NW, Albuquerque",1125 Kent Ave NW,Albuquerque,87102.0,GALLEGOS  RHODES ENTERPRISES LLC - KENT AVE RETAIL,,
"120 98th ST NW, Albuquerque 87121.0","120 98th ST NW, Albuquerque",120 98th ST NW,Albuquerque,87121.0,URBAN WELLNESS - 98TH ST DISPENSARY,,
"121 Eubank NE Ste A, Albuquerque 87123.0","121 Eubank NE Ste A, Albuquerque",121 Eubank NE Ste A,Albuquerque,87123.0,PECOS VALLEY PRODUCTION INC - EUBANK RETAIL,,
"1220 Eubank Blvd NE Ste B, Albuquerque 87112.0","1220 Eubank Blvd NE Ste B, Albuquerque",1220 Eubank Blvd NE Ste B,Albuquerque,87112.0,LOVES CANNABIS - Albuquerque,,
"1228 Juan Tabo NE, Albuquerque 87112.0","1228 Juan Tabo NE, Albuquerque",1228 Juan Tabo NE,Albuquerque,87112.0,THE TRIDENT CANNABIS COMPANY LLC - JUAN TABO RETAIL,,
"12611 Montgomery Blvd NE Suite A10, Albuquerque 87111.0","12611 Montgomery Blvd NE Suite A10, Albuquerque",12611 Montgomery Blvd NE Suite A10,Albuquerque,87111.0,FAMILY STRAINS 2 LLC,,
"12999 Central Avenue, Albuquerque 87123.0","12999 Central Avenue, Albuquerque",12999 Central Avenue,Albuquerque,87123.0,SCORE 420 - CENTRAL AVENUE RETAILER,,
"1300 Juan Tabo ne suite C, Albuquerque 87112.0","1300 Juan Tabo ne suite C, Albuquerque",1300 Juan Tabo ne suite C,Albuquerque,87112.0,BOGOSLLC - JUAN TABO MANUFACTURER,,
"1301 Rio Grande Blvd NW Ste 2, Albuquerque 87104.0","1301 Rio Grande Blvd NW Ste 2, Albuquerque",1301 Rio Grande Blvd NW Ste 2,Albuquerque,87104.0,OVERGROWN LLC- RIO GRANDE BLVD RETAIL,,
"13025 Lomas Blvd NE Ste B, Albuquerque 87112.0","13025 Lomas Blvd NE Ste B, Albuquerque",13025 Lomas Blvd NE Ste B,Albuquerque,87112.0,BOUTIQUE HIGH - LOMAS BLVD RETAIL,,
"1309 Eubank Blvd NE, Albuquerque 87112.0","1309 Eubank Blvd NE, Albuquerque",1309 Eubank Blvd NE,Albuquerque,87112.0,UNBEWEEDABLE CANNABIS CAFE LLC - EUBANK RETAIL/ CONSUMPTION,,
"1309 Yale Blvd SE, Albuquerque 87106.0","1309 Yale Blvd SE, Albuquerque",1309 Yale Blvd SE,Albuquerque,87106.0,CANVAS ORGANICS ENTERPRISES LLC - YALE BLVD RETAIL,,
"1330 San Pedro Dr NE Suite 103, Albuquerque 87110.0","1330 San Pedro Dr NE Suite 103, Albuquerque",1330 San Pedro Dr NE Suite 103,Albuquerque,87110.0,ABOVE GRADE CRAFT CANNABIS LLC - SAN PEDRO BLVD RETAIL,,
"1340 Broadway Blvd NE Ste A, Albuquerque 87102.0","1340 Broadway Blvd NE Ste A, Albuquerque",1340 Broadway Blvd NE Ste A,Albuquerque,87102.0,BLUE WHALE ENTERPRISES INC - BROADWAY RETAIL,,
"13600 Copper Ave NE, Albuquerque 87123.0","13600 Copper Ave NE, Albuquerque",13600 Copper Ave NE,Albuquerque,87123.0,WEEDMART LLC - COPPER RETAIL,,
"13600 Copper Ave NE Ste C, Albuquerque 87123.0","13600 Copper Ave NE Ste C, Albuquerque",13600 Copper Ave NE Ste C,Albuquerque,87123.0,WEEDMART LLC - COPPER AVE MANUFACTURER,,
"138 Harvard Dr SE, Albuquerque 87106.0","138 Harvard Dr SE, Albuquerque",138 Harvard Dr SE,Albuquerque,87106.0,TROPICS B LLC - 138 HARVARD DR SE CONS/RETAIL,,
"141 Osuna Rd NE, Albuquerque 87107.0","141 Osuna Rd NE, Albuquerque",141 Osuna Rd NE,Albuquerque,87107.0,OCC ABQ LLC- OSUNA RD RETAIL,,
"1416 Juan Tabo Blvd NE, Albuquerque 87112.0","1416 Juan Tabo Blvd NE, Albuquerque",1416 Juan Tabo Blvd NE,Albuquerque,87112.0,CANNAEXPRESS INC - JUAN TABO RETAIL,,
"1451 12th Street, Albuquerque 87104.0","1451 12th Street, Albuquerque",1451 12th Street,Albuquerque,87104.0,HF HOLDING LLC - 12TH ST MANUFACTURER,,
"1514 Coors Blvd Ste B, Albuquerque 87121.0","1514 Coors Blvd Ste B, Albuquerque",1514 Coors Blvd Ste B,Albuquerque,87121.0,PROHIBITION 37,,
"1520 Lomas Blvd NW, Albuquerque 87104.0","1520 Lomas Blvd NW, Albuquerque",1520 Lomas Blvd NW,Albuquerque,87104.0,FCI OF NEW MEXICO - LOMAS RETAIL,,
"1605 Isleta Blvd Ste D, Albuquerque 87105.0","1605 Isleta Blvd Ste D, Albuquerque",1605 Isleta Blvd Ste D,Albuquerque,87105.0,URBAN WELLNESS - ISLETA RETAIL,,
"1606 Central Ave NE Ste 101, Albuquerque 87106.0","1606 Central Ave NE Ste 101, Albuquerque",1606 Central Ave NE Ste 101,Albuquerque,87106.0,RELEAF CANNABIS CO - CENTRAL AVE RETAIL,,
"1616 Eubank Blvd NE, Albuquerque 87112.0","1616 Eubank Blvd NE, Albuquerque",1616 Eubank Blvd NE,Albuquerque,87112.0,KEYWAY INC/DBA THE BAD COMPANY,,
"1617 Indian School Rd, Albuquerque 87104.0","1617 Indian School Rd, Albuquerque",1617 Indian School Rd,Albuquerque,87104.0,LA MOTA NEW MEXICO - INDIAN SCHOOL ROAD MANUFACTURER,,
"1623 San Pedro Dr NE, Albuquerque 87110.0","1623 San Pedro Dr NE, Albuquerque",1623 San Pedro Dr NE,Albuquerque,87110.0,THE HOLY CANNABIS - SAN PEDRO RETAIL,,
"1629 4th St NW, Albuquerque 87102.0","1629 4th St NW, Albuquerque",1629 4th St NW,Albuquerque,87102.0,CLOUDWALKER FARM LLC - ABIQUIU RETAIL,,
"1698 Rio Bravo Blvd SW Ste B, Albuquerque 87105.0","1698 Rio Bravo Blvd SW Ste B, Albuquerque",1698 Rio Bravo Blvd SW Ste B,Albuquerque,87105.0,ANIMACANN INC - RIO BRAVO BLVD RETAIL,,
"1713 Juan Tabo Blvd NE, Albuquerque 87112.0","1713 Juan Tabo Blvd NE, Albuquerque",1713 Juan Tabo Blvd NE,Albuquerque,87112.0,CHADCOR HOLDINGS NM- RETAIL - Albuquerque,,
"1713 San Pedro Dr NE, Albuquerque 87110.0","1713 San Pedro Dr NE, Albuquerque",1713 San Pedro Dr NE,Albuquerque,87110.0,ONESTOPSMOKESHOPVAPER@ACCESSORIES - SAN PEDRO RETAIL,,
"1720 Juan Tabo Suite E, Albuquerque 87112.0","1720 Juan Tabo Suite E, Albuquerque",1720 Juan Tabo Suite E,Albuquerque,87112.0,"SMOKE HAVEN, LLC - JUAN TABO RETAILER",,
"1812 Eubank Blvd NE, Albuquerque 87112.0","1812 Eubank Blvd NE, Albuquerque",1812 Eubank Blvd NE,Albuquerque,87112.0,LAZYDAZE ABQ LLC - EUBANK CONS / RTLR,,
"191 Alameda Blvd NE, Albuquerque 87114.0","191 Alameda Blvd NE, Albuquerque",191 Alameda Blvd NE,Albuquerque,87114.0,BEFORE DAYLITE FARMS LLC - RETAIL,,
"1926 Isleta Blvd SW, Albuquerque 87105.0","1926 Isleta Blvd SW, Albuquerque",1926 Isleta Blvd SW,Albuquerque,87105.0,SKY VIEW CANNABIS LLC - ISLETA BLVD RETAIL,,
"200 Coors Blvd NW Suite D, Albuquerque 87121.0","200 Coors Blvd NW Suite D, Albuquerque",200 Coors Blvd NW Suite D,Albuquerque,87121.0,URBAN WELLNESS - COORS RETAIL,,
"2000 Carlisle Blvd NE Suite B, Albuquerque 87110.0","2000 Carlisle Blvd NE Suite B, Albuquerque",2000 Carlisle Blvd NE Suite B,Albuquerque,87110.0,DULCE CANNABIS,,
"2011 Mountain Road NW, Albuquerque 87104.0","2011 Mountain Road NW, Albuquerque",2011 Mountain Road NW,Albuquerque,87104.0,PURLIFE RETAIL - Albuquerque,,
"2015 Eubank Blvd NE, Albuquerque 87112.0","2015 Eubank Blvd NE, Albuquerque",2015 Eubank Blvd NE,Albuquerque,87112.0,FCI OF NEW MEXICO - EUBANK BLVD RETAIL,,
"2017 Ridgecrest Dr SE, Albuquerque 87108.0","2017 Ridgecrest Dr SE, Albuquerque",2017 Ridgecrest Dr SE,Albuquerque,87108.0,LUNA LEAF LLC - RIDGECREST DR RETAIL,,
"2035 Isleta Blvd SW Ste 1, Albuquerque 87105.0","2035 Isleta Blvd SW Ste 1, Albuquerque",2035 Isleta Blvd SW Ste 1,Albuquerque,87105.0,AMNESIA DISPENSARY  ACCESSORIES - ISLETA BLVD RETAIL,,
"207 Old Coors Dr SW, Albuquerque 87121.0","207 Old Coors Dr SW, Albuquerque",207 Old Coors Dr SW,Albuquerque,87121.0,REDS MARIJUANA SHOP LLC - OLD COORS DR RETAIL,,
"2100 Juan Tabo Blvd NE, Albuquerque 87112.0","2100 Juan Tabo Blvd NE, Albuquerque",2100 Juan Tabo Blvd NE,Albuquerque,87112.0,AMNESIA DISPENSARY  ACCESSORIES - DOUGLAS RETAIL,,
"2105 Vista Oeste NW STE D, Albuquerque 87120.0","2105 Vista Oeste NW STE D, Albuquerque",2105 Vista Oeste NW STE D,Albuquerque,87120.0,NM ALTITUDE LLC - VISTA OESTE NORTHWEST RETAILER,,
"2107 Central Ave NW, Albuquerque 87104.0","2107 Central Ave NW, Albuquerque",2107 Central Ave NW,Albuquerque,87104.0,SCORE 420 - CENTRAL AVE MANUFACTURER,,
"2117 Menaul Blvd NE Suite A, Albuquerque 87107.0","2117 Menaul Blvd NE Suite A, Albuquerque",2117 Menaul Blvd NE Suite A,Albuquerque,87107.0,GREEN CENTRAL STATION RETAIL MENAUL,,
"212 3rd St SW, Albuquerque 87102.0","212 3rd St SW, Albuquerque",212 3rd St SW,Albuquerque,87102.0,FOGO NA BOMBA - 3RD ST RETAIL,,
"2125 Central Ave NW, Albuquerque 87104.0","2125 Central Ave NW, Albuquerque",2125 Central Ave NW,Albuquerque,87104.0,SCORE 420 - CENTRAL  RETAIL,,
"214 Menaul Unit B C, Albuquerque 87107.0","214 Menaul Unit B C, Albuquerque",214 Menaul Unit B C,Albuquerque,87107.0,RR DESIGNS LLC - MENAUL RETAIL,,
"214 San Pedro Dr. NE, Albuquerque 87108.0","214 San Pedro Dr. NE, Albuquerque",214 San Pedro Dr. NE,Albuquerque,87108.0,FIREFLOWER LLC - SAN PEDRO RETAIL,,
"220 Copper Avenue NW, Suite 110, Unit 4, Albuquerque 87102.0","220 Copper Avenue NW, Suite 110, Unit 4, Albuquerque","220 Copper Avenue NW, Suite 110, Unit 4",Albuquerque,87102.0,HARVEST FOUNDATION ALBUQUERQUE DISPENSARY,,
"2201 Louisiana, Suite E, Albuquerque 87110.0","2201 Louisiana, Suite E, Albuquerque","2201 Louisiana, Suite E",Albuquerque,87110.0,EVEREST APOTHECARY DISPENSARY,,
"2211 Central Ave NW, Albuquerque 87104.0","2211 Central Ave NW, Albuquerque",2211 Central Ave NW,Albuquerque,87104.0,SWEET GREENS INC - CENTRAL RETAIL,,
"2308 Eubank BLVD, Albuquerque 87112.0","2308 Eubank BLVD, Albuquerque",2308 Eubank BLVD,Albuquerque,87112.0,TROPICS B LLC-EUBANK BLVD RETAIL/CONS,,
"2308 Eubank Blvd NE, Albuquerque 87112.0","2308 Eubank Blvd NE, Albuquerque",2308 Eubank Blvd NE,Albuquerque,87112.0,HERBAN OASIS LLC - RETAIL,,
"2325 San Pedro Drive Northeast, Albuquerque 87110.0","2325 San Pedro Drive Northeast, Albuquerque",2325 San Pedro Drive Northeast,Albuquerque,87110.0,GALLEGOS  RHODES ENTERPRISES LLC,,
"2400 Juan Tabo Blvd NE Suite B, Albuquerque 87112.0","2400 Juan Tabo Blvd NE Suite B, Albuquerque",2400 Juan Tabo Blvd NE Suite B,Albuquerque,87112.0,H2H DISTRIBUTION LLC - 2400 JUAN TABO RETAILER,,
"2400 rio grande blvd nw suite B, Albuquerque 87104.0","2400 rio grande blvd nw suite B, Albuquerque",2400 rio grande blvd nw suite B,Albuquerque,87104.0,LUNA LEAF LLC - RIO GRANDE BLVD NORTHWEST RETAILER,,
"2406 Comanche Rd. NE, Albuquerque 87107.0","2406 Comanche Rd. NE, Albuquerque",2406 Comanche Rd. NE,Albuquerque,87107.0,SANDIA BOTANICALS - Albuquerque,,
"2501 San Pedro Dr Ne Ste 114, Albuquerque 87110.0","2501 San Pedro Dr Ne Ste 114, Albuquerque",2501 San Pedro Dr Ne Ste 114,Albuquerque,87110.0,PUMP AND JUMP LLC - SAN PEDRO RETAIL,,
"2501 San Pedro Dr NE Suite 110, Albuquerque 87110.0","2501 San Pedro Dr NE Suite 110, Albuquerque",2501 San Pedro Dr NE Suite 110,Albuquerque,87110.0,CAPITAL LEVERAGE LLC - SAN PEDRO RETAIL,,
"2505 6th St NW, Albuquerque 87102.0","2505 6th St NW, Albuquerque",2505 6th St NW,Albuquerque,87102.0,BOSQUE BUDS LLC/ RETAIL 6TH ST NW,,
"2506 San Mateo Place, Albuquerque 87110.0","2506 San Mateo Place, Albuquerque",2506 San Mateo Place,Albuquerque,87110.0,A NICE DREAM INC - EDITH RETAIL,,
"251 98th St Ste A  B, Albuquerque 87121.0","251 98th St Ste A  B, Albuquerque",251 98th St Ste A  B,Albuquerque,87121.0,PECOS VALLEY PRODUCTION INC - 98TH ST RETAIL,,
"2523 4th St NW, Albuquerque 87102.0","2523 4th St NW, Albuquerque",2523 4th St NW,Albuquerque,87102.0,NATURES SECRET CANNABIS - 4TH ST RETAIL,,
"2525 Madison St NE, Albuquerque 87110.0","2525 Madison St NE, Albuquerque",2525 Madison St NE,Albuquerque,87110.0,BIGZ RECREATIONAL LLC - MADISON STREET NORTHEAST RETAILER,,
"2527 Wyoming Blvd NE, Albuquerque 87112.0","2527 Wyoming Blvd NE, Albuquerque",2527 Wyoming Blvd NE,Albuquerque,87112.0,THE PRIVATE STASH LLC - WYOMING BLVD RETAIL,,
"2528 Coors Blvd SW, Albuquerque 87121.0","2528 Coors Blvd SW, Albuquerque",2528 Coors Blvd SW,Albuquerque,87121.0,CANNACOLLC-COORS RETAIL,,
"2601 NE Louisiana Blvd., Albuquerque 87110.0","2601 NE Louisiana Blvd., Albuquerque",2601 NE Louisiana Blvd.,Albuquerque,87110.0,JOE WOJICK  JOE CALANDRA LLC,,
"2621 San Mateo Blvd NE Ste B, Albuquerque 87110.0","2621 San Mateo Blvd NE Ste B, Albuquerque",2621 San Mateo Blvd NE Ste B,Albuquerque,87110.0,PROHIBITION 37 - SAN MATEO RETAIL,,
"2621 Wyoming, Albuquerque 87112.0","2621 Wyoming, Albuquerque",2621 Wyoming,Albuquerque,87112.0,GH LLC,,
"2639 San Mateo Blvd, Albuquerque 87110.0","2639 San Mateo Blvd, Albuquerque",2639 San Mateo Blvd,Albuquerque,87110.0,RAW GREENS LLC - SAN MATEO RETAIL,,
"2714 4th St NW, Albuquerque 87107.0","2714 4th St NW, Albuquerque",2714 4th St NW,Albuquerque,87107.0,LA MOTA NEW MEXICO LLC - 4TH ST RETAIL,,
"2720 Central Ave Southeast F, Albuquerque 87106.0","2720 Central Ave Southeast F, Albuquerque",2720 Central Ave Southeast F,Albuquerque,87106.0,OCC ABQ LLC - Albuquerque,,
"2723 San Mateo Blvd NE, Suite B, Albuquerque 87110.0","2723 San Mateo Blvd NE, Suite B, Albuquerque","2723 San Mateo Blvd NE, Suite B",Albuquerque,87110.0,AMNESIA DISPENSARY  ACCESSORIES - Albuquerque,,
"2828 Carlisle NE, Albuquerque 87110.0","2828 Carlisle NE, Albuquerque",2828 Carlisle NE,Albuquerque,87110.0,GRANDE CULTIVATION COLLECTIVE LLC- CARLISLE MANUFACTURER,,
"2829 San Mateo Blvd NE, Albuquerque 87110.0","2829 San Mateo Blvd NE, Albuquerque",2829 San Mateo Blvd NE,Albuquerque,87110.0,THE NATURAL SOURCE LLC,,
"2910 San Mateo Blvd. NE, Albuquerque 87110.0","2910 San Mateo Blvd. NE, Albuquerque",2910 San Mateo Blvd. NE,Albuquerque,87110.0,URBAN WELLNESS - SAN MATEO DISPENSARY,,
"2925 Juan Tabo Blvd NE, Albuquerque 87112.0","2925 Juan Tabo Blvd NE, Albuquerque",2925 Juan Tabo Blvd NE,Albuquerque,87112.0,OCC ABQ LLC - Albuquerque,,
"2937 monte Vista Blvd ne, Albuquerque 87106.0","2937 monte Vista Blvd ne, Albuquerque",2937 monte Vista Blvd ne,Albuquerque,87106.0,CANNABIS INSTITUTE OF AMERICA - MONTE VISTA RTLR,,
"300 San Mateo Blvd SE, Albuquerque 87108.0","300 San Mateo Blvd SE, Albuquerque",300 San Mateo Blvd SE,Albuquerque,87108.0,H2H DISTRIBUTION LLC - SAN MATEO RETAILER,,
"300 Yale Blvd SE, Albuquerque 87106.0","300 Yale Blvd SE, Albuquerque",300 Yale Blvd SE,Albuquerque,87106.0,SMOKIN JOES LLC - YALE RETAIL,,
"3000 San Pedro Drive NE Suite B, Albuquerque 87110.0","3000 San Pedro Drive NE Suite B, Albuquerque",3000 San Pedro Drive NE Suite B,Albuquerque,87110.0,CANVAS ORGANICS ENTERPRISES LLC,,
"301 Central Ave NW, Albuquerque 87102.0","301 Central Ave NW, Albuquerque",301 Central Ave NW,Albuquerque,87102.0,MAD HATTER GROW LLC - CENTRAL RETAIL,,
"301 San Pedro NE, Albuquerque 87108.0","301 San Pedro NE, Albuquerque",301 San Pedro NE,Albuquerque,87108.0,MARCOS ANTONIO PAGAN CARTIGIANO - SAN PEDRO - RETAIL,,
"3094 San Mateo Blvd NE Ste 3100B, Albuquerque 87110.0","3094 San Mateo Blvd NE Ste 3100B, Albuquerque",3094 San Mateo Blvd NE Ste 3100B,Albuquerque,87110.0,MJ ALTA VIDA PRODUCTS LLC - SAN MATEO RETAIL,,
"3100 Suite B San Mateo Blvd, Albuquerque 87110.0","3100 Suite B San Mateo Blvd, Albuquerque",3100 Suite B San Mateo Blvd,Albuquerque,87110.0,MJ ALTA VIDA PRODUCTS LLC-3100 SAN MATEO RETAIL,,
"3107 San Mateo Blvd NE, Albuquerque 87110.0","3107 San Mateo Blvd NE, Albuquerque",3107 San Mateo Blvd NE,Albuquerque,87110.0,MAD HATTER GROW LLC - SAN MATEO BLVD RETAIL,,
"315 San Pedro NE Suite C, Albuquerque 87108.0","315 San Pedro NE Suite C, Albuquerque",315 San Pedro NE Suite C,Albuquerque,87108.0,OCC ABQ LLC- MANUFACTURER,,
"3228 Isleta Blvd SW, Albuquerque 87105.0","3228 Isleta Blvd SW, Albuquerque",3228 Isleta Blvd SW,Albuquerque,87105.0,LOVES CANNABIS- ISLETA RETAIL,,
"3250 Coors Blvd NW Suite A, Albuquerque 87120.0","3250 Coors Blvd NW Suite A, Albuquerque",3250 Coors Blvd NW Suite A,Albuquerque,87120.0,BUDDER PROS LLC - COORS BLVD RETAIL,,
"3313 4th St NW, Albuquerque 87107.0","3313 4th St NW, Albuquerque",3313 4th St NW,Albuquerque,87107.0,TAFOYA FARMS LLC/ RETAIL 4TH ST NW,,
"3320-A Coors Blvd NW, Albuquerque 87120.0","3320-A Coors Blvd NW, Albuquerque",3320-A Coors Blvd NW,Albuquerque,87120.0,HIGH DESERT RELIEF DISPENSARY - Albuquerque,,
"337 Eubank BLVD NE, Albuquerque 87123.0","337 Eubank BLVD NE, Albuquerque",337 Eubank BLVD NE,Albuquerque,87123.0,LALA LAND CANNABIS CO - EUBANK BLVD NORTHEAST RETAILER,,
"3400 Vassar Dr NE, Albuquerque 87107.0","3400 Vassar Dr NE, Albuquerque",3400 Vassar Dr NE,Albuquerque,87107.0,BAKED BUDS LLC - VASSAR RETAIL,,
"3410 NM-528 105, Albuquerque 87114.0","3410 NM-528 105, Albuquerque",3410 NM-528 105,Albuquerque,87114.0,HIGH DESERT RELIEF-NM-528 105 RETAIL,,
"3417 Central Avenue NE, Albuquerque 87106.0","3417 Central Avenue NE, Albuquerque",3417 Central Avenue NE,Albuquerque,87106.0,ENCHANTED BOTANICALS LLC - CENTRAL AVE RETAIL/CONSUMPTION,,
"3426 Vassar Dr. NE Ste B, Albuquerque 87107.0","3426 Vassar Dr. NE Ste B, Albuquerque",3426 Vassar Dr. NE Ste B,Albuquerque,87107.0,BIEN LOCA INDUSTRIES LLC/ RETAIL VASSAR DR. NE,,
"343 Wyoming Blvd NE, Albuquerque 87123.0","343 Wyoming Blvd NE, Albuquerque",343 Wyoming Blvd NE,Albuquerque,87123.0,"KIJANI CORP - WYOMING BLVD, ABQ",,
"3500 Calle Cuervo NW, Albuquerque 87114.0","3500 Calle Cuervo NW, Albuquerque",3500 Calle Cuervo NW,Albuquerque,87114.0,FCI OF NEW MEXICO - CALLE CUERVO RETAIL,,
"3500 Menaul Blvd NE Ste 6, Albuquerque 87107.0","3500 Menaul Blvd NE Ste 6, Albuquerque",3500 Menaul Blvd NE Ste 6,Albuquerque,87107.0,OCC ABQ LLC - MENAUL BLVD RETAIL,,
"3504 Montgomery Blvd NE, Albuquerque 87107.0","3504 Montgomery Blvd NE, Albuquerque",3504 Montgomery Blvd NE,Albuquerque,87107.0,EVEREST APOTHECARY/ RETAIL MONTGOMERY BLVD NE,,
"3530 Wyoming Blvd NE, Albuquerque 87111.0","3530 Wyoming Blvd NE, Albuquerque",3530 Wyoming Blvd NE,Albuquerque,87111.0,HIGHER LIVING CANNABIS FARMING CO LLC - WYOMING RETAIL,,
"3600 Cutler Avenue NE Unit 10, Albuquerque 87110.0","3600 Cutler Avenue NE Unit 10, Albuquerque",3600 Cutler Avenue NE Unit 10,Albuquerque,87110.0,JUICY JOINTS CANNABIS LLC - CUTLER AVENUE RETAILER,,
"3620 Bosque Plaza Lane NW, Albuquerque 87120.0","3620 Bosque Plaza Lane NW, Albuquerque",3620 Bosque Plaza Lane NW,Albuquerque,87120.0,GRASSROOTS GRANTS LLC DISPENSARY ALBUQUERQUE/ CONSUMPTION AREA,,
"3620 NM State Hwy 528, Albuquerque 87114.0","3620 NM State Hwy 528, Albuquerque",3620 NM State Hwy 528,Albuquerque,87114.0,PECOS VALLEY PRODUCTION INC - ALAMEDA,,
"3636 Monte Vista Blvd NE, Albuquerque 87106.0","3636 Monte Vista Blvd NE, Albuquerque",3636 Monte Vista Blvd NE,Albuquerque,87106.0,THE VERDES FOUNDATION/ RETAIL MONTE VISTA BLVD NE,,
"3641 12th St, Albuquerque 87107.0","3641 12th St, Albuquerque",3641 12th St,Albuquerque,87107.0,ANIMACANN INC-12TH ST RETAIL,,
"3641 12th Street NW, Albuquerque 87107.0","3641 12th Street NW, Albuquerque",3641 12th Street NW,Albuquerque,87107.0,SEVEN CLOVER - 2TH STREET NW RETAILER,,
"3700 Ellison Dr NW Ste E-2, Albuquerque 87114.0","3700 Ellison Dr NW Ste E-2, Albuquerque",3700 Ellison Dr NW Ste E-2,Albuquerque,87114.0,TAFOYA FARMS LLC-ELLISON DR RETAIL,,
"3701 San Mateo Blvd NE, Suite G, Albuquerque 87110.0","3701 San Mateo Blvd NE, Suite G, Albuquerque","3701 San Mateo Blvd NE, Suite G",Albuquerque,87110.0,IMPACT FARMS LLC - SAN MATEO BLVD RETAILER,,
"3730 Coors Blvd NW Ste B, Albuquerque 87120.0","3730 Coors Blvd NW Ste B, Albuquerque",3730 Coors Blvd NW Ste B,Albuquerque,87120.0,OCC ABQ LLC - COORS BLVD RETAIL,,
"3800 Central Ave. SE, Albuquerque 87108.0","3800 Central Ave. SE, Albuquerque",3800 Central Ave. SE,Albuquerque,87108.0,SEVEN CLOVER - Albuquerque,,
"3880 menaul blvd ne, Albuquerque 87110.0","3880 menaul blvd ne, Albuquerque",3880 menaul blvd ne,Albuquerque,87110.0,AMIGOS MARKETING - MENAUL BLVD NORTHEAST RETAILER,,
"400 Lomas Blvd NE, Albuquerque 87102.0","400 Lomas Blvd NE, Albuquerque",400 Lomas Blvd NE,Albuquerque,87102.0,CHRONIC KINGS LLC - LOMAS BLVD RETAIL,,
"400 Louisiana SE, Albuquerque 87108.0","400 Louisiana SE, Albuquerque",400 Louisiana SE,Albuquerque,87108.0,ENCHANTED LEAF NM - LOUISIANA RETAIL,,
"4000 Menaul Blvd NE, Albuquerque 87110.0","4000 Menaul Blvd NE, Albuquerque",4000 Menaul Blvd NE,Albuquerque,87110.0,"PURLIFE - UNIV AVE, LC",,
"4000 San Mateo Blvd NE Ste A, Albuquerque 87110.0","4000 San Mateo Blvd NE Ste A, Albuquerque",4000 San Mateo Blvd NE Ste A,Albuquerque,87110.0,FCI OF NEW MEXICO - SAN MATEO BLVD RETAIL,,
"4001 Menaul Blvd NE, Albuquerque 87110.0","4001 Menaul Blvd NE, Albuquerque",4001 Menaul Blvd NE,Albuquerque,87110.0,FCI OF NEW MEXICO - MENAUL BLVD RETAIL,,
"4001 San Mateo Blvd NE Ste C, Albuquerque 87110.0","4001 San Mateo Blvd NE Ste C, Albuquerque",4001 San Mateo Blvd NE Ste C,Albuquerque,87110.0,FLY HIGH NEW MEXICO LLC- RETAIL SAN MATEO BLVD NE STE C,,
"401 Eubank Blvd SE Ste. D, Albuquerque 87123.0","401 Eubank Blvd SE Ste. D, Albuquerque",401 Eubank Blvd SE Ste. D,Albuquerque,87123.0,CANVAS ORGANICS ENTERPRISES LLC - EUBANK BLVD RETAIL,,
"4014 Central Avenue SE, Albuquerque 87108.0","4014 Central Avenue SE, Albuquerque",4014 Central Avenue SE,Albuquerque,87108.0,R. GREENLEAF ORGANICS DISPENSARY - Albuquerque,,
"405 Montano Rd NE, Albuquerque 87107.0","405 Montano Rd NE, Albuquerque",405 Montano Rd NE,Albuquerque,87107.0,URBAN WELLNESS - MONTANO DISPENSARY,,
"411 Rankin Rd NE, Albuquerque 87107.0","411 Rankin Rd NE, Albuquerque",411 Rankin Rd NE,Albuquerque,87107.0,SUNSHINE PHARM,,
"416 Yale Blvd SE Suite B, Albuquerque 87106.0","416 Yale Blvd SE Suite B, Albuquerque",416 Yale Blvd SE Suite B,Albuquerque,87106.0,CASACANNA LLC - YALE BLVD RETAILER,,
"417 Tramway Blvd. NE, Suite 2, Albuquerque 87123.0","417 Tramway Blvd. NE, Suite 2, Albuquerque","417 Tramway Blvd. NE, Suite 2",Albuquerque,87123.0,PURLIFE - ALBUQUERQUE RETAIL,,
"4200 4th St NW, Albuquerque 87107.0","4200 4th St NW, Albuquerque",4200 4th St NW,Albuquerque,87107.0,CANNACOLLC - 4TH ST RETAIL - Albuquerque,,
"4201 Central Avenue NW, Suite B-6, Albuquerque 87105.0","4201 Central Avenue NW, Suite B-6, Albuquerque","4201 Central Avenue NW, Suite B-6",Albuquerque,87105.0,EVEREST APOTHECARY- ALBUQUERQUE DISPENSARY,,
"4212 4th St NW, Albuquerque 87107.0","4212 4th St NW, Albuquerque",4212 4th St NW,Albuquerque,87107.0,CANNACOLLC - 4TH ST RETAIL - Albuquerque,,
"4411 Montano Rd NW, Suite F, Albuquerque 87120.0","4411 Montano Rd NW, Suite F, Albuquerque","4411 Montano Rd NW, Suite F",Albuquerque,87120.0,MOUNTAIN DESERT HEALTH,,
"4414 Menaul Blvd. NE, Albuquerque 87110.0","4414 Menaul Blvd. NE, Albuquerque",4414 Menaul Blvd. NE,Albuquerque,87110.0,R. GREENLEAF ORGANICS DISPENSARY - Albuquerque,,
"4501 4th Street NW, Suite F, Albuquerque 87107.0","4501 4th Street NW, Suite F, Albuquerque","4501 4th Street NW, Suite F",Albuquerque,87107.0,CRANIUM EXTRACTS LLC,,
"4505 Menaul Blvd NE, Albuquerque 87110.0","4505 Menaul Blvd NE, Albuquerque",4505 Menaul Blvd NE,Albuquerque,87110.0,EASTER LLC - MENAUL BLVD RETAIL,,
"4521 Central Ave NE, Albuquerque 87108.0","4521 Central Ave NE, Albuquerque",4521 Central Ave NE,Albuquerque,87108.0,SCORE 420/ RETAIL CENTRAL AVE NE,,
"4601 Paradise Blvd. Suite H, Albuquerque 87114.0","4601 Paradise Blvd. Suite H, Albuquerque",4601 Paradise Blvd. Suite H,Albuquerque,87114.0,URBAN WELLNESS - PARADISE DISPENSARY,,
"4602 Lomas Blvd NE, Albuquerque 87110.0","4602 Lomas Blvd NE, Albuquerque",4602 Lomas Blvd NE,Albuquerque,87110.0,ROAD RUNNER ORGANICS LLC - SAN MATEO BLVD RETAIL,,
"4606 McLeod NE, Albuquerque 87109.0","4606 McLeod NE, Albuquerque",4606 McLeod NE,Albuquerque,87109.0,GASD UP EXOTICS LLC/ RETAIL MCLEOD NE,,
"468 Isleta Blvd SW, Albuquerque 87105.0","468 Isleta Blvd SW, Albuquerque",468 Isleta Blvd SW,Albuquerque,87105.0,LTDM LLC - ISLETA BLVD RETAIL,,
"4701 Menaul Blvd NE, Albuquerque 87110.0","4701 Menaul Blvd NE, Albuquerque",4701 Menaul Blvd NE,Albuquerque,87110.0,BOUTIQUEBUDZ LLC - MENAUL RETAIL,,
"4711 Central Ave NW, Albuquerque 87105.0","4711 Central Ave NW, Albuquerque",4711 Central Ave NW,Albuquerque,87105.0,FIRST CLASS CANNABIS - CENTRAL RETAIL,,
"4711 Lomas Blvd NE, Albuquerque 87110.0","4711 Lomas Blvd NE, Albuquerque",4711 Lomas Blvd NE,Albuquerque,87110.0,LEAF AND FLOWER LLC/ RETAIL LOMAS BLVD NE,,
"4840-H Pan American East Freeway, Albuquerque 87109.0","4840-H Pan American East Freeway, Albuquerque",4840-H Pan American East Freeway,Albuquerque,87109.0,HIGH DESERT RELIEF DISPENSARY - Albuquerque,,
"5000 Jefferson NE B, Albuquerque 87109.0","5000 Jefferson NE B, Albuquerque",5000 Jefferson NE B,Albuquerque,87109.0,AMNESIA DISPENSARY  ACCESSORIES - Albuquerque,,
"5005 Menaul Blvd NE, Albuquerque 87110.0","5005 Menaul Blvd NE, Albuquerque",5005 Menaul Blvd NE,Albuquerque,87110.0,"HOUSE OF BLAZE, LLC - MENAUL RETAIL",,
"5007 Lomas Blvd NE, Albuquerque 87110.0","5007 Lomas Blvd NE, Albuquerque",5007 Lomas Blvd NE,Albuquerque,87110.0,HIGH TIDES DISPENSARY LLC - LOMAS RETAIL,,
"5016 Lomas Blvd NE, Albuquerque 87108.0","5016 Lomas Blvd NE, Albuquerque",5016 Lomas Blvd NE,Albuquerque,87108.0,DISPENSARY NEAR ME/ RETAIL LOMAS BLVD NE,,
"5115 Coors Blvd. NW, Albuquerque 87120.0","5115 Coors Blvd. NW, Albuquerque",5115 Coors Blvd. NW,Albuquerque,87120.0,NEW MEXICO TOP ORGANICS ULTRA HEALTH INC  COORS BLVD RETAIL - Albuquerque,,
"516 Chama St NE Ste B, Albuquerque 87108.0","516 Chama St NE Ste B, Albuquerque",516 Chama St NE Ste B,Albuquerque,87108.0,NEW HEIGHTS DISPENSARY INC/ RETAIL CHAMA ST NE STE B,,
"520 Airport Blvd NW, Albuquerque 87121.0","520 Airport Blvd NW, Albuquerque",520 Airport Blvd NW,Albuquerque,87121.0,LINCOLN WATFORD LLC - RETAIL,,
"5201 Ouray NW, Albuquerque 87120.0","5201 Ouray NW, Albuquerque",5201 Ouray NW,Albuquerque,87120.0,R. GREENLEAF ORGANICS DISPENSARY - Albuquerque,,
"5212 4th St NW Suite A, Albuquerque 87107.0","5212 4th St NW Suite A, Albuquerque",5212 4th St NW Suite A,Albuquerque,87107.0,URBAN WELLNESS - 4TH ST RETAIL,,
"5231 San Mateo Blvd NE, Albuquerque 87109.0","5231 San Mateo Blvd NE, Albuquerque",5231 San Mateo Blvd NE,Albuquerque,87109.0,NO MIDS LLC - SAN MATEO RETAIL,,
"5231 San Mateo Blvd NE Suite A, Albuquerque 87109.0","5231 San Mateo Blvd NE Suite A, Albuquerque",5231 San Mateo Blvd NE Suite A,Albuquerque,87109.0,BMD LLC-SAN MATEO BLVD NE SUITE A RETAIL,,
"5401 Lomas Blvd Ste A, Albuquerque 87110.0","5401 Lomas Blvd Ste A, Albuquerque",5401 Lomas Blvd Ste A,Albuquerque,87110.0,505 FARMS ABQ LLC - LOMAS BLVD RETAIL,,
"5541 Midway Park Blvd NE, Albuquerque 87109.0","5541 Midway Park Blvd NE, Albuquerque",5541 Midway Park Blvd NE,Albuquerque,87109.0,CRAV LLC/RETAIL MIDWAY PARK BLVD NE,,
"5700 4th Street NW, Albuquerque 87109.0","5700 4th Street NW, Albuquerque",5700 4th Street NW,Albuquerque,87109.0,NEW MEXICO TOP ORGANICS ULTRA HEALTH INC  4TH ST RETAIL,,
"5704 Lomas Blvd NE, Albuquerque 87110.0","5704 Lomas Blvd NE, Albuquerque",5704 Lomas Blvd NE,Albuquerque,87110.0,RELEAF CANNABIS CO - LOMAS BLVD RETAIL,,
"5737 Menaul Blvd NE, Albuquerque 87110.0","5737 Menaul Blvd NE, Albuquerque",5737 Menaul Blvd NE,Albuquerque,87110.0,ENCHANTED BOTANICALS LLC - MENAUL BLVD MANUFACTURER,,
"5809 Juan Tabo, Albuquerque 87111.0","5809 Juan Tabo, Albuquerque",5809 Juan Tabo,Albuquerque,87111.0,EVEREST APOTHECARY - RETAIL,,
"5926 2nd Street NW, Albuquerque 87107.0","5926 2nd Street NW, Albuquerque",5926 2nd Street NW,Albuquerque,87107.0,KITE LLC DBA THRIVE CRAFT CANNABIS CO - RETAIL/CONSUMPTION 2ND STREET NW,,
"6005 Coronado Ave NE, Albuquerque 87109.0","6005 Coronado Ave NE, Albuquerque",6005 Coronado Ave NE,Albuquerque,87109.0,THE VERDES FOUNDATION  6005 CORONADO PRODUCER,,
"6010 Coors Blvd Ste 3, Albuquerque 87120.0","6010 Coors Blvd Ste 3, Albuquerque",6010 Coors Blvd Ste 3,Albuquerque,87120.0,EVEREST APOTHECARY - Albuquerque,,
"6015 4th St NW, Albuquerque 87107.0","6015 4th St NW, Albuquerque",6015 4th St NW,Albuquerque,87107.0,LEAF AND FLOWER LLC-4TH ST RETAIL,,
"6016 Isleta Blvd SW, Albuquerque 87105.0","6016 Isleta Blvd SW, Albuquerque",6016 Isleta Blvd SW,Albuquerque,87105.0,PAJARITO HEALING HERB LLC/ RETAIL ISLETA BLVD SW,,
"6200 Montgomery Blvd NE, Albuquerque 87111.0","6200 Montgomery Blvd NE, Albuquerque",6200 Montgomery Blvd NE,Albuquerque,87111.0,VICE CANNABIS LLC,,
"6220 San Mateo BLVD, Albuquerque 87190.0","6220 San Mateo BLVD, Albuquerque",6220 San Mateo BLVD,Albuquerque,87190.0,URBAN WELLNESS - ACADEMY DISPENSARY,,
"629 Amherst Dr NE, Albuquerque 87106.0","629 Amherst Dr NE, Albuquerque",629 Amherst Dr NE,Albuquerque,87106.0,LEMON CANNABIS CO - AMHERST RETAIL,,
"6300 Montano Rd NW, Albuquerque 87120.0","6300 Montano Rd NW, Albuquerque",6300 Montano Rd NW,Albuquerque,87120.0,CHEEKS  WEEZY LLC,,
"6311 Lomas Blvd NE, Albuquerque 87111.0","6311 Lomas Blvd NE, Albuquerque",6311 Lomas Blvd NE,Albuquerque,87111.0,OCC ABQ LLC - Albuquerque,,
"637 broadway blvd se, Albuquerque 87102.0","637 broadway blvd se, Albuquerque",637 broadway blvd se,Albuquerque,87102.0,HONEYHOLE CANNABIS CO. LLC - BROADWAY BLVD SOUTHEAST RETAILER,,
"640 Coors Blvd SW, Albuquerque 87121.0","640 Coors Blvd SW, Albuquerque",640 Coors Blvd SW,Albuquerque,87121.0,CRESTVIEW LLC - COORS BLVD RETAIL,,
"6910 Central Ave SE, Albuquerque 87108.0","6910 Central Ave SE, Albuquerque",6910 Central Ave SE,Albuquerque,87108.0,SEVEN TEN LLC/ RETAIL CENTRAL AVE SE,,
"6919 Montgomery Blvd NE, Suite B, Albuquerque 87109.0","6919 Montgomery Blvd NE, Suite B, Albuquerque","6919 Montgomery Blvd NE, Suite B",Albuquerque,87109.0,RIO GRANDE FARMACEUTICALS LLC,,
"700 Avenida Dolores Huerta Ave, Albuquerque 87105.0","700 Avenida Dolores Huerta Ave, Albuquerque",700 Avenida Dolores Huerta Ave,Albuquerque,87105.0,"FROST STATION CANNABIS, LLC - AVENIDA DOLORES HUERTA AVENUE RETAILER",,
"7001 Menaul Blvd NE, Albuquerque 87110.0","7001 Menaul Blvd NE, Albuquerque",7001 Menaul Blvd NE,Albuquerque,87110.0,CHADCOR HOLDINGS NM- RETAIL - Albuquerque,,
"7001 Montgomery Blvd, Albuquerque 87109.0","7001 Montgomery Blvd, Albuquerque",7001 Montgomery Blvd,Albuquerque,87109.0,PUR LIFE RETAIL,,
"7016 2nd St. NW, Albuquerque 87107.0","7016 2nd St. NW, Albuquerque",7016 2nd St. NW,Albuquerque,87107.0,SEVEN CLOVER - Albuquerque,,
"7301 Central Ave NE, Albuquerque 87108.0","7301 Central Ave NE, Albuquerque",7301 Central Ave NE,Albuquerque,87108.0,BUDDIES FARMS LCC/ RETAIL CENTRAL AVE NE,,
"7301 San Antonio Drive NE, Albuquerque 87109.0","7301 San Antonio Drive NE, Albuquerque",7301 San Antonio Drive NE,Albuquerque,87109.0,THE VERDES FOUNDATION  SAN ANTONIO DRIVE RETAIL,,
"7401 Central Ave NE, Albuquerque 87108.0","7401 Central Ave NE, Albuquerque",7401 Central Ave NE,Albuquerque,87108.0,JOINT VENTURE CANNABIS LLC- OLD COORS RD RETAIL,,
"7401 Menaul Blvd. NE, Albuquerque 87110.0","7401 Menaul Blvd. NE, Albuquerque",7401 Menaul Blvd. NE,Albuquerque,87110.0,NEW MEXICO TOP ORGANICS ULTRA HEALTH INC  MENAUL BLVD RETAIL,,
"7601 San Pedro, Albuquerque 87109.0","7601 San Pedro, Albuquerque",7601 San Pedro,Albuquerque,87109.0,GH LLC - SAN PEDRO RETAIL,,
"7608 Menaul Blvd NE, Albuquerque 87110.0","7608 Menaul Blvd NE, Albuquerque",7608 Menaul Blvd NE,Albuquerque,87110.0,OCC ABQ LLC - Albuquerque,,
"7610 Carmel NE, Ste. B, Albuquerque 87122.0","7610 Carmel NE, Ste. B, Albuquerque","7610 Carmel NE, Ste. B",Albuquerque,87122.0,URBAN WELLNESS - CARMEL ROAD DISPENSARY,,
"7710 Menaul Blvd, Albuquerque 87110.0","7710 Menaul Blvd, Albuquerque",7710 Menaul Blvd,Albuquerque,87110.0,REEFER MADNESS LLC - MENAUL BLVD RETAIL,,
"806 Old Coors Drive SW, Albuquerque 87121.0","806 Old Coors Drive SW, Albuquerque",806 Old Coors Drive SW,Albuquerque,87121.0,SCORE 420 - OLD COORS DRIVE RETAILER,,
"8104 Wyoming, Albuquerque 87113.0","8104 Wyoming, Albuquerque",8104 Wyoming,Albuquerque,87113.0,NEW MEXICO TOP ORGANICS ULTRA HEALTH INC  WYOMING RETAIL,,
"8110 Louisiana Blvd NE Suite D-1, Albuquerque 87113.0","8110 Louisiana Blvd NE Suite D-1, Albuquerque",8110 Louisiana Blvd NE Suite D-1,Albuquerque,87113.0,NM ALTITUDE LLC - LOUISIANA BLVD RETAIL,,
"8150 Paseo del Norte NE, Albuquerque 87109.0","8150 Paseo del Norte NE, Albuquerque",8150 Paseo del Norte NE,Albuquerque,87109.0,R. GREENLEAF ORGANICS - PASEO DEL NORTE NE RETAIL,,
"818 San Mateo Boulevard Southeast, Albuquerque 87108.0","818 San Mateo Boulevard Southeast, Albuquerque",818 San Mateo Boulevard Southeast,Albuquerque,87108.0,LOVES CANNABIS - Albuquerque,,
"8367 Corona Loop NE, Albuquerque 87113.0","8367 Corona Loop NE, Albuquerque",8367 Corona Loop NE,Albuquerque,87113.0,DREAMWEAVER LLC - CORONA LOOP RETAIL,,
"8508 Central Ave SE, Albuquerque 87108.0","8508 Central Ave SE, Albuquerque",8508 Central Ave SE,Albuquerque,87108.0,ES HOLDINGS LLC - CENTRAL RETAIL,,
"8512 Calle Alameda NE, Albuquerque 87113.0","8512 Calle Alameda NE, Albuquerque",8512 Calle Alameda NE,Albuquerque,87113.0,MULEZ - CALLE ALAMEDA RETAIL,,
"8521 Golf Course Rd NW, Albuquerque 87114.0","8521 Golf Course Rd NW, Albuquerque",8521 Golf Course Rd NW,Albuquerque,87114.0,PURLIFE- GOLF COURSE RD NW  RETAIL,,
"8521 Golf Course Rd. SW Ste A, Albuquerque 87114.0","8521 Golf Course Rd. SW Ste A, Albuquerque",8521 Golf Course Rd. SW Ste A,Albuquerque,87114.0,420GBG LLC - GOLF COURSE RETAIL,,
"8715 Central Ave NW, Albuquerque 87121.0","8715 Central Ave NW, Albuquerque",8715 Central Ave NW,Albuquerque,87121.0,BREAKING BUD DISPENSARY LLC - CENTRAL RETAIL,,
"8900 Central Ave SE, Albuquerque 87123.0","8900 Central Ave SE, Albuquerque",8900 Central Ave SE,Albuquerque,87123.0,ROUTE 66 SMOKE SHOP LLC / RETAIL RHODE ISLAND ST NE,,
"8917 Adams ST NE, Albuquerque 87113.0","8917 Adams ST NE, Albuquerque",8917 Adams ST NE,Albuquerque,87113.0,CARVER FAMILY FARM- RETAIL MICRO,,
"8920 Menaul Blvd NE, Albuquerque 87112.0","8920 Menaul Blvd NE, Albuquerque",8920 Menaul Blvd NE,Albuquerque,87112.0,THE GRASS STATION LLC - MENAUL BLVD NORTHEAST RETAILER,,
"9012 Central Ave SE, Albuquerque 87123.0","9012 Central Ave SE, Albuquerque",9012 Central Ave SE,Albuquerque,87123.0,NEW MEXICO DRIP LLC - CENTRAL AVE RETAIL,,
"904 Broadway NE St. A, Albuquerque 87102.0","904 Broadway NE St. A, Albuquerque",904 Broadway NE St. A,Albuquerque,87102.0,HF HOLDINGS LLC - GOLF COURSE RETAIL,,
"915 Yale SE, Albuquerque 87106.0","915 Yale SE, Albuquerque",915 Yale SE,Albuquerque,87106.0,MAMA AND THE GIRLS / RETAIL LAGUAYRA DR NE,,
"9237 4th St. NW, Albuquerque 87114.0","9237 4th St. NW, Albuquerque",9237 4th St. NW,Albuquerque,87114.0,EVEREST APOTHECARY - DISPENSARY,,
"9370 Coors Blvd NW Suite 600, Albuquerque 87114.0","9370 Coors Blvd NW Suite 600, Albuquerque",9370 Coors Blvd NW Suite 600,Albuquerque,87114.0,EQUILIBRIUM CANNABIS COMPANY LLC - COORS RETAIL,,
"9402 Indian School Rd NE, Albuquerque 87112.0","9402 Indian School Rd NE, Albuquerque",9402 Indian School Rd NE,Albuquerque,87112.0,A FARMER AND HIS DOG LLC-INDIAN SCHOOL RETAIL,,
"9635 Menaul Blvd NE, Albuquerque 87112.0","9635 Menaul Blvd NE, Albuquerque",9635 Menaul Blvd NE,Albuquerque,87112.0,FUEGO CANNABIS LLC - MENAUL BLVD RETAIL,,
"9800 Montgomery Blvd NE, Albuquerque 87110.0","9800 Montgomery Blvd NE, Albuquerque",9800 Montgomery Blvd NE,Albuquerque,87110.0,PURLIFE DISPENSARY - Albuquerque,,
"9821 Montgomery Blvd, Albuquerque 87111.0","9821 Montgomery Blvd, Albuquerque",9821 Montgomery Blvd,Albuquerque,87111.0,"R. GREENLEAF ORGANICS, INC.",,
"9880 Montgomery Blvd NE Ste C, Albuquerque 87111.0","9880 Montgomery Blvd NE Ste C, Albuquerque",9880 Montgomery Blvd NE Ste C,Albuquerque,87111.0,OCC ABQ LLC - MONTGOMERY BLVD NE RETAIL,,
"9901 Lomas Blvd NE, Albuquerque 87112.0","9901 Lomas Blvd NE, Albuquerque",9901 Lomas Blvd NE,Albuquerque,87112.0,ELEMENTS DISPENSARY LLC/ RETAIL LOMAS BLVD NE,,
